{"type": "FeatureCollection", "features": [{"type": "Feature", "properties": {"id": "9604", "fid": 52176625, "name": "Ambarvale", "featureType": "ZoneSubstation", "city": "Rosemeadow", "postcode": "2560", "voltage": "66kV", "feeder": null, "address": "25 Anthony Drive", "state": "Inservice", "layer": "zoneSubstation"}, "geometry": {"type": "Point", "coordinates": [150.79193096295063, -34.100309533442136]}}, {"type": "Feature", "properties": {"id": "9778", "fid": 80639920, "name": "North Leppington", "featureType": "ZoneSubstation", "city": "Leppington", "postcode": "2179", "voltage": "132kV", "feeder": null, "address": "375 Bringelly Road", "state": "Inservice", "layer": "zoneSubstation"}, "geometry": {"type": "Point", "coordinates": [150.79742280325658, -33.94986433935866]}}, {"type": "Feature", "properties": {"id": "9647", "fid": 52176745, "name": "Bulli", "featureType": "ZoneSubstation", "city": "Bulli", "postcode": "2516", "voltage": "33kV", "feeder": null, "address": "20B Hobart Street", "state": "Inservice", "layer": "zoneSubstation"}, "geometry": {"type": "Point", "coordinates": [150.90848714969684, -34.32670197265625]}}, {"type": "Feature", "properties": {"id": "9623", "fid": 52176649, "name": "Glenmore Park", "featureType": "ZoneSubstation", "city": "Glenmore Park", "postcode": "2745", "voltage": "132kV", "feeder": null, "address": "23 Candlebark Circuit", "state": "Inservice", "layer": "zoneSubstation"}, "geometry": {"type": "Point", "coordinates": [150.66821607271459, -33.79106255623331]}}, {"type": "Feature", "properties": {"id": "9621", "fid": 52176704, "name": "Katoomba", "featureType": "ZoneSubstation", "city": "Katoomba", "postcode": "2780", "voltage": "66kV", "feeder": null, "address": "1 Cooper Street", "state": "Inservice", "layer": "zoneSubstation"}, "geometry": {"type": "Point", "coordinates": [150.3101983725506, -33.70658168402525]}}, {"type": "Feature", "properties": {"id": "9588", "fid": 52176709, "name": "Blackmans Flat", "featureType": "ZoneSubstation", "city": "Lidsdale", "postcode": "2790", "voltage": "66kV", "feeder": null, "address": "11 View Street", "state": "Inservice", "layer": "zoneSubstation"}, "geometry": {"type": "Point", "coordinates": [150.0730336630933, -33.37120358638932]}}, {"type": "Feature", "properties": {"id": "9630", "fid": 52176713, "name": "North Parramatta", "featureType": "ZoneSubstation", "city": "North Parramatta", "postcode": "2151", "voltage": "132kV", "feeder": null, "address": "55 Grose Street", "state": "Inservice", "layer": "zoneSubstation"}, "geometry": {"type": "Point", "coordinates": [151.0090121901936, -33.807379245919265]}}, {"type": "Feature", "properties": {"id": "9635", "fid": 52176717, "name": "South Prospect", "featureType": "ZoneSubstation", "city": "Wetherill Park", "postcode": "2164", "voltage": "33kV", "feeder": null, "address": "177 Newton Road", "state": "Inservice", "layer": "zoneSubstation"}, "geometry": {"type": "Point", "coordinates": [150.88982436854894, -33.835880367860256]}}, {"type": "Feature", "properties": {"id": "9646", "fid": 52176721, "name": "Bowral", "featureType": "ZoneSubstation", "city": "Bowral", "postcode": "2576", "voltage": "33kV", "feeder": null, "address": "206 Merrigang Street", "state": "Inservice", "layer": "zoneSubstation"}, "geometry": {"type": "Point", "coordinates": [150.44184259814133, -34.479899391914934]}}, {"type": "Feature", "properties": {"id": "9644", "fid": 52176726, "name": "Bolong", "featureType": "ZoneSubstation", "city": "Bolong", "postcode": "2540", "voltage": "33kV", "feeder": null, "address": "340 Bolong Road", "state": "Inservice", "layer": "zoneSubstation"}, "geometry": {"type": "Point", "coordinates": [150.63503502991045, -34.85093046316267]}}, {"type": "Feature", "properties": {"id": "9669", "fid": 52176732, "name": "Nowra", "featureType": "ZoneSubstation", "city": "Nowra", "postcode": "2541", "voltage": "33kV", "feeder": null, "address": "207 Osborne Street", "state": "Inservice", "layer": "zoneSubstation"}, "geometry": {"type": "Point", "coordinates": [150.59498292028962, -34.887544878101984]}}, {"type": "Feature", "properties": {"id": "9659", "fid": 52176735, "name": "Inner Harbour", "featureType": "ZoneSubstation", "city": "Wollongong", "postcode": "2500", "voltage": "33kV", "feeder": null, "address": "Port Kembla Rd", "state": "Inservice", "layer": "zoneSubstation"}, "geometry": {"type": "Point", "coordinates": [150.89710259125036, -34.44634520047162]}}, {"type": "Feature", "properties": {"id": "9680", "fid": 52176736, "name": "South Wollongong", "featureType": "ZoneSubstation", "city": "Wollongong", "postcode": "2500", "voltage": "33kV", "feeder": null, "address": "55 Swan Street", "state": "Inservice", "layer": "zoneSubstation"}, "geometry": {"type": "Point", "coordinates": [150.89345723717702, -34.4358067925177]}}, {"type": "Feature", "properties": {"id": "9663", "fid": 52176738, "name": "Kenny Street", "featureType": "ZoneSubstation", "city": "Wollongong", "postcode": "2500", "voltage": "33kV", "feeder": null, "address": "91 Burelli Street", "state": "Inservice", "layer": "zoneSubstation"}, "geometry": {"type": "Point", "coordinates": [150.89215199950985, -34.426544986606395]}}, {"type": "Feature", "properties": {"id": "9685", "fid": 52176739, "name": "West Wollongong", "featureType": "ZoneSubstation", "city": "West Wollongong", "postcode": "2500", "voltage": "33kV", "feeder": null, "address": "8 David Street", "state": "Inservice", "layer": "zoneSubstation"}, "geometry": {"type": "Point", "coordinates": [150.8755707208257, -34.42130188110789]}}, {"type": "Feature", "properties": {"id": "9656", "fid": 52176740, "name": "Gerringong", "featureType": "ZoneSubstation", "city": "Gerringong", "postcode": "2534", "voltage": "33kV", "feeder": null, "address": "55 Rowlins Road", "state": "Inservice", "layer": "zoneSubstation"}, "geometry": {"type": "Point", "coordinates": [150.82080116046203, -34.741638019371294]}}, {"type": "Feature", "properties": {"id": "9769", "fid": 52176755, "name": "Penrith 11Kv", "featureType": "ZoneSubstation", "city": "Penrith", "postcode": "2750", "voltage": "132kV", "feeder": null, "address": "2235-2249 Castlereagh Road", "state": "Inservice", "layer": "zoneSubstation"}, "geometry": {"type": "Point", "coordinates": [150.69148325160975, -33.74668719318844]}}, {"type": "Feature", "properties": {"id": "9701", "fid": 52176757, "name": "Prestons", "featureType": "ZoneSubstation", "city": "Prestons", "postcode": "2170", "voltage": "33kV", "feeder": null, "address": "2077 Camden Valley Way", "state": "Inservice", "layer": "zoneSubstation"}, "geometry": {"type": "Point", "coordinates": [150.8624356589324, -33.95404505464758]}}, {"type": "Feature", "properties": {"id": "9556", "fid": 62488566, "name": "Quarries", "featureType": "ZoneSubstation", "city": "Pemulwuy", "postcode": "2145", "voltage": "33kV", "feeder": null, "address": "20 Picrite Close", "state": "Inservice", "layer": "zoneSubstation"}, "geometry": {"type": "Point", "coordinates": [150.91820817524277, -33.81672122708677]}}, {"type": "Feature", "properties": {"id": "9714", "fid": 64326313, "name": "Hinchinbrook", "featureType": "ZoneSubstation", "city": "Hoxton Park", "postcode": "2171", "voltage": "33kV", "feeder": null, "address": "7 Cowpasture Road", "state": "Inservice", "layer": "zoneSubstation"}, "geometry": {"type": "Point", "coordinates": [150.84829589758894, -33.92365652175815]}}, {"type": "Feature", "properties": {"id": "9719", "fid": 64589019, "name": "Mount Ousley", "featureType": "ZoneSubstation", "city": "Mount Ousley", "postcode": "2519", "voltage": "33kV", "feeder": null, "address": "12 Gowan Brae Avenue", "state": "Inservice", "layer": "zoneSubstation"}, "geometry": {"type": "Point", "coordinates": [150.88466221527872, -34.40317971977358]}}, {"type": "Feature", "properties": {"id": "9731", "fid": 77697702, "name": "Granville", "featureType": "ZoneSubstation", "city": "Granville", "postcode": "2142", "voltage": "132kV", "feeder": null, "address": "101 Elizabeth Street", "state": "Inservice", "layer": "zoneSubstation"}, "geometry": {"type": "Point", "coordinates": [151.00265650071233, -33.837001201312916]}}, {"type": "Feature", "properties": {"id": "9727", "fid": 77791104, "name": "Wilton", "featureType": "ZoneSubstation", "city": "Wilton", "postcode": "2571", "voltage": "33kV", "feeder": null, "address": "152 Condell Park Road", "state": "Inservice", "layer": "zoneSubstation"}, "geometry": {"type": "Point", "coordinates": [150.6725588120779, -34.22805786633667]}}, {"type": "Feature", "properties": {"id": "9755", "fid": 78128432, "name": "Glenorie", "featureType": "ZoneSubstation", "city": "Glenorie", "postcode": "2157", "voltage": "33kV", "feeder": null, "address": "43 Cattai Ridge Road", "state": "Inservice", "layer": "zoneSubstation"}, "geometry": {"type": "Point", "coordinates": [151.00395262078433, -33.617795622698246]}}, {"type": "Feature", "properties": {"id": "9633", "fid": 52176714, "name": "Anzac Village", "featureType": "ZoneSubstation", "city": "Moorebank", "postcode": "2170", "voltage": "33kV", "feeder": null, "address": "1 Anzac Road", "state": "Inservice", "layer": "zoneSubstation"}, "geometry": {"type": "Point", "coordinates": [150.93056010516685, -33.945034814827956]}}, {"type": "Feature", "properties": {"id": "9527", "fid": 79005363, "name": "Northmead", "featureType": "ZoneSubstation", "city": "Northmead", "postcode": "2152", "voltage": "33kV", "feeder": null, "address": "1-3 Hood Street", "state": "Inservice", "layer": "zoneSubstation"}, "geometry": {"type": "Point", "coordinates": [150.9870856956955, -33.7903170181864]}}, {"type": "Feature", "properties": {"id": "9581", "fid": 52176624, "name": "Maldon", "featureType": "ZoneSubstation", "city": "Razorback", "postcode": "2571", "voltage": "66kV", "feeder": null, "address": "270 Picton Road", "state": "Inservice", "layer": "zoneSubstation"}, "geometry": {"type": "Point", "coordinates": [150.6391697148262, -34.19086260073628]}}, {"type": "Feature", "properties": {"id": "9584", "fid": 52176627, "name": "Kentlyn", "featureType": "ZoneSubstation", "city": "Bradbury", "postcode": "2560", "voltage": "66kV", "feeder": null, "address": "5 Jacka Street", "state": "Inservice", "layer": "zoneSubstation"}, "geometry": {"type": "Point", "coordinates": [150.82827762691255, -34.079984691535145]}}, {"type": "Feature", "properties": {"id": "9558", "fid": 52176691, "name": "Kenthurst", "featureType": "ZoneSubstation", "city": "Kenthurst", "postcode": "2156", "voltage": "132kV", "feeder": null, "address": "2B Jones Road", "state": "Inservice", "layer": "zoneSubstation"}, "geometry": {"type": "Point", "coordinates": [151.00276624233996, -33.66624807024262]}}, {"type": "Feature", "properties": {"id": "9592", "fid": 52176641, "name": "Carramar", "featureType": "ZoneSubstation", "city": "Fairfield", "postcode": "2165", "voltage": "33kV", "feeder": null, "address": "8 East Parade", "state": "Inservice", "layer": "zoneSubstation"}, "geometry": {"type": "Point", "coordinates": [150.95108540318077, -33.87958682235859]}}, {"type": "Feature", "properties": {"id": "9537", "fid": 52176644, "name": "Smithfield", "featureType": "ZoneSubstation", "city": "Smithfield", "postcode": "2164", "voltage": "33kV", "feeder": null, "address": "272 Polding Street", "state": "Inservice", "layer": "zoneSubstation"}, "geometry": {"type": "Point", "coordinates": [150.92746778085794, -33.85985148760159]}}, {"type": "Feature", "properties": {"id": "9547", "fid": 52176651, "name": "Horsley Park", "featureType": "ZoneSubstation", "city": "Horsley Park", "postcode": "2175", "voltage": "33kV", "feeder": null, "address": "53 Redmayne Road", "state": "Inservice", "layer": "zoneSubstation"}, "geometry": {"type": "Point", "coordinates": [150.85492985303088, -33.83647239667638]}}, {"type": "Feature", "properties": {"id": "9549", "fid": 52176660, "name": "Sherwood", "featureType": "ZoneSubstation", "city": "Merrylands", "postcode": "2160", "voltage": "33kV", "feeder": null, "address": "35 Charlotte Street", "state": "Inservice", "layer": "zoneSubstation"}, "geometry": {"type": "Point", "coordinates": [150.97713260236816, -33.84293782509096]}}, {"type": "Feature", "properties": {"id": "9510", "fid": 52176664, "name": "Rosehill", "featureType": "ZoneSubstation", "city": "Rosehill", "postcode": "2142", "voltage": "33kV", "feeder": null, "address": "12 Unwin Street", "state": "Inservice", "layer": "zoneSubstation"}, "geometry": {"type": "Point", "coordinates": [151.02930670900307, -33.827537719591675]}}, {"type": "Feature", "properties": {"id": "9611", "fid": 52176667, "name": "Hazelbrook", "featureType": "ZoneSubstation", "city": "Hazelbrook", "postcode": "2779", "voltage": "66kV", "feeder": null, "address": "34 Winbourne Road", "state": "Inservice", "layer": "zoneSubstation"}, "geometry": {"type": "Point", "coordinates": [150.4577580225202, -33.720300714049024]}}, {"type": "Feature", "properties": {"id": "9548", "fid": 52176669, "name": "Kingswood", "featureType": "ZoneSubstation", "city": "South Penrith", "postcode": "2750", "voltage": "33kV", "feeder": null, "address": "107 Smith Street", "state": "Inservice", "layer": "zoneSubstation"}, "geometry": {"type": "Point", "coordinates": [150.70835116952534, -33.767403125200346]}}, {"type": "Feature", "properties": {"id": "9564", "fid": 52176671, "name": "Cranebrook", "featureType": "ZoneSubstation", "city": "Cranebrook", "postcode": "2749", "voltage": "33kV", "feeder": null, "address": "115-125 Andrews Road", "state": "Inservice", "layer": "zoneSubstation"}, "geometry": {"type": "Point", "coordinates": [150.70519341537843, -33.731229606557584]}}, {"type": "Feature", "properties": {"id": "9615", "fid": 52176685, "name": "West Pennant Hills", "featureType": "ZoneSubstation", "city": "West Pennant Hills", "postcode": "2125", "voltage": "66kV", "feeder": null, "address": "125 Aiken Road", "state": "Inservice", "layer": "zoneSubstation"}, "geometry": {"type": "Point", "coordinates": [151.0334689718135, -33.75338434808316]}}, {"type": "Feature", "properties": {"id": "9506", "fid": 52176686, "name": "Castle Hill", "featureType": "ZoneSubstation", "city": "Castle Hill", "postcode": "2154", "voltage": "66kV", "feeder": null, "address": "167 Cecil Avenue", "state": "Inservice", "layer": "zoneSubstation"}, "geometry": {"type": "Point", "coordinates": [151.01154383612922, -33.73696278709849]}}, {"type": "Feature", "properties": {"id": "9618", "fid": 52176687, "name": "West Castle Hill", "featureType": "ZoneSubstation", "city": "Castle Hill", "postcode": "2154", "voltage": "132kV", "feeder": null, "address": "11 Salisbury Road", "state": "Inservice", "layer": "zoneSubstation"}, "geometry": {"type": "Point", "coordinates": [150.97841278906034, -33.72909715358859]}}, {"type": "Feature", "properties": {"id": "9507", "fid": 52176690, "name": "Riverstone", "featureType": "ZoneSubstation", "city": "Riverstone", "postcode": "2765", "voltage": "33kV", "feeder": null, "address": "88 Riverstone Parade", "state": "Inservice", "layer": "zoneSubstation"}, "geometry": {"type": "Point", "coordinates": [150.85873705964423, -33.673376362705554]}}, {"type": "Feature", "properties": {"id": "9540", "fid": 52176692, "name": "Kellyville", "featureType": "ZoneSubstation", "city": "North Kellyville", "postcode": "2155", "voltage": "33kV", "feeder": null, "address": "131 Samantha Riley Drive", "state": "Inservice", "layer": "zoneSubstation"}, "geometry": {"type": "Point", "coordinates": [150.95850496837838, -33.69957739468376]}}, {"type": "Feature", "properties": {"id": "9553", "fid": 52176694, "name": "South Windsor", "featureType": "ZoneSubstation", "city": "South Windsor", "postcode": "2756", "voltage": "33kV", "feeder": null, "address": "7 Beasley Place", "state": "Inservice", "layer": "zoneSubstation"}, "geometry": {"type": "Point", "coordinates": [150.81277153143066, -33.62729111859844]}}, {"type": "Feature", "properties": {"id": "9595", "fid": 52176701, "name": "Glossodia", "featureType": "ZoneSubstation", "city": "Glossodia", "postcode": "2756", "voltage": "33kV", "feeder": null, "address": "368 Creek Ridge Road", "state": "Inservice", "layer": "zoneSubstation"}, "geometry": {"type": "Point", "coordinates": [150.7938493562205, -33.53851749661942]}}, {"type": "Feature", "properties": {"id": "9607", "fid": 52176710, "name": "Ilford Hall", "featureType": "ZoneSubstation", "city": "Ilford", "postcode": "2850", "voltage": "66kV", "feeder": null, "address": "79 Ilford Hall Road", "state": "Inservice", "layer": "zoneSubstation"}, "geometry": {"type": "Point", "coordinates": [149.8635955000172, -32.95934909451437]}}, {"type": "Feature", "properties": {"id": "9589", "fid": 52176711, "name": "Kandos", "featureType": "ZoneSubstation", "city": "Kandos", "postcode": "2848", "voltage": "66kV", "feeder": null, "address": "5 Ilford Road", "state": "Inservice", "layer": "zoneSubstation"}, "geometry": {"type": "Point", "coordinates": [149.9695307783772, -32.854875959987474]}}, {"type": "Feature", "properties": {"id": "9634", "fid": 52176716, "name": "East Prospect", "featureType": "ZoneSubstation", "city": "Wetherill Park", "postcode": "2164", "voltage": "33kV", "feeder": null, "address": "39a Widemere Road", "state": "Inservice", "layer": "zoneSubstation"}, "geometry": {"type": "Point", "coordinates": [150.910033830274, -33.8304496404385]}}, {"type": "Feature", "properties": {"id": "9643", "fid": 52176728, "name": "Berry", "featureType": "ZoneSubstation", "city": "Berry", "postcode": "2535", "voltage": "33kV", "feeder": null, "address": "3 Old Creamery Lane", "state": "Inservice", "layer": "zoneSubstation"}, "geometry": {"type": "Point", "coordinates": [150.6957713011123, -34.78147175783466]}}, {"type": "Feature", "properties": {"id": "9679", "fid": 52176730, "name": "South Nowra", "featureType": "ZoneSubstation", "city": "Comberton", "postcode": "2540", "voltage": "33kV", "feeder": null, "address": "365 D Princes Highway", "state": "Inservice", "layer": "zoneSubstation"}, "geometry": {"type": "Point", "coordinates": [150.60342891322034, -34.93616030945354]}}, {"type": "Feature", "properties": {"id": "9756", "fid": 77908342, "name": "The Oaks", "featureType": "ZoneSubstation", "city": "The Oaks", "postcode": "2570", "voltage": "33kV", "feeder": null, "address": "45 Silverdale Road", "state": "Inservice", "layer": "zoneSubstation"}, "geometry": {"type": "Point", "coordinates": [150.57374934896652, -34.06795435259142]}}, {"type": "Feature", "properties": {"id": "9753", "fid": 78238429, "name": "Tomerong", "featureType": "ZoneSubstation", "city": "Tomerong", "postcode": "2540", "voltage": "33kV", "feeder": null, "address": "307 Hawken Road", "state": "Inservice", "layer": "zoneSubstation"}, "geometry": {"type": "Point", "coordinates": [150.58734246267642, -35.04977937605935]}}, {"type": "Feature", "properties": {"id": "9602", "fid": 52176668, "name": "Blaxland", "featureType": "ZoneSubstation", "city": "Blaxland", "postcode": "2774", "voltage": "66kV", "feeder": null, "address": "61 Wilson Way", "state": "Inservice", "layer": "zoneSubstation"}, "geometry": {"type": "Point", "coordinates": [150.6169446803764, -33.74709129808607]}}, {"type": "Feature", "properties": {"id": "9640", "fid": 52176756, "name": "Parklea", "featureType": "ZoneSubstation", "city": "Stanhope Gardens", "postcode": "2768", "voltage": "132kV", "feeder": null, "address": "686 Sunnyholt Road", "state": "Inservice", "layer": "zoneSubstation"}, "geometry": {"type": "Point", "coordinates": [150.9361687846092, -33.72036368708364]}}, {"type": "Feature", "properties": {"id": "9668", "fid": 52176742, "name": "North Wollongong", "featureType": "ZoneSubstation", "city": "North Wollongong", "postcode": "2500", "voltage": "33kV", "feeder": null, "address": "1 Virginia Street", "state": "Inservice", "layer": "zoneSubstation"}, "geometry": {"type": "Point", "coordinates": [150.89670574055856, -34.411238917704274]}}, {"type": "Feature", "properties": {"id": "9751", "fid": 77824030, "name": "Casula", "featureType": "ZoneSubstation", "city": "Casula", "postcode": "2170", "voltage": "33kV", "feeder": null, "address": "70 Myall Road", "state": "Inservice", "layer": "zoneSubstation"}, "geometry": {"type": "Point", "coordinates": [150.8904125725095, -33.95285827640289]}}, {"type": "Feature", "properties": {"id": "9687", "fid": 52176754, "name": "Yatte Yattah", "featureType": "ZoneSubstation", "city": "Yatte Yattah", "postcode": "2539", "voltage": "33kV", "feeder": null, "address": "5 Porters Creek Road", "state": "Inservice", "layer": "zoneSubstation"}, "geometry": {"type": "Point", "coordinates": [150.42335709029382, -35.246934549515565]}}, {"type": "Feature", "properties": {"id": "9802", "fid": 83713330, "name": "South Erskine Park", "featureType": "ZoneSubstation", "city": "Kemps Creek", "postcode": "2178", "voltage": "132kV", "feeder": null, "address": "1 Cuprum Close", "state": "Inservice", "layer": "zoneSubstation"}, "geometry": {"type": "Point", "coordinates": [150.80188791790877, -33.83039774165061]}}, {"type": "Feature", "properties": {"id": "9676", "fid": 52176734, "name": "Shellharbour", "featureType": "ZoneSubstation", "city": "Shellharbour", "postcode": "2529", "voltage": "33kV", "feeder": "SHJ2", "address": "13 The Grove", "state": "Inservice", "layer": "zoneSubstation"}, "geometry": {"type": "Point", "coordinates": [150.85122036526792, -34.57736570651429]}}, {"type": "Feature", "properties": {"id": "9578", "fid": 52176628, "name": "Campbelltown", "featureType": "ZoneSubstation", "city": "Blair Athol", "postcode": "2560", "voltage": "66kV", "feeder": "J543", "address": "122 Narellan Road", "state": "Inservice", "layer": "zoneSubstation"}, "geometry": {"type": "Point", "coordinates": [150.80097014293418, -34.06604192178093]}}, {"type": "Feature", "properties": {"id": "9535", "fid": 52176635, "name": "Moorebank", "featureType": "ZoneSubstation", "city": "Moorebank", "postcode": "2170", "voltage": "33kV", "feeder": "6426", "address": "24 Kelso Crescent", "state": "Inservice", "layer": "zoneSubstation"}, "geometry": {"type": "Point", "coordinates": [150.93835982962096, -33.93082155021299]}}, {"type": "Feature", "properties": {"id": "9544", "fid": 52176638, "name": "Bonnyrigg", "featureType": "ZoneSubstation", "city": "Bonnyrigg", "postcode": "2177", "voltage": "33kV", "feeder": null, "address": "475 Elizabeth Drive", "state": "Inservice", "layer": "zoneSubstation"}, "geometry": {"type": "Point", "coordinates": [150.88883009298098, -33.8922886896205]}}, {"type": "Feature", "properties": {"id": "9530", "fid": 52176645, "name": "Yennora", "featureType": "ZoneSubstation", "city": "Fairfield East", "postcode": "2165", "voltage": "33kV", "feeder": null, "address": "1 Hanson Street", "state": "Inservice", "layer": "zoneSubstation"}, "geometry": {"type": "Point", "coordinates": [150.970114162384, -33.87272569656477]}}, {"type": "Feature", "properties": {"id": "9665", "fid": 52176722, "name": "Mittagong", "featureType": "ZoneSubstation", "city": "Balaclava", "postcode": "2575", "voltage": "33kV", "feeder": null, "address": "32 Beresford Street", "state": "Inservice", "layer": "zoneSubstation"}, "geometry": {"type": "Point", "coordinates": [150.47453297810438, -34.4407897407036]}}, {"type": "Feature", "properties": {"id": "9597", "fid": 52176639, "name": "Bossley Park", "featureType": "ZoneSubstation", "city": "Bossley Park", "postcode": "2176", "voltage": "33kV", "feeder": null, "address": "1 Quarry Road", "state": "Inservice", "layer": "zoneSubstation"}, "geometry": {"type": "Point", "coordinates": [150.89038184215119, -33.85713388696386]}}, {"type": "Feature", "properties": {"id": "9683", "fid": 52176744, "name": "Unanderra", "featureType": "ZoneSubstation", "city": "Berkeley", "postcode": "2506", "voltage": "33kV", "feeder": null, "address": "180 Berkeley Road", "state": "Inservice", "layer": "zoneSubstation"}, "geometry": {"type": "Point", "coordinates": [150.85327051360974, -34.463480271328876]}}, {"type": "Feature", "properties": {"id": "9641", "fid": 52176750, "name": "Albion Park", "featureType": "ZoneSubstation", "city": "Albion Park", "postcode": "2527", "voltage": "33kV", "feeder": null, "address": "14 Russell Street", "state": "Inservice", "layer": "zoneSubstation"}, "geometry": {"type": "Point", "coordinates": [150.77452364537774, -34.57328980690302]}}, {"type": "Feature", "properties": {"id": "9711", "fid": 62637474, "name": "Mamre", "featureType": "ZoneSubstation", "city": "Erskine Park", "postcode": "2759", "voltage": "132kV", "feeder": null, "address": "8 John Morphett Place", "state": "Inservice", "layer": "zoneSubstation"}, "geometry": {"type": "Point", "coordinates": [150.79543615256188, -33.81161028418873]}}, {"type": "Feature", "properties": {"id": "9717", "fid": 64032478, "name": "North Warragamba", "featureType": "ZoneSubstation", "city": "Wallacia", "postcode": "2745", "voltage": "132kV", "feeder": null, "address": "2475 Silverdale Road", "state": "Inservice", "layer": "zoneSubstation"}, "geometry": {"type": "Point", "coordinates": [150.6155193532453, -33.8760382057387]}}, {"type": "Feature", "properties": {"id": "9736", "fid": 66123228, "name": "Berrima Junction", "featureType": "ZoneSubstation", "city": "Moss Vale", "postcode": "2577", "voltage": "33kV", "feeder": null, "address": "1 Douglas Road", "state": "Inservice", "layer": "zoneSubstation"}, "geometry": {"type": "Point", "coordinates": [150.365909035605, -34.520387891153916]}}, {"type": "Feature", "properties": {"id": "9734", "fid": 66939299, "name": "West Liverpool 11Kv", "featureType": "ZoneSubstation", "city": "Prestons", "postcode": "2170", "voltage": "33kV", "feeder": null, "address": "150 Jedda Road", "state": "Inservice", "layer": "zoneSubstation"}, "geometry": {"type": "Point", "coordinates": [150.87154906580741, -33.931914403408754]}}, {"type": "Feature", "properties": {"id": "9739", "fid": 77790068, "name": "Cawdor", "featureType": "ZoneSubstation", "city": "Cawdor", "postcode": "2570", "voltage": "33kV", "feeder": null, "address": "275 Cawdor Road", "state": "Inservice", "layer": "zoneSubstation"}, "geometry": {"type": "Point", "coordinates": [150.68004445058324, -34.0762366076608]}}, {"type": "Feature", "properties": {"id": "9511", "fid": 52176647, "name": "South Granville", "featureType": "ZoneSubstation", "city": "South Granville", "postcode": "2142", "voltage": "33kV", "feeder": null, "address": "415-417 Blaxcell Street", "state": "Inservice", "layer": "zoneSubstation"}, "geometry": {"type": "Point", "coordinates": [151.00668518892067, -33.86249854168748]}}, {"type": "Feature", "properties": {"id": "9746", "fid": 78191402, "name": "East Richmond", "featureType": "ZoneSubstation", "city": "Richmond", "postcode": "2753", "voltage": "33kV", "feeder": null, "address": "56 Blacktown Road", "state": "Inservice", "layer": "zoneSubstation"}, "geometry": {"type": "Point", "coordinates": [150.76095941661163, -33.608647054545806]}}, {"type": "Feature", "properties": {"id": "9723", "fid": 64606250, "name": "Mobile No 1 Calderwood", "featureType": "ZoneSubstation", "city": "Calderwood", "postcode": "2527", "voltage": "33kV", "feeder": null, "address": "163 Calderwood Road", "state": "Inservice", "layer": "zoneSubstation"}, "geometry": {"type": "Point", "coordinates": [150.76068466109407, -34.559305248168286]}}, {"type": "Feature", "properties": {"id": "9684", "fid": 52176743, "name": "Warilla", "featureType": "ZoneSubstation", "city": "Warilla", "postcode": "2528", "voltage": "33kV", "feeder": null, "address": "25 Trumper Street", "state": "Inservice", "layer": "zoneSubstation"}, "geometry": {"type": "Point", "coordinates": [150.84872269339195, -34.54497771656052]}}, {"type": "Feature", "properties": {"id": "9735", "fid": 77841607, "name": "Schofields", "featureType": "ZoneSubstation", "city": "Schofields", "postcode": "2762", "voltage": "132kV", "feeder": null, "address": "LOT 11 Schofields Road", "state": "Inservice", "layer": "zoneSubstation"}, "geometry": {"type": "Point", "coordinates": [150.87821291586076, -33.700164458292235]}}, {"type": "Feature", "properties": {"id": "9766", "fid": 78825012, "name": "South Leppington", "featureType": "ZoneSubstation", "city": "Leppington", "postcode": "2179", "voltage": "132kV", "feeder": null, "address": "23 Saint Andrews Road", "state": "Inservice", "layer": "zoneSubstation"}, "geometry": {"type": "Point", "coordinates": [150.80139574150405, -33.98306390574346]}}, {"type": "Feature", "properties": {"id": "9758", "fid": 78191016, "name": "Chipping Norton", "featureType": "ZoneSubstation", "city": "Chipping Norton", "postcode": "2170", "voltage": "33kV", "feeder": null, "address": "30 Childs Road", "state": "Inservice", "layer": "zoneSubstation"}, "geometry": {"type": "Point", "coordinates": [150.9622928016002, -33.919316601626676]}}, {"type": "Feature", "properties": {"id": "9700", "fid": 52176761, "name": "Kembla Grange", "featureType": "ZoneSubstation", "city": "Kembla Grange", "postcode": "2526", "voltage": "33kV", "feeder": null, "address": "23 Reddalls Road", "state": "Inservice", "layer": "zoneSubstation"}, "geometry": {"type": "Point", "coordinates": [150.80597943758343, -34.468320260079466]}}, {"type": "Feature", "properties": {"id": "9555", "fid": 52176674, "name": "Whalan", "featureType": "ZoneSubstation", "city": "Mount Druitt", "postcode": "2770", "voltage": "33kV", "feeder": null, "address": "5 Belmore Avenue", "state": "Inservice", "layer": "zoneSubstation"}, "geometry": {"type": "Point", "coordinates": [150.8128432023133, -33.76702167133073]}}, {"type": "Feature", "properties": {"id": "9728", "fid": 52176636, "name": "Liverpool 11Kv", "featureType": "ZoneSubstation", "city": "Liverpool", "postcode": "2170", "voltage": "33kV", "feeder": "6426", "address": "994 Speed Street", "state": "Inservice", "layer": "zoneSubstation"}, "geometry": {"type": "Point", "coordinates": [150.92204041456523, -33.93054109452663]}}, {"type": "Feature", "properties": {"id": "9825", "fid": 89369256, "name": "Western Sydney Airport", "featureType": "ZoneSubstation", "city": "KEMPS CREEK", "postcode": "2178", "voltage": "22kV", "feeder": null, "address": "Elizabeth Drive", "state": "Inservice", "layer": "zoneSubstation"}, "geometry": {"type": "Point", "coordinates": [150.73011269803632, -33.871402848735926]}}, {"type": "Feature", "properties": {"id": "9562", "fid": 52176663, "name": "Lennox", "featureType": "ZoneSubstation", "city": "Parramatta", "postcode": "2150", "voltage": "33kV", "feeder": null, "address": "24 Lennox Street", "state": "Inservice", "layer": "zoneSubstation"}, "geometry": {"type": "Point", "coordinates": [151.00174580445616, -33.82174642983154]}}, {"type": "Feature", "properties": {"id": "9652", "fid": 52176751, "name": "Dapto", "featureType": "ZoneSubstation", "city": "Dapto", "postcode": "2530", "voltage": "33kV", "feeder": null, "address": "14 Cleveland Road", "state": "Inservice", "layer": "zoneSubstation"}, "geometry": {"type": "Point", "coordinates": [150.78725335047056, -34.5014895944598]}}, {"type": "Feature", "properties": {"id": "9674", "fid": 52176719, "name": "Robertson", "featureType": "ZoneSubstation", "city": "Robertson", "postcode": "2577", "voltage": "33kV", "feeder": null, "address": "2 Rossgoll Road", "state": "Inservice", "layer": "zoneSubstation"}, "geometry": {"type": "Point", "coordinates": [150.57848105110716, -34.588731465498505]}}, {"type": "Feature", "properties": {"id": "9777", "fid": 83679176, "name": "Mobile No.3 Menangle Park", "featureType": "ZoneSubstation", "city": "Menangle Park", "postcode": "2563", "voltage": "66kV", "feeder": null, "address": "22 Fitzpatrick Street", "state": "Inservice", "layer": "zoneSubstation"}, "geometry": {"type": "Point", "coordinates": [150.75128203990747, -34.09335707822706]}}, {"type": "Feature", "properties": {"id": "9622", "fid": 62679282, "name": "Tahmoor", "featureType": "ZoneSubstation", "city": "Tahmoor", "postcode": "2573", "voltage": "66kV", "feeder": null, "address": "2706 Remembrance Driveway", "state": "Inservice", "layer": "zoneSubstation"}, "geometry": {"type": "Point", "coordinates": [150.58857779021886, -34.22923408346243]}}, {"type": "Feature", "properties": {"id": "9608", "fid": 52176630, "name": "Bow Bowing", "featureType": "ZoneSubstation", "city": "Ingleburn", "postcode": "2565", "voltage": "66kV", "feeder": null, "address": "14C Williamson Road", "state": "Inservice", "layer": "zoneSubstation"}, "geometry": {"type": "Point", "coordinates": [150.85353638929348, -33.997438202548985]}}, {"type": "Feature", "properties": {"id": "9583", "fid": 52176631, "name": "Macquarie Fields", "featureType": "ZoneSubstation", "city": "Macquarie Fields", "postcode": "2564", "voltage": "66kV", "feeder": null, "address": "51 Macquarie Road", "state": "Inservice", "layer": "zoneSubstation"}, "geometry": {"type": "Point", "coordinates": [150.88101544997647, -33.994390015964136]}}, {"type": "Feature", "properties": {"id": "9616", "fid": 52176633, "name": "Bringelly", "featureType": "ZoneSubstation", "city": "Bringelly", "postcode": "2556", "voltage": "132kV", "feeder": null, "address": "30A Greendale Road", "state": "Inservice", "layer": "zoneSubstation"}, "geometry": {"type": "Point", "coordinates": [150.72877439664825, -33.93952147536491]}}, {"type": "Feature", "properties": {"id": "9542", "fid": 52176676, "name": "Plumpton", "featureType": "ZoneSubstation", "city": "Blackett", "postcode": "2770", "voltage": "33kV", "feeder": null, "address": "75 Jersey Road", "state": "Inservice", "layer": "zoneSubstation"}, "geometry": {"type": "Point", "coordinates": [150.8136540456449, -33.742507539262334]}}, {"type": "Feature", "properties": {"id": "9650", "fid": 52176729, "name": "Culburra", "featureType": "ZoneSubstation", "city": "Wollumboola", "postcode": "2540", "voltage": "33kV", "feeder": null, "address": "1 Coonemia Road", "state": "Inservice", "layer": "zoneSubstation"}, "geometry": {"type": "Point", "coordinates": [150.7100991763419, -34.95752903230114]}}, {"type": "Feature", "properties": {"id": "9707", "fid": 64632142, "name": "Eastern Creek", "featureType": "ZoneSubstation", "city": "Eastern Creek", "postcode": "2766", "voltage": "132kV", "feeder": null, "address": "716 Old Wallgrove Road", "state": "Inservice", "layer": "zoneSubstation"}, "geometry": {"type": "Point", "coordinates": [150.83739013188534, -33.81331798795027]}}, {"type": "Feature", "properties": {"id": "9546", "fid": 52176643, "name": "Homepride", "featureType": "ZoneSubstation", "city": "Warwick Farm", "postcode": "2170", "voltage": "33kV", "feeder": null, "address": "8-12 Homepride Avenue", "state": "Inservice", "layer": "zoneSubstation"}, "geometry": {"type": "Point", "coordinates": [150.9222415553633, -33.91192339286919]}}, {"type": "Feature", "properties": {"id": "9620", "fid": 52176654, "name": "Wetherill Park", "featureType": "ZoneSubstation", "city": "Wetherill Park", "postcode": "2164", "voltage": "132kV", "feeder": null, "address": "102 Redfern Street", "state": "Inservice", "layer": "zoneSubstation"}, "geometry": {"type": "Point", "coordinates": [150.9112367743866, -33.84193500344175]}}, {"type": "Feature", "properties": {"id": "9594", "fid": 52176655, "name": "Woodpark", "featureType": "ZoneSubstation", "city": "Smithfield", "postcode": "2164", "voltage": "33kV", "feeder": null, "address": "16 Cooper Street", "state": "Inservice", "layer": "zoneSubstation"}, "geometry": {"type": "Point", "coordinates": [150.93603873289157, -33.838906133203274]}}, {"type": "Feature", "properties": {"id": "9513", "fid": 52176656, "name": "Greystanes", "featureType": "ZoneSubstation", "city": "Greystanes", "postcode": "2145", "voltage": "33kV", "feeder": "7962", "address": "713A Merrylands Road", "state": "Inservice", "layer": "zoneSubstation"}, "geometry": {"type": "Point", "coordinates": [150.94913673468838, -33.82946625784832]}}, {"type": "Feature", "properties": {"id": "9563", "fid": 52176657, "name": "Westmead", "featureType": "ZoneSubstation", "city": "Westmead", "postcode": "2145", "voltage": "33kV", "feeder": null, "address": "9 Redbank Road", "state": "Inservice", "layer": "zoneSubstation"}, "geometry": {"type": "Point", "coordinates": [150.9911106606444, -33.800055961082556]}}, {"type": "Feature", "properties": {"id": "9565", "fid": 52176670, "name": "Emu Plains", "featureType": "ZoneSubstation", "city": "Emu Plains", "postcode": "2750", "voltage": "33kV", "feeder": null, "address": "162-168 Russell Street", "state": "Inservice", "layer": "zoneSubstation"}, "geometry": {"type": "Point", "coordinates": [150.65558297345987, -33.74216833298445]}}, {"type": "Feature", "properties": {"id": "9534", "fid": 52176673, "name": "St Marys", "featureType": "ZoneSubstation", "city": "Colyton", "postcode": "2760", "voltage": "33kV", "feeder": null, "address": "98 Desborough Road", "state": "Inservice", "layer": "zoneSubstation"}, "geometry": {"type": "Point", "coordinates": [150.79208266201127, -33.782492806647376]}}, {"type": "Feature", "properties": {"id": "9605", "fid": 52176675, "name": "Rooty Hill", "featureType": "ZoneSubstation", "city": "Rooty Hill", "postcode": "2766", "voltage": "132kV", "feeder": null, "address": "488 Woodstock Avenue", "state": "Inservice", "layer": "zoneSubstation"}, "geometry": {"type": "Point", "coordinates": [150.8390650308822, -33.75905811098363]}}, {"type": "Feature", "properties": {"id": "9545", "fid": 52176684, "name": "North Rocks", "featureType": "ZoneSubstation", "city": "North Rocks", "postcode": "2151", "voltage": "33kV", "feeder": null, "address": "3 Loyalty Road", "state": "Inservice", "layer": "zoneSubstation"}, "geometry": {"type": "Point", "coordinates": [151.01191209080105, -33.777135718662905]}}, {"type": "Feature", "properties": {"id": "9539", "fid": 52176688, "name": "Jasper Rd", "featureType": "ZoneSubstation", "city": "Baulkham Hills", "postcode": "2153", "voltage": "33kV", "feeder": null, "address": "5 Jasper Road", "state": "Inservice", "layer": "zoneSubstation"}, "geometry": {"type": "Point", "coordinates": [150.9817984575999, -33.75978761428421]}}, {"type": "Feature", "properties": {"id": "9523", "fid": 52176689, "name": "Seven Hills", "featureType": "ZoneSubstation", "city": "Seven Hills", "postcode": "2147", "voltage": "33kV", "feeder": null, "address": "22 Powers Road", "state": "Inservice", "layer": "zoneSubstation"}, "geometry": {"type": "Point", "coordinates": [150.94676845544583, -33.773680848057936]}}, {"type": "Feature", "properties": {"id": "9600", "fid": 52176696, "name": "Wentworth Falls", "featureType": "ZoneSubstation", "city": "Wentworth Falls", "postcode": "2782", "voltage": "66kV", "feeder": null, "address": "305-311 Blaxland Road", "state": "Inservice", "layer": "zoneSubstation"}, "geometry": {"type": "Point", "coordinates": [150.35784478089633, -33.70340381845183]}}, {"type": "Feature", "properties": {"id": "9569", "fid": 52176697, "name": "Springwood", "featureType": "ZoneSubstation", "city": "Springwood", "postcode": "2777", "voltage": "66kV", "feeder": null, "address": "61 Springwood Avenue", "state": "Inservice", "layer": "zoneSubstation"}, "geometry": {"type": "Point", "coordinates": [150.5667759043778, -33.700738377871694]}}, {"type": "Feature", "properties": {"id": "9543", "fid": 52176698, "name": "Kurrajong", "featureType": "ZoneSubstation", "city": "Kurrajong", "postcode": "2758", "voltage": "33kV", "feeder": null, "address": "1144 Timms Hill Road", "state": "Inservice", "layer": "zoneSubstation"}, "geometry": {"type": "Point", "coordinates": [150.66574446351655, -33.555252500968614]}}, {"type": "Feature", "properties": {"id": "9570", "fid": 52176703, "name": "Blackheath", "featureType": "ZoneSubstation", "city": "Blackheath", "postcode": "2785", "voltage": "66kV", "feeder": null, "address": "315 Great Western Highway", "state": "Inservice", "layer": "zoneSubstation"}, "geometry": {"type": "Point", "coordinates": [150.28329058148438, -33.625824316536445]}}, {"type": "Feature", "properties": {"id": "9571", "fid": 52176706, "name": "Hartley Vale", "featureType": "ZoneSubstation", "city": "Bell", "postcode": "2786", "voltage": "66kV", "feeder": null, "address": "288 Darling Causeway", "state": "Inservice", "layer": "zoneSubstation"}, "geometry": {"type": "Point", "coordinates": [150.27057738353594, -33.52885895204015]}}, {"type": "Feature", "properties": {"id": "9606", "fid": 52176708, "name": "Portland", "featureType": "ZoneSubstation", "city": "Portland", "postcode": "2847", "voltage": "66kV", "feeder": null, "address": "71 Williwa Street", "state": "Inservice", "layer": "zoneSubstation"}, "geometry": {"type": "Point", "coordinates": [149.985267585827, -33.35412248067378]}}, {"type": "Feature", "properties": {"id": "9590", "fid": 52176712, "name": "Bylong", "featureType": "ZoneSubstation", "city": "Bylong", "postcode": "2849", "voltage": "66kV", "feeder": null, "address": "7710 Bylong Valley Way", "state": "Inservice", "layer": "zoneSubstation"}, "geometry": {"type": "Point", "coordinates": [150.11618853707682, -32.41427909401728]}}, {"type": "Feature", "properties": {"id": "9632", "fid": 52176715, "name": "Arndell Park", "featureType": "ZoneSubstation", "city": "Arndell Park", "postcode": "2148", "voltage": "132kV", "feeder": null, "address": "205 Walters Road", "state": "Inservice", "layer": "zoneSubstation"}, "geometry": {"type": "Point", "coordinates": [150.89090936586894, -33.7902144083501]}}, {"type": "Feature", "properties": {"id": "9638", "fid": 52176718, "name": "Broughton Pass", "featureType": "ZoneSubstation", "city": "Appin", "postcode": "2560", "voltage": "66kV", "feeder": null, "address": "Unknown", "state": "Inservice", "layer": "zoneSubstation"}, "geometry": {"type": "Point", "coordinates": [150.74405209535777, -34.227257401346115]}}, {"type": "Feature", "properties": {"id": "9673", "fid": 52176720, "name": "Ringwood", "featureType": "ZoneSubstation", "city": "Exeter", "postcode": "2579", "voltage": "33kV", "feeder": null, "address": "243 Bundanoon Road", "state": "Inservice", "layer": "zoneSubstation"}, "geometry": {"type": "Point", "coordinates": [150.32108310402987, -34.631518951476366]}}, {"type": "Feature", "properties": {"id": "9666", "fid": 52176724, "name": "Moss Vale", "featureType": "ZoneSubstation", "city": "Moss Vale", "postcode": "2577", "voltage": "33kV", "feeder": null, "address": "20 Argyle Street", "state": "Inservice", "layer": "zoneSubstation"}, "geometry": {"type": "Point", "coordinates": [150.39154812461334, -34.53654064247647]}}, {"type": "Feature", "properties": {"id": "9682", "fid": 52176725, "name": "Sussex Inlet", "featureType": "ZoneSubstation", "city": "Sussex Inlet", "postcode": "2540", "voltage": "33kV", "feeder": null, "address": "1 Flood Avenue", "state": "Inservice", "layer": "zoneSubstation"}, "geometry": {"type": "Point", "coordinates": [150.57852084726377, -35.1602895516415]}}, {"type": "Feature", "properties": {"id": "9645", "fid": 52176731, "name": "Bomaderry", "featureType": "ZoneSubstation", "city": "Bomaderry", "postcode": "2541", "voltage": "33kV", "feeder": null, "address": "22 Mattes Way", "state": "Inservice", "layer": "zoneSubstation"}, "geometry": {"type": "Point", "coordinates": [150.5979560755629, -34.857874965139516]}}, {"type": "Feature", "properties": {"id": "9662", "fid": 52176733, "name": "Kangaroo Valley", "featureType": "ZoneSubstation", "city": "Kangaroo Valley", "postcode": "2577", "voltage": "33kV", "feeder": null, "address": "390 Mount Scanzi Road", "state": "Inservice", "layer": "zoneSubstation"}, "geometry": {"type": "Point", "coordinates": [150.49469953459706, -34.75022876586795]}}, {"type": "Feature", "properties": {"id": "9745", "fid": 83295986, "name": "Marayong", "featureType": "ZoneSubstation", "city": "Blacktown", "postcode": "2148", "voltage": "33kV", "feeder": null, "address": "2 Raymond Street", "state": "Inservice", "layer": "zoneSubstation"}, "geometry": {"type": "Point", "coordinates": [150.91797349345458, -33.75141382852605]}}, {"type": "Feature", "properties": {"id": "9672", "fid": 52176746, "name": "Port Kembla", "featureType": "ZoneSubstation", "city": "Warrawong", "postcode": "2502", "voltage": "33kV", "feeder": null, "address": "75 Flagstaff Road", "state": "Inservice", "layer": "zoneSubstation"}, "geometry": {"type": "Point", "coordinates": [150.88113725422411, -34.47972428229895]}}, {"type": "Feature", "properties": {"id": "9671", "fid": 52176747, "name": "Port Central", "featureType": "ZoneSubstation", "city": "Port Kembla", "postcode": "2505", "voltage": "33kV", "feeder": null, "address": "25 Five Islands Road", "state": "Inservice", "layer": "zoneSubstation"}, "geometry": {"type": "Point", "coordinates": [150.89749587375877, -34.47897127094254]}}, {"type": "Feature", "properties": {"id": "9654", "fid": 52176759, "name": "Darkes Forest", "featureType": "ZoneSubstation", "city": "Darkes Forest", "postcode": "2508", "voltage": "33kV", "feeder": null, "address": "Princes Hwy", "state": "Inservice", "layer": "zoneSubstation"}, "geometry": {"type": "Point", "coordinates": [150.94443376031498, -34.23920944263365]}}, {"type": "Feature", "properties": {"id": "9771", "fid": 64981395, "name": "West Wetherill Park 11Kv", "featureType": "ZoneSubstation", "city": "Wetherill Park", "postcode": "2164", "voltage": "132kV", "feeder": null, "address": "1 Potter Close", "state": "Inservice", "layer": "zoneSubstation"}, "geometry": {"type": "Point", "coordinates": [150.8813203620354, -33.84260355291675]}}, {"type": "Feature", "properties": {"id": "9729", "fid": 66819539, "name": "Cheriton Avenue", "featureType": "ZoneSubstation", "city": "Castle Hill", "postcode": "2154", "voltage": "132kV", "feeder": null, "address": "37 Showground Road", "state": "Inservice", "layer": "zoneSubstation"}, "geometry": {"type": "Point", "coordinates": [151.00028023314405, -33.73200157265544]}}, {"type": "Feature", "properties": {"id": "9730", "fid": 66896997, "name": "North Eastern Creek", "featureType": "ZoneSubstation", "city": "Eastern Creek", "postcode": "2766", "voltage": "132kV", "feeder": null, "address": "23 Wonderland Drive", "state": "Inservice", "layer": "zoneSubstation"}, "geometry": {"type": "Point", "coordinates": [150.84044413505455, -33.80317916624338]}}, {"type": "Feature", "properties": {"id": "9533", "fid": 52176680, "name": "Leabons Lane", "featureType": "ZoneSubstation", "city": "Seven Hills", "postcode": "2147", "voltage": "33kV", "feeder": null, "address": "50 Leabons Lane", "state": "Inservice", "layer": "zoneSubstation"}, "geometry": {"type": "Point", "coordinates": [150.92081051053532, -33.78044854508512]}}, {"type": "Feature", "properties": {"id": "9768", "fid": 78192568, "name": "Oran Park", "featureType": "ZoneSubstation", "city": "Oran Park", "postcode": "2570", "voltage": "132kV", "feeder": null, "address": "410 The Northern Road", "state": "Inservice", "layer": "zoneSubstation"}, "geometry": {"type": "Point", "coordinates": [150.7254708667856, -33.996920490446804]}}, {"type": "Feature", "properties": {"id": "9737", "fid": 78508498, "name": "West Parramatta", "featureType": "ZoneSubstation", "city": "Parramatta", "postcode": "2150", "voltage": "132kV", "feeder": null, "address": "15 Macquarie Street", "state": "Inservice", "layer": "zoneSubstation"}, "geometry": {"type": "Point", "coordinates": [150.99907191438936, -33.81453182269556]}}, {"type": "Feature", "properties": {"id": "9820", "fid": 88447413, "name": "North Bradfield", "featureType": "ZoneSubstation", "city": "Bradfield", "postcode": "2556", "voltage": "132kV", "feeder": null, "address": "355 Badgerys Creek Road", "state": "Inservice", "layer": "zoneSubstation"}, "geometry": {"type": "Point", "coordinates": [150.7353727276594, -33.907656998211955]}}, {"type": "Feature", "properties": {"id": "9658", "fid": 52176727, "name": "Huskisson", "featureType": "ZoneSubstation", "city": "Worrowing Heights", "postcode": "2540", "voltage": "33kV", "feeder": null, "address": "1324 Naval College Road", "state": "Inservice", "layer": "zoneSubstation"}, "geometry": {"type": "Point", "coordinates": [150.6542376110654, -35.076726105314165]}}, {"type": "Feature", "properties": {"id": "9767", "fid": 79457040, "name": "Edmondson Park", "featureType": "ZoneSubstation", "city": "Denham Court", "postcode": "2565", "voltage": "33kV", "feeder": null, "address": "12 Zouch Road", "state": "Inservice", "layer": "zoneSubstation"}, "geometry": {"type": "Point", "coordinates": [150.85012872009136, -33.976708192021036]}}, {"type": "Feature", "properties": {"id": "9725", "fid": 66862958, "name": "Mungerie Park", "featureType": "ZoneSubstation", "city": "Rouse Hill", "postcode": "2155", "voltage": "132kV", "feeder": null, "address": "LOT 201 Commercial Road", "state": "Inservice", "layer": "zoneSubstation"}, "geometry": {"type": "Point", "coordinates": [150.92140418862368, -33.68740707898571]}}, {"type": "Feature", "properties": {"id": "9503", "fid": 52176640, "name": "Canley Vale", "featureType": "ZoneSubstation", "city": "Canley Heights", "postcode": "2166", "voltage": "33kV", "feeder": null, "address": "101-111 Saint Johns Road", "state": "Inservice", "layer": "zoneSubstation"}, "geometry": {"type": "Point", "coordinates": [150.9223137980185, -33.88780664010092]}}, {"type": "Feature", "properties": {"id": "9552", "fid": 52176642, "name": "Cabramatta", "featureType": "ZoneSubstation", "city": "Cabramatta", "postcode": "2166", "voltage": "33kV", "feeder": "A348", "address": "18 Cabramatta Road East", "state": "Inservice", "layer": "zoneSubstation"}, "geometry": {"type": "Point", "coordinates": [150.94853180767544, -33.898291521728964]}}, {"type": "Feature", "properties": {"id": "9566", "fid": 52176672, "name": "Cambridge Park", "featureType": "ZoneSubstation", "city": "Werrington County", "postcode": "2747", "voltage": "33kV", "feeder": null, "address": "80-82 Rugby Street", "state": "Inservice", "layer": "zoneSubstation"}, "geometry": {"type": "Point", "coordinates": [150.74030951238865, -33.74871252455187]}}, {"type": "Feature", "properties": {"id": "9508", "fid": 52176677, "name": "Werrington", "featureType": "ZoneSubstation", "city": "North Saint Marys", "postcode": "2760", "voltage": "33kV", "feeder": null, "address": "240 Forrester Road", "state": "Inservice", "layer": "zoneSubstation"}, "geometry": {"type": "Point", "coordinates": [150.77675071980664, -33.748437507068516]}}, {"type": "Feature", "properties": {"id": "9612", "fid": 52176705, "name": "Meadow Flat", "featureType": "ZoneSubstation", "city": "Meadow Flat", "postcode": "2795", "voltage": "66kV", "feeder": null, "address": "1 Great Western Highway", "state": "Inservice", "layer": "zoneSubstation"}, "geometry": {"type": "Point", "coordinates": [149.92824191881033, -33.437537475877626]}}, {"type": "Feature", "properties": {"id": "9780", "fid": 81942344, "name": "South Marsden Park", "featureType": "ZoneSubstation", "city": "Marsden Park", "postcode": "2765", "voltage": "132kV", "feeder": null, "address": "99 Hollinsworth Road", "state": "Inservice", "layer": "zoneSubstation"}, "geometry": {"type": "Point", "coordinates": [150.83355106308161, -33.72122130191503]}}, {"type": "Feature", "properties": {"id": "9733", "fid": 77899579, "name": "Claremont Meadows", "featureType": "ZoneSubstation", "city": "Claremont Meadows", "postcode": "2747", "voltage": "33kV", "feeder": null, "address": "6 Nullaga Way", "state": "Inservice", "layer": "zoneSubstation"}, "geometry": {"type": "Point", "coordinates": [150.74659600595243, -33.771990459781996]}}, {"type": "Feature", "properties": {"id": "9610", "fid": 52176621, "name": "Appin", "featureType": "ZoneSubstation", "city": "Appin", "postcode": "2560", "voltage": "66kV", "feeder": null, "address": "117 Brooks Point Road", "state": "Inservice", "layer": "zoneSubstation"}, "geometry": {"type": "Point", "coordinates": [150.7714359817322, -34.2035511491982]}}, {"type": "Feature", "properties": {"id": "9579", "fid": 52176622, "name": "Oakdale", "featureType": "ZoneSubstation", "city": "Oakdale", "postcode": "2570", "voltage": "33kV", "feeder": "H745", "address": "65 Ridge Road", "state": "Inservice", "layer": "zoneSubstation"}, "geometry": {"type": "Point", "coordinates": [150.4957180038363, -34.05236974071097]}}, {"type": "Feature", "properties": {"id": "9577", "fid": 52176629, "name": "Minto", "featureType": "ZoneSubstation", "city": "Minto", "postcode": "2566", "voltage": "66kV", "feeder": null, "address": "19 Huntsmore Road", "state": "Inservice", "layer": "zoneSubstation"}, "geometry": {"type": "Point", "coordinates": [150.83765367006353, -34.037603787336394]}}, {"type": "Feature", "properties": {"id": "9551", "fid": 52176637, "name": "Kemps Creek", "featureType": "ZoneSubstation", "city": "Kemps Creek", "postcode": "2178", "voltage": "33kV", "feeder": null, "address": "120 Cross Street", "state": "Inservice", "layer": "zoneSubstation"}, "geometry": {"type": "Point", "coordinates": [150.79163371013394, -33.88410113325004]}}, {"type": "Feature", "properties": {"id": "9512", "fid": 52176683, "name": "Dundas", "featureType": "ZoneSubstation", "city": "Carlingford", "postcode": "2118", "voltage": "66kV", "feeder": null, "address": "1 Jenkins Road", "state": "Inservice", "layer": "zoneSubstation"}, "geometry": {"type": "Point", "coordinates": [151.04498369529364, -33.782713790375226]}}, {"type": "Feature", "properties": {"id": "9617", "fid": 52176699, "name": "North Richmond", "featureType": "ZoneSubstation", "city": "North Richmond", "postcode": "2754", "voltage": "33kV", "feeder": "27447", "address": "90 Pecks Road", "state": "Inservice", "layer": "zoneSubstation"}, "geometry": {"type": "Point", "coordinates": [150.70541411240248, -33.57854693511993]}}, {"type": "Feature", "properties": {"id": "9660", "fid": 52176737, "name": "Jamberoo", "featureType": "ZoneSubstation", "city": "Jamberoo", "postcode": "2533", "voltage": "33kV", "feeder": null, "address": "34 Golden Valley Road", "state": "Inservice", "layer": "zoneSubstation"}, "geometry": {"type": "Point", "coordinates": [150.78279548686845, -34.652320488957876]}}, {"type": "Feature", "properties": {"id": "9664", "fid": 52176760, "name": "Kiama", "featureType": "ZoneSubstation", "city": "Kiama", "postcode": "2533", "voltage": "33kV", "feeder": null, "address": "71 Gipps Street", "state": "Inservice", "layer": "zoneSubstation"}, "geometry": {"type": "Point", "coordinates": [150.85115889387382, -34.66215191801279]}}, {"type": "Feature", "properties": {"id": "9502", "fid": 52176646, "name": "Fairfield", "featureType": "ZoneSubstation", "city": "Fairfield", "postcode": "2165", "voltage": "33kV", "feeder": null, "address": "22 Hedges Street", "state": "Inservice", "layer": "zoneSubstation"}, "geometry": {"type": "Point", "coordinates": [150.9557857415132, -33.86140427744561]}}, {"type": "Feature", "properties": {"id": "9501", "fid": 52176659, "name": "Holroyd", "featureType": "ZoneSubstation", "city": "South Wentworthville", "postcode": "2145", "voltage": "33kV", "feeder": null, "address": "17 Old Prospect Road", "state": "Inservice", "layer": "zoneSubstation"}, "geometry": {"type": "Point", "coordinates": [150.9698624574823, -33.8165178606079]}}, {"type": "Feature", "properties": {"id": "9598", "fid": 52176682, "name": "Newton", "featureType": "ZoneSubstation", "city": "Blacktown", "postcode": "2148", "voltage": "33kV", "feeder": null, "address": "8 Newton Road", "state": "Inservice", "layer": "zoneSubstation"}, "geometry": {"type": "Point", "coordinates": [150.9056414815654, -33.773389838281204]}}, {"type": "Feature", "properties": {"id": "9651", "fid": 52176749, "name": "Corrimal", "featureType": "ZoneSubstation", "city": "Tarrawanna", "postcode": "2518", "voltage": "33kV", "feeder": null, "address": "30 Corrimal Street", "state": "Inservice", "layer": "zoneSubstation"}, "geometry": {"type": "Point", "coordinates": [150.88547800772213, -34.37974493579079]}}, {"type": "Feature", "properties": {"id": "9657", "fid": 52176753, "name": "Helensburgh", "featureType": "ZoneSubstation", "city": "Helensburgh", "postcode": "2508", "voltage": "33kV", "feeder": null, "address": "10 Chadwick Grove", "state": "Inservice", "layer": "zoneSubstation"}, "geometry": {"type": "Point", "coordinates": [150.97546749634583, -34.1981014483962]}}, {"type": "Feature", "properties": {"id": "9770", "fid": 62678690, "name": "Baulkham Hills 11Kv", "featureType": "ZoneSubstation", "city": "Old Toongabbie", "postcode": "2146", "voltage": "132kV", "feeder": null, "address": "191Z Old Windsor Road", "state": "Inservice", "layer": "zoneSubstation"}, "geometry": {"type": "Point", "coordinates": [150.96809126980153, -33.781483544755304]}}, {"type": "Feature", "properties": {"id": "9748", "fid": 77838262, "name": "Nepean 11Kv", "featureType": "ZoneSubstation", "city": "Spring Farm", "postcode": "2570", "voltage": "33kV", "feeder": null, "address": "193 Springs Road", "state": "Inservice", "layer": "zoneSubstation"}, "geometry": {"type": "Point", "coordinates": [150.7313753452176, -34.071541405524236]}}, {"type": "Feature", "properties": {"id": "9763", "fid": 78109141, "name": "Jordan Springs", "featureType": "ZoneSubstation", "city": "Jordan Springs", "postcode": "2747", "voltage": "33kV", "feeder": null, "address": "2995 Greenwood Parkway", "state": "Inservice", "layer": "zoneSubstation"}, "geometry": {"type": "Point", "coordinates": [150.72882111033618, -33.723267946354085]}}, {"type": "Feature", "properties": {"id": "9779", "fid": 80340771, "name": "Marsden Park", "featureType": "ZoneSubstation", "city": "Marsden Park", "postcode": "2765", "voltage": "132kV", "feeder": null, "address": "1192 Richmond Road", "state": "Inservice", "layer": "zoneSubstation"}, "geometry": {"type": "Point", "coordinates": [150.82550583197815, -33.692211341343764]}}, {"type": "Feature", "properties": {"id": "9586", "fid": 52176707, "name": "Lithgow", "featureType": "ZoneSubstation", "city": "Lithgow", "postcode": "2790", "voltage": "66kV", "feeder": null, "address": "11 Barton Street", "state": "Inservice", "layer": "zoneSubstation"}, "geometry": {"type": "Point", "coordinates": [150.14186425641608, -33.48267203581565]}}, {"type": "Feature", "properties": {"id": "9757", "fid": 78710278, "name": "Abbotsbury", "featureType": "ZoneSubstation", "city": "Bonnyrigg Heights", "postcode": "2177", "voltage": "33kV", "feeder": null, "address": "630 Elizabeth Drive", "state": "Inservice", "layer": "zoneSubstation"}, "geometry": {"type": "Point", "coordinates": [150.8722639482242, -33.88704670909609]}}, {"type": "Feature", "properties": {"id": "9715", "fid": 64206385, "name": "Bella Vista", "featureType": "ZoneSubstation", "city": "Bella Vista", "postcode": "2153", "voltage": "132kV", "feeder": null, "address": "Elizabeth Macarthur Dr", "state": "Inservice", "layer": "zoneSubstation"}, "geometry": {"type": "Point", "coordinates": [150.94961510081737, -33.74412591065066]}}, {"type": "Feature", "properties": {"id": "9536", "fid": 52176648, "name": "Luddenham", "featureType": "ZoneSubstation", "city": "Orchard Hills", "postcode": "2748", "voltage": "33kV", "feeder": null, "address": "2549 A9", "state": "Inservice", "layer": "zoneSubstation"}, "geometry": {"type": "Point", "coordinates": [150.68414180418793, -33.83880805663801]}}, {"type": "Feature", "properties": {"id": "9505", "fid": 52176652, "name": "Prospect", "featureType": "ZoneSubstation", "city": "Prospect", "postcode": "2148", "voltage": "33kV", "feeder": null, "address": "434 Blacktown Road", "state": "Inservice", "layer": "zoneSubstation"}, "geometry": {"type": "Point", "coordinates": [150.9274561755445, -33.80366513168481]}}, {"type": "Feature", "properties": {"id": "9554", "fid": 52176679, "name": "Quakers Hill", "featureType": "ZoneSubstation", "city": "Quakers Hill", "postcode": "2763", "voltage": "132kV", "feeder": null, "address": "46 Chaplin Crescent", "state": "Inservice", "layer": "zoneSubstation"}, "geometry": {"type": "Point", "coordinates": [150.88600891427723, -33.73544218761626]}}, {"type": "Feature", "properties": {"id": "9516", "fid": 52176695, "name": "Windsor", "featureType": "ZoneSubstation", "city": "Windsor", "postcode": "2756", "voltage": "33kV", "feeder": null, "address": "56 Macquarie Street", "state": "Inservice", "layer": "zoneSubstation"}, "geometry": {"type": "Point", "coordinates": [150.82103622480028, -33.60806155331106]}}, {"type": "Feature", "properties": {"id": "9514", "fid": 52176700, "name": "Cattai", "featureType": "ZoneSubstation", "city": "Cattai", "postcode": "2756", "voltage": "33kV", "feeder": null, "address": "700 Halcrows Road", "state": "Inservice", "layer": "zoneSubstation"}, "geometry": {"type": "Point", "coordinates": [150.91939560569887, -33.550297569961685]}}, {"type": "Feature", "properties": {"id": "9567", "fid": 52176702, "name": "Wisemans", "featureType": "ZoneSubstation", "city": "Maroota", "postcode": "2756", "voltage": "33kV", "feeder": null, "address": "5016 Old Northern Road", "state": "Inservice", "layer": "zoneSubstation"}, "geometry": {"type": "Point", "coordinates": [150.9731389889175, -33.42346123221404]}}, {"type": "Feature", "properties": {"id": "9688", "fid": 52176723, "name": "Ulladulla", "featureType": "ZoneSubstation", "city": "Ulladulla", "postcode": "2539", "voltage": "132kV", "feeder": null, "address": "101 Warden Street", "state": "Inservice", "layer": "zoneSubstation"}, "geometry": {"type": "Point", "coordinates": [150.46255377252388, -35.35145158936358]}}, {"type": "Feature", "properties": {"id": "9686", "fid": 52176741, "name": "Wombarra", "featureType": "ZoneSubstation", "city": "Wombarra", "postcode": "2515", "voltage": "33kV", "feeder": "WBA2", "address": "82 Morrison Avenue", "state": "Inservice", "layer": "zoneSubstation"}, "geometry": {"type": "Point", "coordinates": [150.94728257214916, -34.27703014210727]}}, {"type": "Feature", "properties": {"id": "9675", "fid": 52176748, "name": "Russell Vale", "featureType": "ZoneSubstation", "city": "Woonona", "postcode": "2517", "voltage": "33kV", "feeder": null, "address": "599 Princes Highway", "state": "Inservice", "layer": "zoneSubstation"}, "geometry": {"type": "Point", "coordinates": [150.90041342196213, -34.35455358211928]}}, {"type": "Feature", "properties": {"id": "9702", "fid": 52176758, "name": "Narellan", "featureType": "ZoneSubstation", "city": "Smeaton Grange", "postcode": "2567", "voltage": "66kV", "feeder": null, "address": "55 Hartley Road", "state": "Inservice", "layer": "zoneSubstation"}, "geometry": {"type": "Point", "coordinates": [150.76377197582866, -34.043252849242194]}}, {"type": "Feature", "properties": {"id": "9804", "fid": 86602826, "name": "Box Hill", "featureType": "ZoneSubstation", "city": "Gables", "postcode": "2765", "voltage": "132kV", "feeder": null, "address": "27 Valletta Drive", "state": "Inservice", "layer": "zoneSubstation"}, "geometry": {"type": "Point", "coordinates": [150.89901793779012, -33.634974103571054]}}, {"type": "Feature", "properties": {"id": "9754", "fid": 77902650, "name": "Figtree", "featureType": "ZoneSubstation", "city": "Figtree", "postcode": "2525", "voltage": "33kV", "feeder": null, "address": "58 Cordeaux Road", "state": "Inservice", "layer": "zoneSubstation"}, "geometry": {"type": "Point", "coordinates": [150.84561584973852, -34.44416016639727]}}, {"type": "Feature", "properties": {"id": "9732", "fid": 78457396, "name": "Doonside", "featureType": "ZoneSubstation", "city": "Bungarribee", "postcode": "2767", "voltage": "132kV", "feeder": null, "address": "15 Bugi Crescent", "state": "Inservice", "layer": "zoneSubstation"}, "geometry": {"type": "Point", "coordinates": [150.8681773885275, -33.76922227700077]}}, {"type": "Feature", "properties": {"id": "9698", "fid": 79682253, "name": "Visy Paper", "featureType": "ZoneSubstation", "city": "Smithfield", "postcode": "2164", "voltage": "33kV", "feeder": null, "address": "158 McCredie Road", "state": "Inservice", "layer": "zoneSubstation"}, "geometry": {"type": "Point", "coordinates": [150.95149432859102, -33.852726435315134]}}, {"type": "Feature", "properties": {"id": "9762", "fid": 78192199, "name": "Huntingwood", "featureType": "ZoneSubstation", "city": "Eastern Creek", "postcode": "2766", "voltage": "132kV", "feeder": null, "address": "8B Brabham Drive", "state": "Inservice", "layer": "zoneSubstation"}, "geometry": {"type": "Point", "coordinates": [150.87065340268083, -33.79415795040567]}}, {"type": "Feature", "properties": {"id": "9619", "fid": 52176665, "name": "Rydalmere", "featureType": "ZoneSubstation", "city": "Rydalmere", "postcode": "2116", "voltage": "66kV", "feeder": null, "address": "5 Wattle Street", "state": "Inservice", "layer": "zoneSubstation"}, "geometry": {"type": "Point", "coordinates": [151.04549092296014, -33.81020434177518]}}, {"type": "Feature", "properties": {"id": "9744", "fid": 67213864, "name": "Mobile No2 (Oran Park)", "featureType": "ZoneSubstation", "city": "Oran Park", "postcode": "2570", "voltage": "132kV", "feeder": null, "address": "410 The Northern Road", "state": "Out of Service", "layer": "zoneSubstation"}, "geometry": {"type": "Point", "coordinates": [150.72603669710443, -33.996723690450175]}}, {"type": "Feature", "properties": {"id": "9831", "fid": 88443732, "name": "Grantham Farm", "featureType": "ZoneSubstation", "city": "Grantham Farm", "postcode": "2765", "voltage": "132kV", "feeder": null, "address": "265 Garfield Road East", "state": "Proposed", "layer": "zoneSubstation"}, "geometry": {"type": "Point", "coordinates": [150.88141946850402, -33.66799450353888]}}]}