{"type": "FeatureCollection", "features": [{"type": "Feature", "properties": {"name": "commercial", "source": "OpenStreetMap", "licence": "ODbL", "osmId": 27631802}, "geometry": {"type": "Point", "coordinates": [150.8636008, -34.4445514]}}, {"type": "Feature", "properties": {"name": "Oak Flats Bowling Club", "source": "OpenStreetMap", "licence": "ODbL", "osmId": 71056938}, "geometry": {"type": "Point", "coordinates": [150.8246411, -34.5637575]}}, {"type": "Feature", "properties": {"name": "IGA", "source": "OpenStreetMap", "licence": "ODbL", "osmId": 87456002}, "geometry": {"type": "Point", "coordinates": [150.9076835, -34.3413924]}}, {"type": "Feature", "properties": {"name": "commercial", "source": "OpenStreetMap", "licence": "ODbL", "osmId": 87456142}, "geometry": {"type": "Point", "coordinates": [150.906423, -34.3417681]}}, {"type": "Feature", "properties": {"name": "commercial", "source": "OpenStreetMap", "licence": "ODbL", "osmId": 96051414}, "geometry": {"type": "Point", "coordinates": [150.9058045, -34.3416934]}}, {"type": "Feature", "properties": {"name": "commercial", "source": "OpenStreetMap", "licence": "ODbL", "osmId": 102629954}, "geometry": {"type": "Point", "coordinates": [150.9066916, -34.3404394]}}, {"type": "Feature", "properties": {"name": "commercial", "source": "OpenStreetMap", "licence": "ODbL", "osmId": 102630102}, "geometry": {"type": "Point", "coordinates": [150.9233792, -34.3302323]}}, {"type": "Feature", "properties": {"name": "commercial", "source": "OpenStreetMap", "licence": "ODbL", "osmId": 102630208}, "geometry": {"type": "Point", "coordinates": [150.906342, -34.3409334]}}, {"type": "Feature", "properties": {"name": "commercial", "source": "OpenStreetMap", "licence": "ODbL", "osmId": 102630249}, "geometry": {"type": "Point", "coordinates": [150.9078586, -34.3403008]}}, {"type": "Feature", "properties": {"name": "commercial", "source": "OpenStreetMap", "licence": "ODbL", "osmId": 103092068}, "geometry": {"type": "Point", "coordinates": [150.6978167, -34.7751499]}}, {"type": "Feature", "properties": {"name": "commercial", "source": "OpenStreetMap", "licence": "ODbL", "osmId": 104114166}, "geometry": {"type": "Point", "coordinates": [150.894101, -34.4225214]}}, {"type": "Feature", "properties": {"name": "commercial", "source": "OpenStreetMap", "licence": "ODbL", "osmId": 104114175}, "geometry": {"type": "Point", "coordinates": [150.903615, -34.3466519]}}, {"type": "Feature", "properties": {"name": "commercial", "source": "OpenStreetMap", "licence": "ODbL", "osmId": 104114559}, "geometry": {"type": "Point", "coordinates": [150.9128155, -34.3361334]}}, {"type": "Feature", "properties": {"name": "commercial", "source": "OpenStreetMap", "licence": "ODbL", "osmId": 104114560}, "geometry": {"type": "Point", "coordinates": [150.8921075, -34.4227037]}}, {"type": "Feature", "properties": {"name": "Molloy Timber", "source": "OpenStreetMap", "licence": "ODbL", "osmId": 104114595}, "geometry": {"type": "Point", "coordinates": [150.9121263, -34.3372816]}}, {"type": "Feature", "properties": {"name": "commercial", "source": "OpenStreetMap", "licence": "ODbL", "osmId": 104114634}, "geometry": {"type": "Point", "coordinates": [150.9138416, -34.3342464]}}, {"type": "Feature", "properties": {"name": "commercial", "source": "OpenStreetMap", "licence": "ODbL", "osmId": 104114655}, "geometry": {"type": "Point", "coordinates": [150.8927045, -34.4219019]}}, {"type": "Feature", "properties": {"name": "commercial", "source": "OpenStreetMap", "licence": "ODbL", "osmId": 104114881}, "geometry": {"type": "Point", "coordinates": [150.9092681, -34.3389284]}}, {"type": "Feature", "properties": {"name": "commercial", "source": "OpenStreetMap", "licence": "ODbL", "osmId": 104114897}, "geometry": {"type": "Point", "coordinates": [150.8924301, -34.4240038]}}, {"type": "Feature", "properties": {"name": "commercial", "source": "OpenStreetMap", "licence": "ODbL", "osmId": 104115497}, "geometry": {"type": "Point", "coordinates": [150.9105553, -34.337997]}}, {"type": "Feature", "properties": {"name": "Officeworks", "source": "OpenStreetMap", "licence": "ODbL", "osmId": 104462236}, "geometry": {"type": "Point", "coordinates": [150.8902461, -34.4051961]}}, {"type": "Feature", "properties": {"name": "commercial", "source": "OpenStreetMap", "licence": "ODbL", "osmId": 104462262}, "geometry": {"type": "Point", "coordinates": [150.8919345, -34.4026108]}}, {"type": "Feature", "properties": {"name": "Scarborough Hotel", "source": "OpenStreetMap", "licence": "ODbL", "osmId": 105142614}, "geometry": {"type": "Point", "coordinates": [150.9617139, -34.269581]}}, {"type": "Feature", "properties": {"name": "commercial", "source": "OpenStreetMap", "licence": "ODbL", "osmId": 105698011}, "geometry": {"type": "Point", "coordinates": [150.8934307, -34.4152172]}}, {"type": "Feature", "properties": {"name": "commercial", "source": "OpenStreetMap", "licence": "ODbL", "osmId": 105698082}, "geometry": {"type": "Point", "coordinates": [150.8934175, -34.4204212]}}, {"type": "Feature", "properties": {"name": "commercial", "source": "OpenStreetMap", "licence": "ODbL", "osmId": 105698166}, "geometry": {"type": "Point", "coordinates": [150.8932441, -34.4132896]}}, {"type": "Feature", "properties": {"name": "commercial", "source": "OpenStreetMap", "licence": "ODbL", "osmId": 105698475}, "geometry": {"type": "Point", "coordinates": [150.8917072, -34.414741]}}, {"type": "Feature", "properties": {"name": "commercial", "source": "OpenStreetMap", "licence": "ODbL", "osmId": 105698582}, "geometry": {"type": "Point", "coordinates": [150.8944204, -34.4206209]}}, {"type": "Feature", "properties": {"name": "commercial", "source": "OpenStreetMap", "licence": "ODbL", "osmId": 105698735}, "geometry": {"type": "Point", "coordinates": [150.8929883, -34.4121402]}}, {"type": "Feature", "properties": {"name": "commercial", "source": "OpenStreetMap", "licence": "ODbL", "osmId": 105698782}, "geometry": {"type": "Point", "coordinates": [150.8929556, -34.4184513]}}, {"type": "Feature", "properties": {"name": "commercial", "source": "OpenStreetMap", "licence": "ODbL", "osmId": 105699043}, "geometry": {"type": "Point", "coordinates": [150.8919484, -34.411198]}}, {"type": "Feature", "properties": {"name": "commercial", "source": "OpenStreetMap", "licence": "ODbL", "osmId": 105699063}, "geometry": {"type": "Point", "coordinates": [150.9187042, -34.3175194]}}, {"type": "Feature", "properties": {"name": "commercial", "source": "OpenStreetMap", "licence": "ODbL", "osmId": 105699084}, "geometry": {"type": "Point", "coordinates": [150.8931941, -34.4165495]}}, {"type": "Feature", "properties": {"name": "commercial", "source": "OpenStreetMap", "licence": "ODbL", "osmId": 105699151}, "geometry": {"type": "Point", "coordinates": [150.8915308, -34.4203368]}}, {"type": "Feature", "properties": {"name": "commercial", "source": "OpenStreetMap", "licence": "ODbL", "osmId": 106471185}, "geometry": {"type": "Point", "coordinates": [150.9044287, -34.3466585]}}, {"type": "Feature", "properties": {"name": "commercial", "source": "OpenStreetMap", "licence": "ODbL", "osmId": 106471223}, "geometry": {"type": "Point", "coordinates": [150.9010692, -34.3565849]}}, {"type": "Feature", "properties": {"name": "commercial", "source": "OpenStreetMap", "licence": "ODbL", "osmId": 106471241}, "geometry": {"type": "Point", "coordinates": [150.9046995, -34.3460281]}}, {"type": "Feature", "properties": {"name": "commercial", "source": "OpenStreetMap", "licence": "ODbL", "osmId": 106602775}, "geometry": {"type": "Point", "coordinates": [150.872637, -34.4149325]}}, {"type": "Feature", "properties": {"name": "commercial", "source": "OpenStreetMap", "licence": "ODbL", "osmId": 106602825}, "geometry": {"type": "Point", "coordinates": [150.8751287, -34.4147397]}}, {"type": "Feature", "properties": {"name": "commercial", "source": "OpenStreetMap", "licence": "ODbL", "osmId": 106602840}, "geometry": {"type": "Point", "coordinates": [150.8719405, -34.4147797]}}, {"type": "Feature", "properties": {"name": "commercial", "source": "OpenStreetMap", "licence": "ODbL", "osmId": 106602891}, "geometry": {"type": "Point", "coordinates": [150.8719074, -34.4142865]}}, {"type": "Feature", "properties": {"name": "commercial", "source": "OpenStreetMap", "licence": "ODbL", "osmId": 106616422}, "geometry": {"type": "Point", "coordinates": [150.8903455, -34.4041199]}}, {"type": "Feature", "properties": {"name": "commercial", "source": "OpenStreetMap", "licence": "ODbL", "osmId": 106616427}, "geometry": {"type": "Point", "coordinates": [150.8908679, -34.4016282]}}, {"type": "Feature", "properties": {"name": "commercial", "source": "OpenStreetMap", "licence": "ODbL", "osmId": 120260743}, "geometry": {"type": "Point", "coordinates": [150.8814857, -34.4121385]}}, {"type": "Feature", "properties": {"name": "commercial", "source": "OpenStreetMap", "licence": "ODbL", "osmId": 123281210}, "geometry": {"type": "Point", "coordinates": [150.9140563, -34.3494556]}}, {"type": "Feature", "properties": {"name": "commercial", "source": "OpenStreetMap", "licence": "ODbL", "osmId": 123281217}, "geometry": {"type": "Point", "coordinates": [150.9078454, -34.3623611]}}, {"type": "Feature", "properties": {"name": "commercial", "source": "OpenStreetMap", "licence": "ODbL", "osmId": 123281219}, "geometry": {"type": "Point", "coordinates": [150.9145105, -34.3489204]}}, {"type": "Feature", "properties": {"name": "commercial", "source": "OpenStreetMap", "licence": "ODbL", "osmId": 123281220}, "geometry": {"type": "Point", "coordinates": [150.9036833, -34.363305]}}, {"type": "Feature", "properties": {"name": "commercial", "source": "OpenStreetMap", "licence": "ODbL", "osmId": 123281221}, "geometry": {"type": "Point", "coordinates": [150.909049, -34.3626433]}}, {"type": "Feature", "properties": {"name": "commercial", "source": "OpenStreetMap", "licence": "ODbL", "osmId": 123281233}, "geometry": {"type": "Point", "coordinates": [150.8994713, -34.3627446]}}, {"type": "Feature", "properties": {"name": "commercial", "source": "OpenStreetMap", "licence": "ODbL", "osmId": 124052959}, "geometry": {"type": "Point", "coordinates": [150.8953214, -34.4249763]}}, {"type": "Feature", "properties": {"name": "commercial", "source": "OpenStreetMap", "licence": "ODbL", "osmId": 124052961}, "geometry": {"type": "Point", "coordinates": [150.8959898, -34.4270133]}}, {"type": "Feature", "properties": {"name": "commercial", "source": "OpenStreetMap", "licence": "ODbL", "osmId": 124052962}, "geometry": {"type": "Point", "coordinates": [150.8984917, -34.4262475]}}, {"type": "Feature", "properties": {"name": "commercial", "source": "OpenStreetMap", "licence": "ODbL", "osmId": 124052963}, "geometry": {"type": "Point", "coordinates": [150.8932572, -34.427239]}}, {"type": "Feature", "properties": {"name": "commercial", "source": "OpenStreetMap", "licence": "ODbL", "osmId": 124052966}, "geometry": {"type": "Point", "coordinates": [150.8947872, -34.4235891]}}, {"type": "Feature", "properties": {"name": "commercial", "source": "OpenStreetMap", "licence": "ODbL", "osmId": 124052967}, "geometry": {"type": "Point", "coordinates": [150.898756, -34.4249461]}}, {"type": "Feature", "properties": {"name": "commercial", "source": "OpenStreetMap", "licence": "ODbL", "osmId": 124052969}, "geometry": {"type": "Point", "coordinates": [150.8982436, -34.4273447]}}, {"type": "Feature", "properties": {"name": "commercial", "source": "OpenStreetMap", "licence": "ODbL", "osmId": 124052972}, "geometry": {"type": "Point", "coordinates": [150.8923383, -34.4278649]}}, {"type": "Feature", "properties": {"name": "commercial", "source": "OpenStreetMap", "licence": "ODbL", "osmId": 124052973}, "geometry": {"type": "Point", "coordinates": [150.8919734, -34.4254627]}}, {"type": "Feature", "properties": {"name": "Alliance Self Storage", "source": "OpenStreetMap", "licence": "ODbL", "osmId": 124965320}, "geometry": {"type": "Point", "coordinates": [150.8966393, -34.3867796]}}, {"type": "Feature", "properties": {"name": "commercial", "source": "OpenStreetMap", "licence": "ODbL", "osmId": 124965355}, "geometry": {"type": "Point", "coordinates": [150.8962432, -34.3816407]}}, {"type": "Feature", "properties": {"name": "commercial", "source": "OpenStreetMap", "licence": "ODbL", "osmId": 124965359}, "geometry": {"type": "Point", "coordinates": [150.8911079, -34.3993612]}}, {"type": "Feature", "properties": {"name": "commercial", "source": "OpenStreetMap", "licence": "ODbL", "osmId": 124965361}, "geometry": {"type": "Point", "coordinates": [150.8933794, -34.3949461]}}, {"type": "Feature", "properties": {"name": "commercial", "source": "OpenStreetMap", "licence": "ODbL", "osmId": 124965363}, "geometry": {"type": "Point", "coordinates": [150.8955643, -34.3813277]}}, {"type": "Feature", "properties": {"name": "commercial", "source": "OpenStreetMap", "licence": "ODbL", "osmId": 124965368}, "geometry": {"type": "Point", "coordinates": [150.8939662, -34.390378]}}, {"type": "Feature", "properties": {"name": "commercial", "source": "OpenStreetMap", "licence": "ODbL", "osmId": 124965371}, "geometry": {"type": "Point", "coordinates": [150.8948264, -34.3857718]}}, {"type": "Feature", "properties": {"name": "commercial", "source": "OpenStreetMap", "licence": "ODbL", "osmId": 124965372}, "geometry": {"type": "Point", "coordinates": [150.8947347, -34.3862391]}}, {"type": "Feature", "properties": {"name": "commercial", "source": "OpenStreetMap", "licence": "ODbL", "osmId": 124965382}, "geometry": {"type": "Point", "coordinates": [150.8918782, -34.3961639]}}, {"type": "Feature", "properties": {"name": "commercial", "source": "OpenStreetMap", "licence": "ODbL", "osmId": 124965389}, "geometry": {"type": "Point", "coordinates": [150.8941489, -34.39169]}}, {"type": "Feature", "properties": {"name": "commercial", "source": "OpenStreetMap", "licence": "ODbL", "osmId": 124965393}, "geometry": {"type": "Point", "coordinates": [150.8943322, -34.3894546]}}, {"type": "Feature", "properties": {"name": "commercial", "source": "OpenStreetMap", "licence": "ODbL", "osmId": 124965394}, "geometry": {"type": "Point", "coordinates": [150.8937373, -34.3969928]}}, {"type": "Feature", "properties": {"name": "commercial", "source": "OpenStreetMap", "licence": "ODbL", "osmId": 124965395}, "geometry": {"type": "Point", "coordinates": [150.8956339, -34.3825041]}}, {"type": "Feature", "properties": {"name": "commercial", "source": "OpenStreetMap", "licence": "ODbL", "osmId": 124965397}, "geometry": {"type": "Point", "coordinates": [150.8918405, -34.3952292]}}, {"type": "Feature", "properties": {"name": "commercial", "source": "OpenStreetMap", "licence": "ODbL", "osmId": 124965399}, "geometry": {"type": "Point", "coordinates": [150.8932173, -34.3889968]}}, {"type": "Feature", "properties": {"name": "commercial", "source": "OpenStreetMap", "licence": "ODbL", "osmId": 124965400}, "geometry": {"type": "Point", "coordinates": [150.8917637, -34.3969936]}}, {"type": "Feature", "properties": {"name": "commercial", "source": "OpenStreetMap", "licence": "ODbL", "osmId": 124965401}, "geometry": {"type": "Point", "coordinates": [150.8937196, -34.3932592]}}, {"type": "Feature", "properties": {"name": "commercial", "source": "OpenStreetMap", "licence": "ODbL", "osmId": 133338178}, "geometry": {"type": "Point", "coordinates": [150.8895914, -34.4296344]}}, {"type": "Feature", "properties": {"name": "commercial", "source": "OpenStreetMap", "licence": "ODbL", "osmId": 133338180}, "geometry": {"type": "Point", "coordinates": [150.8902644, -34.4259507]}}, {"type": "Feature", "properties": {"name": "commercial", "source": "OpenStreetMap", "licence": "ODbL", "osmId": 133338183}, "geometry": {"type": "Point", "coordinates": [150.8899458, -34.4277903]}}, {"type": "Feature", "properties": {"name": "commercial", "source": "OpenStreetMap", "licence": "ODbL", "osmId": 133338185}, "geometry": {"type": "Point", "coordinates": [150.889182, -34.4270866]}}, {"type": "Feature", "properties": {"name": "commercial", "source": "OpenStreetMap", "licence": "ODbL", "osmId": 133338187}, "geometry": {"type": "Point", "coordinates": [150.8911112, -34.4278119]}}, {"type": "Feature", "properties": {"name": "commercial", "source": "OpenStreetMap", "licence": "ODbL", "osmId": 133338189}, "geometry": {"type": "Point", "coordinates": [150.8883295, -34.4302252]}}, {"type": "Feature", "properties": {"name": "commercial", "source": "OpenStreetMap", "licence": "ODbL", "osmId": 133338190}, "geometry": {"type": "Point", "coordinates": [150.8908752, -34.4300185]}}, {"type": "Feature", "properties": {"name": "commercial", "source": "OpenStreetMap", "licence": "ODbL", "osmId": 133338194}, "geometry": {"type": "Point", "coordinates": [150.8892194, -34.4262078]}}, {"type": "Feature", "properties": {"name": "commercial", "source": "OpenStreetMap", "licence": "ODbL", "osmId": 133338196}, "geometry": {"type": "Point", "coordinates": [150.8958694, -34.3752549]}}, {"type": "Feature", "properties": {"name": "commercial", "source": "OpenStreetMap", "licence": "ODbL", "osmId": 138390181}, "geometry": {"type": "Point", "coordinates": [150.9003862, -34.4251957]}}, {"type": "Feature", "properties": {"name": "Illawara General Practice", "source": "OpenStreetMap", "licence": "ODbL", "osmId": 138390231}, "geometry": {"type": "Point", "coordinates": [150.9006604, -34.4246647]}}, {"type": "Feature", "properties": {"name": "commercial", "source": "OpenStreetMap", "licence": "ODbL", "osmId": 141608149}, "geometry": {"type": "Point", "coordinates": [150.9187723, -34.3502225]}}, {"type": "Feature", "properties": {"name": "commercial", "source": "OpenStreetMap", "licence": "ODbL", "osmId": 142733425}, "geometry": {"type": "Point", "coordinates": [150.8726207, -34.4677241]}}, {"type": "Feature", "properties": {"name": "commercial", "source": "OpenStreetMap", "licence": "ODbL", "osmId": 142733449}, "geometry": {"type": "Point", "coordinates": [150.8723549, -34.4689776]}}, {"type": "Feature", "properties": {"name": "commercial", "source": "OpenStreetMap", "licence": "ODbL", "osmId": 142733455}, "geometry": {"type": "Point", "coordinates": [150.8721408, -34.4810339]}}, {"type": "Feature", "properties": {"name": "commercial", "source": "OpenStreetMap", "licence": "ODbL", "osmId": 142733460}, "geometry": {"type": "Point", "coordinates": [150.8727791, -34.4662994]}}, {"type": "Feature", "properties": {"name": "commercial", "source": "OpenStreetMap", "licence": "ODbL", "osmId": 156293838}, "geometry": {"type": "Point", "coordinates": [150.9051195, -34.3428825]}}, {"type": "Feature", "properties": {"name": "commercial", "source": "OpenStreetMap", "licence": "ODbL", "osmId": 188291050}, "geometry": {"type": "Point", "coordinates": [150.9006777, -34.4276711]}}, {"type": "Feature", "properties": {"name": "commercial", "source": "OpenStreetMap", "licence": "ODbL", "osmId": 301237047}, "geometry": {"type": "Point", "coordinates": [150.8978072, -34.4325234]}}, {"type": "Feature", "properties": {"name": "commercial", "source": "OpenStreetMap", "licence": "ODbL", "osmId": 324148253}, "geometry": {"type": "Point", "coordinates": [150.9137741, -34.3274229]}}, {"type": "Feature", "properties": {"name": "commercial", "source": "OpenStreetMap", "licence": "ODbL", "osmId": 392062180}, "geometry": {"type": "Point", "coordinates": [150.6052342, -34.8887208]}}, {"type": "Feature", "properties": {"name": "Shellharbour Resort and Conference Center", "source": "OpenStreetMap", "licence": "ODbL", "osmId": 395463795}, "geometry": {"type": "Point", "coordinates": [150.8626747, -34.5731293]}}, {"type": "Feature", "properties": {"name": "commercial", "source": "OpenStreetMap", "licence": "ODbL", "osmId": 406159629}, "geometry": {"type": "Point", "coordinates": [150.8968973, -34.4347356]}}, {"type": "Feature", "properties": {"name": "Dapto Pick-A-Part", "source": "OpenStreetMap", "licence": "ODbL", "osmId": 440274829}, "geometry": {"type": "Point", "coordinates": [150.79393, -34.4881678]}}, {"type": "Feature", "properties": {"name": "commercial", "source": "OpenStreetMap", "licence": "ODbL", "osmId": 440686453}, "geometry": {"type": "Point", "coordinates": [150.7786888, -34.4908358]}}, {"type": "Feature", "properties": {"name": "commercial", "source": "OpenStreetMap", "licence": "ODbL", "osmId": 476266732}, "geometry": {"type": "Point", "coordinates": [150.8748562, -34.4384925]}}, {"type": "Feature", "properties": {"name": "commercial", "source": "OpenStreetMap", "licence": "ODbL", "osmId": 556622007}, "geometry": {"type": "Point", "coordinates": [150.3728944, -34.5490702]}}, {"type": "Feature", "properties": {"name": "commercial", "source": "OpenStreetMap", "licence": "ODbL", "osmId": 556625873}, "geometry": {"type": "Point", "coordinates": [150.3756431, -34.5465285]}}, {"type": "Feature", "properties": {"name": "Berrima Bakehouse Motel", "source": "OpenStreetMap", "licence": "ODbL", "osmId": 563366944}, "geometry": {"type": "Point", "coordinates": [150.3369427, -34.4886815]}}, {"type": "Feature", "properties": {"name": "commercial", "source": "OpenStreetMap", "licence": "ODbL", "osmId": 575269933}, "geometry": {"type": "Point", "coordinates": [150.3377498, -34.5051808]}}, {"type": "Feature", "properties": {"name": "commercial", "source": "OpenStreetMap", "licence": "ODbL", "osmId": 577455288}, "geometry": {"type": "Point", "coordinates": [150.3354743, -34.4891299]}}, {"type": "Feature", "properties": {"name": "commercial", "source": "OpenStreetMap", "licence": "ODbL", "osmId": 577455289}, "geometry": {"type": "Point", "coordinates": [150.3335023, -34.4907889]}}, {"type": "Feature", "properties": {"name": "commercial", "source": "OpenStreetMap", "licence": "ODbL", "osmId": 595999551}, "geometry": {"type": "Point", "coordinates": [150.8181843, -34.4586533]}}, {"type": "Feature", "properties": {"name": "commercial", "source": "OpenStreetMap", "licence": "ODbL", "osmId": 634832778}, "geometry": {"type": "Point", "coordinates": [150.5976244, -34.5896591]}}, {"type": "Feature", "properties": {"name": "commercial", "source": "OpenStreetMap", "licence": "ODbL", "osmId": 635237281}, "geometry": {"type": "Point", "coordinates": [150.5982876, -34.5891431]}}, {"type": "Feature", "properties": {"name": "commercial", "source": "OpenStreetMap", "licence": "ODbL", "osmId": 666551942}, "geometry": {"type": "Point", "coordinates": [150.5916168, -34.2267499]}}, {"type": "Feature", "properties": {"name": "commercial", "source": "OpenStreetMap", "licence": "ODbL", "osmId": 666884539}, "geometry": {"type": "Point", "coordinates": [150.8932155, -34.4152474]}}, {"type": "Feature", "properties": {"name": "commercial", "source": "OpenStreetMap", "licence": "ODbL", "osmId": 688264423}, "geometry": {"type": "Point", "coordinates": [150.8515127, -34.4493427]}}, {"type": "Feature", "properties": {"name": "commercial", "source": "OpenStreetMap", "licence": "ODbL", "osmId": 688264424}, "geometry": {"type": "Point", "coordinates": [150.8485021, -34.4516605]}}, {"type": "Feature", "properties": {"name": "commercial", "source": "OpenStreetMap", "licence": "ODbL", "osmId": 766225528}, "geometry": {"type": "Point", "coordinates": [150.8981984, -34.4235362]}}, {"type": "Feature", "properties": {"name": "The Lodge Jamberoo", "source": "OpenStreetMap", "licence": "ODbL", "osmId": 773693014}, "geometry": {"type": "Point", "coordinates": [150.7335826, -34.6549969]}}, {"type": "Feature", "properties": {"name": "commercial", "source": "OpenStreetMap", "licence": "ODbL", "osmId": 775211392}, "geometry": {"type": "Point", "coordinates": [150.9004178, -34.3618501]}}, {"type": "Feature", "properties": {"name": "commercial", "source": "OpenStreetMap", "licence": "ODbL", "osmId": 775211393}, "geometry": {"type": "Point", "coordinates": [150.8995076, -34.3612684]}}, {"type": "Feature", "properties": {"name": "commercial", "source": "OpenStreetMap", "licence": "ODbL", "osmId": 813032942}, "geometry": {"type": "Point", "coordinates": [150.3354938, -34.4890827]}}, {"type": "Feature", "properties": {"name": "commercial", "source": "OpenStreetMap", "licence": "ODbL", "osmId": 1065820173}, "geometry": {"type": "Point", "coordinates": [150.7358835, -34.9174637]}}, {"type": "Feature", "properties": {"name": "commercial", "source": "OpenStreetMap", "licence": "ODbL", "osmId": 1065820174}, "geometry": {"type": "Point", "coordinates": [150.7346253, -34.9172721]}}, {"type": "Feature", "properties": {"name": "commercial", "source": "OpenStreetMap", "licence": "ODbL", "osmId": 1076216882}, "geometry": {"type": "Point", "coordinates": [150.8862805, -34.4341952]}}, {"type": "Feature", "properties": {"name": "commercial", "source": "OpenStreetMap", "licence": "ODbL", "osmId": 1076446426}, "geometry": {"type": "Point", "coordinates": [150.886702, -34.4272608]}}, {"type": "Feature", "properties": {"name": "commercial", "source": "OpenStreetMap", "licence": "ODbL", "osmId": 1076446427}, "geometry": {"type": "Point", "coordinates": [150.8805615, -34.4265079]}}, {"type": "Feature", "properties": {"name": "commercial", "source": "OpenStreetMap", "licence": "ODbL", "osmId": 1163365216}, "geometry": {"type": "Point", "coordinates": [150.8515532, -34.668039]}}, {"type": "Feature", "properties": {"name": "commercial", "source": "OpenStreetMap", "licence": "ODbL", "osmId": 1163365220}, "geometry": {"type": "Point", "coordinates": [150.8537344, -34.6675759]}}, {"type": "Feature", "properties": {"name": "commercial", "source": "OpenStreetMap", "licence": "ODbL", "osmId": 1249444064}, "geometry": {"type": "Point", "coordinates": [150.8986116, -34.3666891]}}, {"type": "Feature", "properties": {"name": "National Storage", "source": "OpenStreetMap", "licence": "ODbL", "osmId": 1296344605}, "geometry": {"type": "Point", "coordinates": [150.7861532, -34.5480309]}}, {"type": "Feature", "properties": {"name": "commercial", "source": "OpenStreetMap", "licence": "ODbL", "osmId": 1303243811}, "geometry": {"type": "Point", "coordinates": [150.9124307, -34.4758769]}}]}