{"type": "FeatureCollection", "features": [{"type": "Feature", "properties": {"name": "ChargePoint", "source": "OpenStreetMap", "licence": "ODbL", "osmId": 5047211383}, "geometry": {"type": "Point", "coordinates": [150.8812521, -34.4075897]}}, {"type": "Feature", "properties": {"name": "ev", "source": "OpenStreetMap", "licence": "ODbL", "osmId": 6165583448}, "geometry": {"type": "Point", "coordinates": [150.4424531, -34.4500909]}}, {"type": "Feature", "properties": {"name": "ChargePoint", "source": "OpenStreetMap", "licence": "ODbL", "osmId": 6165583449}, "geometry": {"type": "Point", "coordinates": [150.4519627, -34.4501399]}}, {"type": "Feature", "properties": {"name": "ev", "source": "OpenStreetMap", "licence": "ODbL", "osmId": 6489763087}, "geometry": {"type": "Point", "coordinates": [150.7008205, -34.775569]}}, {"type": "Feature", "properties": {"name": "Tesla Supercharger", "source": "OpenStreetMap", "licence": "ODbL", "osmId": 6525751310}, "geometry": {"type": "Point", "coordinates": [150.6367014, -34.8082768]}}, {"type": "Feature", "properties": {"name": "ev", "source": "OpenStreetMap", "licence": "ODbL", "osmId": 6914659544}, "geometry": {"type": "Point", "coordinates": [150.8633339, -34.436581]}}, {"type": "Feature", "properties": {"name": "ev", "source": "OpenStreetMap", "licence": "ODbL", "osmId": 9366873533}, "geometry": {"type": "Point", "coordinates": [150.8661667, -34.5878761]}}, {"type": "Feature", "properties": {"name": "ev", "source": "OpenStreetMap", "licence": "ODbL", "osmId": 9765677232}, "geometry": {"type": "Point", "coordinates": [150.2250985, -34.607274]}}, {"type": "Feature", "properties": {"name": "ev", "source": "OpenStreetMap", "licence": "ODbL", "osmId": 9786977964}, "geometry": {"type": "Point", "coordinates": [150.7957656, -34.4952775]}}, {"type": "Feature", "properties": {"name": "Tesla Supercharger", "source": "OpenStreetMap", "licence": "ODbL", "osmId": 10744631135}, "geometry": {"type": "Point", "coordinates": [150.2298378, -34.6092951]}}, {"type": "Feature", "properties": {"name": "ev", "source": "OpenStreetMap", "licence": "ODbL", "osmId": 10783513810}, "geometry": {"type": "Point", "coordinates": [150.8914532, -34.4033184]}}, {"type": "Feature", "properties": {"name": "Wollongong Supercharger", "source": "OpenStreetMap", "licence": "ODbL", "osmId": 10815562193}, "geometry": {"type": "Point", "coordinates": [150.8634156, -34.437819]}}, {"type": "Feature", "properties": {"name": "Tesla Destination Charger", "source": "OpenStreetMap", "licence": "ODbL", "osmId": 10815896314}, "geometry": {"type": "Point", "coordinates": [150.8999909, -34.4143916]}}, {"type": "Feature", "properties": {"name": "ev", "source": "OpenStreetMap", "licence": "ODbL", "osmId": 11137421689}, "geometry": {"type": "Point", "coordinates": [150.6399305, -34.2818052]}}, {"type": "Feature", "properties": {"name": "ev", "source": "OpenStreetMap", "licence": "ODbL", "osmId": 11137421690}, "geometry": {"type": "Point", "coordinates": [150.6365233, -34.2822929]}}, {"type": "Feature", "properties": {"name": "Tesla Destination Charger", "source": "OpenStreetMap", "licence": "ODbL", "osmId": 11140224982}, "geometry": {"type": "Point", "coordinates": [150.4138196, -34.4880018]}}, {"type": "Feature", "properties": {"name": "ev", "source": "OpenStreetMap", "licence": "ODbL", "osmId": 11221609471}, "geometry": {"type": "Point", "coordinates": [150.8064303, -34.4857516]}}, {"type": "Feature", "properties": {"name": "ev", "source": "OpenStreetMap", "licence": "ODbL", "osmId": 11365114635}, "geometry": {"type": "Point", "coordinates": [150.43701, -34.4467455]}}, {"type": "Feature", "properties": {"name": "ev", "source": "OpenStreetMap", "licence": "ODbL", "osmId": 12624993541}, "geometry": {"type": "Point", "coordinates": [150.684135, -34.2284569]}}, {"type": "Feature", "properties": {"name": "ev", "source": "OpenStreetMap", "licence": "ODbL", "osmId": 12757268383}, "geometry": {"type": "Point", "coordinates": [150.413066, -34.4670358]}}, {"type": "Feature", "properties": {"name": "ev", "source": "OpenStreetMap", "licence": "ODbL", "osmId": 12963857532}, "geometry": {"type": "Point", "coordinates": [150.8395656, -34.5624354]}}, {"type": "Feature", "properties": {"name": "ev", "source": "OpenStreetMap", "licence": "ODbL", "osmId": 13309552143}, "geometry": {"type": "Point", "coordinates": [150.7881099, -34.5519973]}}, {"type": "Feature", "properties": {"name": "ev", "source": "OpenStreetMap", "licence": "ODbL", "osmId": 13393835582}, "geometry": {"type": "Point", "coordinates": [150.36457, -34.5543827]}}, {"type": "Feature", "properties": {"name": "Tesla Supercharger", "source": "OpenStreetMap", "licence": "ODbL", "osmId": 13954740522}, "geometry": {"type": "Point", "coordinates": [150.6048383, -34.9160116]}}]}