{"type": "FeatureCollection", "features": [{"type": "Feature", "properties": {"name": "Packaging", "source": "OpenStreetMap", "licence": "ODbL", "osmId": 1030414356}, "geometry": {"type": "Point", "coordinates": [150.8816931, -34.4531119]}}, {"type": "Feature", "properties": {"name": "Coal Terminal", "source": "OpenStreetMap", "licence": "ODbL", "osmId": 1030414374}, "geometry": {"type": "Point", "coordinates": [150.8989315, -34.4532441]}}, {"type": "Feature", "properties": {"name": "CRM Service Centre", "source": "OpenStreetMap", "licence": "ODbL", "osmId": 1030414450}, "geometry": {"type": "Point", "coordinates": [150.8990179, -34.4743694]}}, {"type": "Feature", "properties": {"name": "Australian Amalgamated Terminals (AAT)", "source": "OpenStreetMap", "licence": "ODbL", "osmId": 1030414624}, "geometry": {"type": "Point", "coordinates": [150.88882, -34.4497309]}}, {"type": "Feature", "properties": {"name": "Recycling Area (21 Area)", "source": "OpenStreetMap", "licence": "ODbL", "osmId": 1030414833}, "geometry": {"type": "Point", "coordinates": [150.8677224, -34.4497288]}}, {"type": "Feature", "properties": {"name": "Ore Preparation", "source": "OpenStreetMap", "licence": "ODbL", "osmId": 1030415444}, "geometry": {"type": "Point", "coordinates": [150.8902921, -34.461762]}}, {"type": "Feature", "properties": {"name": "SpringHill Works", "source": "OpenStreetMap", "licence": "ODbL", "osmId": 1030415694}, "geometry": {"type": "Point", "coordinates": [150.8746065, -34.4582554]}}, {"type": "Feature", "properties": {"name": "BlueScope Steel", "source": "OpenStreetMap", "licence": "ODbL", "osmId": 1030415809}, "geometry": {"type": "Point", "coordinates": [150.8797977, -34.4512742]}}, {"type": "Feature", "properties": {"name": "Graincorp Grain Terminal", "source": "OpenStreetMap", "licence": "ODbL", "osmId": 1030415826}, "geometry": {"type": "Point", "coordinates": [150.892848, -34.4515693]}}, {"type": "Feature", "properties": {"name": "Cokemaking", "source": "OpenStreetMap", "licence": "ODbL", "osmId": 1030415909}, "geometry": {"type": "Point", "coordinates": [150.890946, -34.4686831]}}, {"type": "Feature", "properties": {"name": "Mills", "source": "OpenStreetMap", "licence": "ODbL", "osmId": 1030416145}, "geometry": {"type": "Point", "coordinates": [150.8783289, -34.4529858]}}, {"type": "Feature", "properties": {"name": "Recycling Area", "source": "OpenStreetMap", "licence": "ODbL", "osmId": 2613211830}, "geometry": {"type": "Point", "coordinates": [150.8660668, -34.4524854]}}, {"type": "Feature", "properties": {"name": "No. 1 Works", "source": "OpenStreetMap", "licence": "ODbL", "osmId": 3019306786}, "geometry": {"type": "Point", "coordinates": [150.8788038, -34.4717202]}}, {"type": "Feature", "properties": {"name": "Sinter Plant", "source": "OpenStreetMap", "licence": "ODbL", "osmId": 3401343313}, "geometry": {"type": "Point", "coordinates": [150.8944048, -34.4644864]}}, {"type": "Feature", "properties": {"name": "Steelhaven", "source": "OpenStreetMap", "licence": "ODbL", "osmId": 3658840620}, "geometry": {"type": "Point", "coordinates": [150.8900967, -34.4752878]}}, {"type": "Feature", "properties": {"name": "Quattro Grain", "source": "OpenStreetMap", "licence": "ODbL", "osmId": 8817461013}, "geometry": {"type": "Point", "coordinates": [150.8966871, -34.4508065]}}, {"type": "Feature", "properties": {"name": "Austick Copper Recycling Sydney", "source": "OpenStreetMap", "licence": "ODbL", "osmId": 9523334151}, "geometry": {"type": "Point", "coordinates": [150.8293772, -34.4679323]}}, {"type": "Feature", "properties": {"name": "Austick Car Removal Wollongong", "source": "OpenStreetMap", "licence": "ODbL", "osmId": 9867168277}, "geometry": {"type": "Point", "coordinates": [150.8295624, -34.4678577]}}, {"type": "Feature", "properties": {"name": "No. 4 Jetty", "source": "OpenStreetMap", "licence": "ODbL", "osmId": 4984923}, "geometry": {"type": "Point", "coordinates": [150.9114886, -34.4725466]}}, {"type": "Feature", "properties": {"name": "industrial", "source": "OpenStreetMap", "licence": "ODbL", "osmId": 26540834}, "geometry": {"type": "Point", "coordinates": [150.8166756, -34.5731832]}}, {"type": "Feature", "properties": {"name": "industrial", "source": "OpenStreetMap", "licence": "ODbL", "osmId": 26540979}, "geometry": {"type": "Point", "coordinates": [150.8096927, -34.5665403]}}, {"type": "Feature", "properties": {"name": "industrial", "source": "OpenStreetMap", "licence": "ODbL", "osmId": 26540982}, "geometry": {"type": "Point", "coordinates": [150.789725, -34.5507666]}}, {"type": "Feature", "properties": {"name": "industrial", "source": "OpenStreetMap", "licence": "ODbL", "osmId": 26561692}, "geometry": {"type": "Point", "coordinates": [150.7841969, -34.5539021]}}, {"type": "Feature", "properties": {"name": "Corrimal Coke Works", "source": "OpenStreetMap", "licence": "ODbL", "osmId": 29252575}, "geometry": {"type": "Point", "coordinates": [150.9029946, -34.3761938]}}, {"type": "Feature", "properties": {"name": "industrial", "source": "OpenStreetMap", "licence": "ODbL", "osmId": 36179265}, "geometry": {"type": "Point", "coordinates": [150.4139012, -34.4789152]}}, {"type": "Feature", "properties": {"name": "industrial", "source": "OpenStreetMap", "licence": "ODbL", "osmId": 36179795}, "geometry": {"type": "Point", "coordinates": [150.4106673, -34.4850646]}}, {"type": "Feature", "properties": {"name": "industrial", "source": "OpenStreetMap", "licence": "ODbL", "osmId": 36179796}, "geometry": {"type": "Point", "coordinates": [150.4090438, -34.4840521]}}, {"type": "Feature", "properties": {"name": "industrial", "source": "OpenStreetMap", "licence": "ODbL", "osmId": 52977049}, "geometry": {"type": "Point", "coordinates": [150.4902653, -34.4288179]}}, {"type": "Feature", "properties": {"name": "industrial", "source": "OpenStreetMap", "licence": "ODbL", "osmId": 52977149}, "geometry": {"type": "Point", "coordinates": [150.4789257, -34.4255057]}}, {"type": "Feature", "properties": {"name": "Russell Vale Colliery", "source": "OpenStreetMap", "licence": "ODbL", "osmId": 53191313}, "geometry": {"type": "Point", "coordinates": [150.892496, -34.3585813]}}, {"type": "Feature", "properties": {"name": "industrial", "source": "OpenStreetMap", "licence": "ODbL", "osmId": 72157912}, "geometry": {"type": "Point", "coordinates": [150.8186432, -34.5695385]}}, {"type": "Feature", "properties": {"name": "industrial", "source": "OpenStreetMap", "licence": "ODbL", "osmId": 87100498}, "geometry": {"type": "Point", "coordinates": [150.9134519, -34.3620535]}}, {"type": "Feature", "properties": {"name": "industrial", "source": "OpenStreetMap", "licence": "ODbL", "osmId": 87455871}, "geometry": {"type": "Point", "coordinates": [150.9113092, -34.3561924]}}, {"type": "Feature", "properties": {"name": "industrial", "source": "OpenStreetMap", "licence": "ODbL", "osmId": 87455891}, "geometry": {"type": "Point", "coordinates": [150.9036799, -34.3625285]}}, {"type": "Feature", "properties": {"name": "Vesuvius Australia", "source": "OpenStreetMap", "licence": "ODbL", "osmId": 87455908}, "geometry": {"type": "Point", "coordinates": [150.9182915, -34.3268962]}}, {"type": "Feature", "properties": {"name": "industrial", "source": "OpenStreetMap", "licence": "ODbL", "osmId": 88784570}, "geometry": {"type": "Point", "coordinates": [150.8803975, -34.4726452]}}, {"type": "Feature", "properties": {"name": "industrial", "source": "OpenStreetMap", "licence": "ODbL", "osmId": 88784582}, "geometry": {"type": "Point", "coordinates": [150.893624, -34.4523168]}}, {"type": "Feature", "properties": {"name": "industrial", "source": "OpenStreetMap", "licence": "ODbL", "osmId": 88784614}, "geometry": {"type": "Point", "coordinates": [150.867198, -34.4545808]}}, {"type": "Feature", "properties": {"name": "industrial", "source": "OpenStreetMap", "licence": "ODbL", "osmId": 95322132}, "geometry": {"type": "Point", "coordinates": [150.9112184, -34.3618057]}}, {"type": "Feature", "properties": {"name": "West Cliff Coal Washery (Illawarra Coal)", "source": "OpenStreetMap", "licence": "ODbL", "osmId": 101911587}, "geometry": {"type": "Point", "coordinates": [150.817039, -34.2209871]}}, {"type": "Feature", "properties": {"name": "industrial", "source": "OpenStreetMap", "licence": "ODbL", "osmId": 117327333}, "geometry": {"type": "Point", "coordinates": [150.7972537, -34.342945]}}, {"type": "Feature", "properties": {"name": "industrial", "source": "OpenStreetMap", "licence": "ODbL", "osmId": 117329223}, "geometry": {"type": "Point", "coordinates": [150.7931716, -34.2110926]}}, {"type": "Feature", "properties": {"name": "industrial", "source": "OpenStreetMap", "licence": "ODbL", "osmId": 124052960}, "geometry": {"type": "Point", "coordinates": [150.8884668, -34.4397912]}}, {"type": "Feature", "properties": {"name": "industrial", "source": "OpenStreetMap", "licence": "ODbL", "osmId": 124965364}, "geometry": {"type": "Point", "coordinates": [150.8921493, -34.3873501]}}, {"type": "Feature", "properties": {"name": "industrial", "source": "OpenStreetMap", "licence": "ODbL", "osmId": 124965373}, "geometry": {"type": "Point", "coordinates": [150.8946644, -34.4045731]}}, {"type": "Feature", "properties": {"name": "industrial", "source": "OpenStreetMap", "licence": "ODbL", "osmId": 124965398}, "geometry": {"type": "Point", "coordinates": [150.8951536, -34.3867576]}}, {"type": "Feature", "properties": {"name": "WCL Wongawilli Colliery", "source": "OpenStreetMap", "licence": "ODbL", "osmId": 131942862}, "geometry": {"type": "Point", "coordinates": [150.7495632, -34.4757047]}}, {"type": "Feature", "properties": {"name": "industrial", "source": "OpenStreetMap", "licence": "ODbL", "osmId": 142733384}, "geometry": {"type": "Point", "coordinates": [150.8553079, -34.451085]}}, {"type": "Feature", "properties": {"name": "industrial", "source": "OpenStreetMap", "licence": "ODbL", "osmId": 142733389}, "geometry": {"type": "Point", "coordinates": [150.8844919, -34.4794848]}}, {"type": "Feature", "properties": {"name": "industrial", "source": "OpenStreetMap", "licence": "ODbL", "osmId": 142733407}, "geometry": {"type": "Point", "coordinates": [150.8613075, -34.4620713]}}, {"type": "Feature", "properties": {"name": "industrial", "source": "OpenStreetMap", "licence": "ODbL", "osmId": 142733413}, "geometry": {"type": "Point", "coordinates": [150.8421374, -34.4620154]}}, {"type": "Feature", "properties": {"name": "industrial", "source": "OpenStreetMap", "licence": "ODbL", "osmId": 142733418}, "geometry": {"type": "Point", "coordinates": [150.8924277, -34.4802492]}}, {"type": "Feature", "properties": {"name": "industrial", "source": "OpenStreetMap", "licence": "ODbL", "osmId": 142733434}, "geometry": {"type": "Point", "coordinates": [150.8713564, -34.4658743]}}, {"type": "Feature", "properties": {"name": "industrial", "source": "OpenStreetMap", "licence": "ODbL", "osmId": 142733458}, "geometry": {"type": "Point", "coordinates": [150.8741235, -34.4663048]}}, {"type": "Feature", "properties": {"name": "Bombo Water Resource Recovery Facility", "source": "OpenStreetMap", "licence": "ODbL", "osmId": 173440327}, "geometry": {"type": "Point", "coordinates": [150.8595137, -34.6518866]}}, {"type": "Feature", "properties": {"name": "Coalcliff Coke Works", "source": "OpenStreetMap", "licence": "ODbL", "osmId": 183532752}, "geometry": {"type": "Point", "coordinates": [150.9719587, -34.24548]}}, {"type": "Feature", "properties": {"name": "industrial", "source": "OpenStreetMap", "licence": "ODbL", "osmId": 184104303}, "geometry": {"type": "Point", "coordinates": [150.8025288, -34.4688182]}}, {"type": "Feature", "properties": {"name": "industrial", "source": "OpenStreetMap", "licence": "ODbL", "osmId": 184714030}, "geometry": {"type": "Point", "coordinates": [150.8441692, -34.6175389]}}, {"type": "Feature", "properties": {"name": "Kemira Valley Coal Loader", "source": "OpenStreetMap", "licence": "ODbL", "osmId": 186988560}, "geometry": {"type": "Point", "coordinates": [150.8258343, -34.4191633]}}, {"type": "Feature", "properties": {"name": "industrial", "source": "OpenStreetMap", "licence": "ODbL", "osmId": 224854182}, "geometry": {"type": "Point", "coordinates": [150.5237618, -34.8966403]}}, {"type": "Feature", "properties": {"name": "industrial", "source": "OpenStreetMap", "licence": "ODbL", "osmId": 224854191}, "geometry": {"type": "Point", "coordinates": [150.5131938, -34.8985241]}}, {"type": "Feature", "properties": {"name": "industrial", "source": "OpenStreetMap", "licence": "ODbL", "osmId": 224854192}, "geometry": {"type": "Point", "coordinates": [150.5249591, -34.9034245]}}, {"type": "Feature", "properties": {"name": "industrial", "source": "OpenStreetMap", "licence": "ODbL", "osmId": 227295757}, "geometry": {"type": "Point", "coordinates": [150.5201711, -35.0211059]}}, {"type": "Feature", "properties": {"name": "industrial", "source": "OpenStreetMap", "licence": "ODbL", "osmId": 227324035}, "geometry": {"type": "Point", "coordinates": [150.4456543, -34.8644374]}}, {"type": "Feature", "properties": {"name": "industrial", "source": "OpenStreetMap", "licence": "ODbL", "osmId": 227453104}, "geometry": {"type": "Point", "coordinates": [150.5127566, -34.9514719]}}, {"type": "Feature", "properties": {"name": "industrial", "source": "OpenStreetMap", "licence": "ODbL", "osmId": 228794793}, "geometry": {"type": "Point", "coordinates": [150.8830326, -34.4422637]}}, {"type": "Feature", "properties": {"name": "industrial", "source": "OpenStreetMap", "licence": "ODbL", "osmId": 249891112}, "geometry": {"type": "Point", "coordinates": [150.6557532, -35.033381]}}, {"type": "Feature", "properties": {"name": "Council Central Depot", "source": "OpenStreetMap", "licence": "ODbL", "osmId": 260224109}, "geometry": {"type": "Point", "coordinates": [150.8941488, -34.4040842]}}, {"type": "Feature", "properties": {"name": "industrial", "source": "OpenStreetMap", "licence": "ODbL", "osmId": 263921953}, "geometry": {"type": "Point", "coordinates": [150.9079247, -34.4798102]}}, {"type": "Feature", "properties": {"name": "industrial", "source": "OpenStreetMap", "licence": "ODbL", "osmId": 263921954}, "geometry": {"type": "Point", "coordinates": [150.9115321, -34.4818014]}}, {"type": "Feature", "properties": {"name": "industrial", "source": "OpenStreetMap", "licence": "ODbL", "osmId": 263921955}, "geometry": {"type": "Point", "coordinates": [150.9062913, -34.4812162]}}, {"type": "Feature", "properties": {"name": "industrial", "source": "OpenStreetMap", "licence": "ODbL", "osmId": 282231480}, "geometry": {"type": "Point", "coordinates": [150.8731222, -34.4443007]}}, {"type": "Feature", "properties": {"name": "industrial", "source": "OpenStreetMap", "licence": "ODbL", "osmId": 292389098}, "geometry": {"type": "Point", "coordinates": [150.8023476, -34.4670273]}}, {"type": "Feature", "properties": {"name": "industrial", "source": "OpenStreetMap", "licence": "ODbL", "osmId": 321090141}, "geometry": {"type": "Point", "coordinates": [150.8212624, -34.7533799]}}, {"type": "Feature", "properties": {"name": "Cement Factory", "source": "OpenStreetMap", "licence": "ODbL", "osmId": 342000402}, "geometry": {"type": "Point", "coordinates": [150.635211, -34.1956501]}}, {"type": "Feature", "properties": {"name": "industrial", "source": "OpenStreetMap", "licence": "ODbL", "osmId": 390176005}, "geometry": {"type": "Point", "coordinates": [150.7899513, -34.4628734]}}, {"type": "Feature", "properties": {"name": "Manildra", "source": "OpenStreetMap", "licence": "ODbL", "osmId": 392570972}, "geometry": {"type": "Point", "coordinates": [150.6192067, -34.8549311]}}, {"type": "Feature", "properties": {"name": "Shoalhaven Paper Mill", "source": "OpenStreetMap", "licence": "ODbL", "osmId": 392571432}, "geometry": {"type": "Point", "coordinates": [150.6323674, -34.8514186]}}, {"type": "Feature", "properties": {"name": "Bendeela Pumping and Power Station", "source": "OpenStreetMap", "licence": "ODbL", "osmId": 400535892}, "geometry": {"type": "Point", "coordinates": [150.4670199, -34.7337791]}}, {"type": "Feature", "properties": {"name": "Cordeaux Colliery", "source": "OpenStreetMap", "licence": "ODbL", "osmId": 405827426}, "geometry": {"type": "Point", "coordinates": [150.7690386, -34.3249215]}}, {"type": "Feature", "properties": {"name": "industrial", "source": "OpenStreetMap", "licence": "ODbL", "osmId": 406403603}, "geometry": {"type": "Point", "coordinates": [150.7837768, -34.541842]}}, {"type": "Feature", "properties": {"name": "industrial", "source": "OpenStreetMap", "licence": "ODbL", "osmId": 441086784}, "geometry": {"type": "Point", "coordinates": [150.432889, -34.450883]}}, {"type": "Feature", "properties": {"name": "Ingham's Processing Plant", "source": "OpenStreetMap", "licence": "ODbL", "osmId": 441530675}, "geometry": {"type": "Point", "coordinates": [150.5929439, -34.2292666]}}, {"type": "Feature", "properties": {"name": "Boral Cement Berrima", "source": "OpenStreetMap", "licence": "ODbL", "osmId": 443528322}, "geometry": {"type": "Point", "coordinates": [150.3341524, -34.5098398]}}, {"type": "Feature", "properties": {"name": "Inghams Enterprises Berrima", "source": "OpenStreetMap", "licence": "ODbL", "osmId": 443528323}, "geometry": {"type": "Point", "coordinates": [150.3502338, -34.5158305]}}, {"type": "Feature", "properties": {"name": "industrial", "source": "OpenStreetMap", "licence": "ODbL", "osmId": 452342711}, "geometry": {"type": "Point", "coordinates": [150.449222, -34.7325067]}}, {"type": "Feature", "properties": {"name": "industrial", "source": "OpenStreetMap", "licence": "ODbL", "osmId": 473886434}, "geometry": {"type": "Point", "coordinates": [150.8090777, -34.4687816]}}, {"type": "Feature", "properties": {"name": "industrial", "source": "OpenStreetMap", "licence": "ODbL", "osmId": 473886437}, "geometry": {"type": "Point", "coordinates": [150.8043864, -34.4655424]}}, {"type": "Feature", "properties": {"name": "industrial", "source": "OpenStreetMap", "licence": "ODbL", "osmId": 486916178}, "geometry": {"type": "Point", "coordinates": [150.8010891, -34.4684439]}}, {"type": "Feature", "properties": {"name": "industrial", "source": "OpenStreetMap", "licence": "ODbL", "osmId": 486916182}, "geometry": {"type": "Point", "coordinates": [150.8107276, -34.4688685]}}, {"type": "Feature", "properties": {"name": "Macarthur Water Filtration Plant", "source": "OpenStreetMap", "licence": "ODbL", "osmId": 512794413}, "geometry": {"type": "Point", "coordinates": [150.7725032, -34.2206738]}}, {"type": "Feature", "properties": {"name": "Tallawarra Power Station", "source": "OpenStreetMap", "licence": "ODbL", "osmId": 535791203}, "geometry": {"type": "Point", "coordinates": [150.8071235, -34.5225862]}}, {"type": "Feature", "properties": {"name": "industrial", "source": "OpenStreetMap", "licence": "ODbL", "osmId": 556912317}, "geometry": {"type": "Point", "coordinates": [150.4330572, -34.4458524]}}, {"type": "Feature", "properties": {"name": "Tahmoor Colliery", "source": "OpenStreetMap", "licence": "ODbL", "osmId": 665508059}, "geometry": {"type": "Point", "coordinates": [150.5788446, -34.2531729]}}, {"type": "Feature", "properties": {"name": "industrial", "source": "OpenStreetMap", "licence": "ODbL", "osmId": 688062212}, "geometry": {"type": "Point", "coordinates": [150.8576526, -34.559364]}}, {"type": "Feature", "properties": {"name": "industrial", "source": "OpenStreetMap", "licence": "ODbL", "osmId": 688163321}, "geometry": {"type": "Point", "coordinates": [150.8937011, -34.4958319]}}, {"type": "Feature", "properties": {"name": "industrial", "source": "OpenStreetMap", "licence": "ODbL", "osmId": 701207721}, "geometry": {"type": "Point", "coordinates": [150.8418195, -34.7121804]}}, {"type": "Feature", "properties": {"name": "Berrima Coal Pty Ltd.", "source": "OpenStreetMap", "licence": "ODbL", "osmId": 713213085}, "geometry": {"type": "Point", "coordinates": [150.2650711, -34.485346]}}, {"type": "Feature", "properties": {"name": "industrial", "source": "OpenStreetMap", "licence": "ODbL", "osmId": 752057215}, "geometry": {"type": "Point", "coordinates": [150.6604875, -35.0297365]}}, {"type": "Feature", "properties": {"name": "industrial", "source": "OpenStreetMap", "licence": "ODbL", "osmId": 777416740}, "geometry": {"type": "Point", "coordinates": [150.3747058, -34.5383877]}}, {"type": "Feature", "properties": {"name": "industrial", "source": "OpenStreetMap", "licence": "ODbL", "osmId": 782863362}, "geometry": {"type": "Point", "coordinates": [150.7919045, -34.5574429]}}, {"type": "Feature", "properties": {"name": "industrial", "source": "OpenStreetMap", "licence": "ODbL", "osmId": 782864367}, "geometry": {"type": "Point", "coordinates": [150.7954873, -34.5614949]}}, {"type": "Feature", "properties": {"name": "industrial", "source": "OpenStreetMap", "licence": "ODbL", "osmId": 782864368}, "geometry": {"type": "Point", "coordinates": [150.794066, -34.5599486]}}, {"type": "Feature", "properties": {"name": "industrial", "source": "OpenStreetMap", "licence": "ODbL", "osmId": 785933233}, "geometry": {"type": "Point", "coordinates": [150.2132037, -34.6688246]}}, {"type": "Feature", "properties": {"name": "industrial", "source": "OpenStreetMap", "licence": "ODbL", "osmId": 788978181}, "geometry": {"type": "Point", "coordinates": [150.7808425, -34.2102675]}}, {"type": "Feature", "properties": {"name": "industrial", "source": "OpenStreetMap", "licence": "ODbL", "osmId": 804713545}, "geometry": {"type": "Point", "coordinates": [150.9054988, -34.3735066]}}, {"type": "Feature", "properties": {"name": "industrial", "source": "OpenStreetMap", "licence": "ODbL", "osmId": 804713546}, "geometry": {"type": "Point", "coordinates": [150.9059084, -34.3715795]}}, {"type": "Feature", "properties": {"name": "industrial", "source": "OpenStreetMap", "licence": "ODbL", "osmId": 804973907}, "geometry": {"type": "Point", "coordinates": [150.8871836, -34.3750021]}}, {"type": "Feature", "properties": {"name": "industrial", "source": "OpenStreetMap", "licence": "ODbL", "osmId": 804973908}, "geometry": {"type": "Point", "coordinates": [150.8878611, -34.3740789]}}, {"type": "Feature", "properties": {"name": "industrial", "source": "OpenStreetMap", "licence": "ODbL", "osmId": 806902634}, "geometry": {"type": "Point", "coordinates": [150.8971348, -34.389748]}}, {"type": "Feature", "properties": {"name": "industrial", "source": "OpenStreetMap", "licence": "ODbL", "osmId": 808568938}, "geometry": {"type": "Point", "coordinates": [150.8869658, -34.4406144]}}, {"type": "Feature", "properties": {"name": "industrial", "source": "OpenStreetMap", "licence": "ODbL", "osmId": 808568941}, "geometry": {"type": "Point", "coordinates": [150.889658, -34.4387768]}}, {"type": "Feature", "properties": {"name": "industrial", "source": "OpenStreetMap", "licence": "ODbL", "osmId": 808568943}, "geometry": {"type": "Point", "coordinates": [150.8872859, -34.4365414]}}, {"type": "Feature", "properties": {"name": "industrial", "source": "OpenStreetMap", "licence": "ODbL", "osmId": 809855422}, "geometry": {"type": "Point", "coordinates": [150.5876513, -34.2272001]}}, {"type": "Feature", "properties": {"name": "industrial", "source": "OpenStreetMap", "licence": "ODbL", "osmId": 820229885}, "geometry": {"type": "Point", "coordinates": [150.473857, -34.4243758]}}, {"type": "Feature", "properties": {"name": "industrial", "source": "OpenStreetMap", "licence": "ODbL", "osmId": 850725426}, "geometry": {"type": "Point", "coordinates": [150.8533934, -34.6546066]}}, {"type": "Feature", "properties": {"name": "industrial", "source": "OpenStreetMap", "licence": "ODbL", "osmId": 863759211}, "geometry": {"type": "Point", "coordinates": [150.3756077, -34.5413614]}}, {"type": "Feature", "properties": {"name": "industrial", "source": "OpenStreetMap", "licence": "ODbL", "osmId": 863759212}, "geometry": {"type": "Point", "coordinates": [150.3779053, -34.5414814]}}, {"type": "Feature", "properties": {"name": "industrial", "source": "OpenStreetMap", "licence": "ODbL", "osmId": 863759213}, "geometry": {"type": "Point", "coordinates": [150.3784257, -34.5395952]}}, {"type": "Feature", "properties": {"name": "industrial", "source": "OpenStreetMap", "licence": "ODbL", "osmId": 863759214}, "geometry": {"type": "Point", "coordinates": [150.3803507, -34.5344762]}}, {"type": "Feature", "properties": {"name": "industrial", "source": "OpenStreetMap", "licence": "ODbL", "osmId": 924793072}, "geometry": {"type": "Point", "coordinates": [150.9185544, -34.4923819]}}, {"type": "Feature", "properties": {"name": "industrial", "source": "OpenStreetMap", "licence": "ODbL", "osmId": 933654062}, "geometry": {"type": "Point", "coordinates": [150.6686939, -34.6056074]}}, {"type": "Feature", "properties": {"name": "Culburra Beach Industrial Area", "source": "OpenStreetMap", "licence": "ODbL", "osmId": 1011181260}, "geometry": {"type": "Point", "coordinates": [150.7478982, -34.9301342]}}, {"type": "Feature", "properties": {"name": "Bellambi Sewage Pumping Station", "source": "OpenStreetMap", "licence": "ODbL", "osmId": 1035372854}, "geometry": {"type": "Point", "coordinates": [150.9241342, -34.3690285]}}, {"type": "Feature", "properties": {"name": "industrial", "source": "OpenStreetMap", "licence": "ODbL", "osmId": 1035487650}, "geometry": {"type": "Point", "coordinates": [150.855405, -34.6461016]}}, {"type": "Feature", "properties": {"name": "industrial", "source": "OpenStreetMap", "licence": "ODbL", "osmId": 1035740984}, "geometry": {"type": "Point", "coordinates": [150.8460652, -34.6422979]}}, {"type": "Feature", "properties": {"name": "industrial", "source": "OpenStreetMap", "licence": "ODbL", "osmId": 1035740985}, "geometry": {"type": "Point", "coordinates": [150.8441452, -34.6443187]}}, {"type": "Feature", "properties": {"name": "industrial", "source": "OpenStreetMap", "licence": "ODbL", "osmId": 1035740992}, "geometry": {"type": "Point", "coordinates": [150.838974, -34.6443673]}}, {"type": "Feature", "properties": {"name": "industrial", "source": "OpenStreetMap", "licence": "ODbL", "osmId": 1049468688}, "geometry": {"type": "Point", "coordinates": [150.8307292, -34.2338621]}}, {"type": "Feature", "properties": {"name": "industrial", "source": "OpenStreetMap", "licence": "ODbL", "osmId": 1056807396}, "geometry": {"type": "Point", "coordinates": [150.5494419, -34.1996929]}}, {"type": "Feature", "properties": {"name": "10 & 11 Victa Way", "source": "OpenStreetMap", "licence": "ODbL", "osmId": 1058425628}, "geometry": {"type": "Point", "coordinates": [150.6139862, -34.8431931]}}, {"type": "Feature", "properties": {"name": "industrial", "source": "OpenStreetMap", "licence": "ODbL", "osmId": 1065753967}, "geometry": {"type": "Point", "coordinates": [150.7294132, -34.907262]}}, {"type": "Feature", "properties": {"name": "industrial", "source": "OpenStreetMap", "licence": "ODbL", "osmId": 1065753971}, "geometry": {"type": "Point", "coordinates": [150.7258951, -34.908382]}}, {"type": "Feature", "properties": {"name": "industrial", "source": "OpenStreetMap", "licence": "ODbL", "osmId": 1065820170}, "geometry": {"type": "Point", "coordinates": [150.7292498, -34.9158901]}}, {"type": "Feature", "properties": {"name": "industrial", "source": "OpenStreetMap", "licence": "ODbL", "osmId": 1066906424}, "geometry": {"type": "Point", "coordinates": [150.3614033, -34.53707]}}, {"type": "Feature", "properties": {"name": "industrial", "source": "OpenStreetMap", "licence": "ODbL", "osmId": 1066906425}, "geometry": {"type": "Point", "coordinates": [150.3575767, -34.5373627]}}, {"type": "Feature", "properties": {"name": "industrial", "source": "OpenStreetMap", "licence": "ODbL", "osmId": 1076041375}, "geometry": {"type": "Point", "coordinates": [150.7888253, -34.4991575]}}, {"type": "Feature", "properties": {"name": "industrial", "source": "OpenStreetMap", "licence": "ODbL", "osmId": 1076041376}, "geometry": {"type": "Point", "coordinates": [150.7903843, -34.4971405]}}, {"type": "Feature", "properties": {"name": "industrial", "source": "OpenStreetMap", "licence": "ODbL", "osmId": 1076041377}, "geometry": {"type": "Point", "coordinates": [150.7909799, -34.4955176]}}, {"type": "Feature", "properties": {"name": "industrial", "source": "OpenStreetMap", "licence": "ODbL", "osmId": 1093569364}, "geometry": {"type": "Point", "coordinates": [150.8533015, -34.6770458]}}, {"type": "Feature", "properties": {"name": "industrial", "source": "OpenStreetMap", "licence": "ODbL", "osmId": 1112468442}, "geometry": {"type": "Point", "coordinates": [150.620042, -34.8913433]}}, {"type": "Feature", "properties": {"name": "industrial", "source": "OpenStreetMap", "licence": "ODbL", "osmId": 1112468462}, "geometry": {"type": "Point", "coordinates": [150.5747484, -34.8621313]}}, {"type": "Feature", "properties": {"name": "industrial", "source": "OpenStreetMap", "licence": "ODbL", "osmId": 1112468486}, "geometry": {"type": "Point", "coordinates": [150.570718, -34.8591186]}}, {"type": "Feature", "properties": {"name": "industrial", "source": "OpenStreetMap", "licence": "ODbL", "osmId": 1112468487}, "geometry": {"type": "Point", "coordinates": [150.5714698, -34.8579615]}}, {"type": "Feature", "properties": {"name": "industrial", "source": "OpenStreetMap", "licence": "ODbL", "osmId": 1112468500}, "geometry": {"type": "Point", "coordinates": [150.5775562, -34.8509576]}}, {"type": "Feature", "properties": {"name": "industrial", "source": "OpenStreetMap", "licence": "ODbL", "osmId": 1160998361}, "geometry": {"type": "Point", "coordinates": [150.8344914, -34.7283011]}}, {"type": "Feature", "properties": {"name": "Kiama Reservoirs", "source": "OpenStreetMap", "licence": "ODbL", "osmId": 1169527018}, "geometry": {"type": "Point", "coordinates": [150.8437708, -34.673482]}}, {"type": "Feature", "properties": {"name": "Supply Depot", "source": "OpenStreetMap", "licence": "ODbL", "osmId": 1200969409}, "geometry": {"type": "Point", "coordinates": [150.8249502, -34.2464833]}}, {"type": "Feature", "properties": {"name": "Premier Illawarra Shellharbour Depot", "source": "OpenStreetMap", "licence": "ODbL", "osmId": 1205664265}, "geometry": {"type": "Point", "coordinates": [150.857915, -34.5847223]}}, {"type": "Feature", "properties": {"name": "industrial", "source": "OpenStreetMap", "licence": "ODbL", "osmId": 1210471396}, "geometry": {"type": "Point", "coordinates": [150.6130582, -34.84196]}}, {"type": "Feature", "properties": {"name": "industrial", "source": "OpenStreetMap", "licence": "ODbL", "osmId": 1210471397}, "geometry": {"type": "Point", "coordinates": [150.6125495, -34.8436487]}}, {"type": "Feature", "properties": {"name": "industrial", "source": "OpenStreetMap", "licence": "ODbL", "osmId": 1210471398}, "geometry": {"type": "Point", "coordinates": [150.6128203, -34.8460393]}}, {"type": "Feature", "properties": {"name": "industrial", "source": "OpenStreetMap", "licence": "ODbL", "osmId": 1210495685}, "geometry": {"type": "Point", "coordinates": [150.7993689, -34.5186724]}}, {"type": "Feature", "properties": {"name": "industrial", "source": "OpenStreetMap", "licence": "ODbL", "osmId": 1219700029}, "geometry": {"type": "Point", "coordinates": [150.6712284, -34.232135]}}, {"type": "Feature", "properties": {"name": "industrial", "source": "OpenStreetMap", "licence": "ODbL", "osmId": 1224953737}, "geometry": {"type": "Point", "coordinates": [150.3742911, -34.521149]}}, {"type": "Feature", "properties": {"name": "industrial", "source": "OpenStreetMap", "licence": "ODbL", "osmId": 1224953738}, "geometry": {"type": "Point", "coordinates": [150.3720829, -34.5217053]}}, {"type": "Feature", "properties": {"name": "industrial", "source": "OpenStreetMap", "licence": "ODbL", "osmId": 1231287006}, "geometry": {"type": "Point", "coordinates": [150.8136329, -34.4110833]}}, {"type": "Feature", "properties": {"name": "industrial", "source": "OpenStreetMap", "licence": "ODbL", "osmId": 1231287007}, "geometry": {"type": "Point", "coordinates": [150.8137175, -34.4108704]}}, {"type": "Feature", "properties": {"name": "industrial", "source": "OpenStreetMap", "licence": "ODbL", "osmId": 1231287021}, "geometry": {"type": "Point", "coordinates": [150.8567619, -34.4019606]}}, {"type": "Feature", "properties": {"name": "industrial", "source": "OpenStreetMap", "licence": "ODbL", "osmId": 1253243313}, "geometry": {"type": "Point", "coordinates": [150.6842335, -34.2205067]}}, {"type": "Feature", "properties": {"name": "industrial", "source": "OpenStreetMap", "licence": "ODbL", "osmId": 1302650123}, "geometry": {"type": "Point", "coordinates": [150.8739351, -34.4549926]}}, {"type": "Feature", "properties": {"name": "Australian Marine Fuels", "source": "OpenStreetMap", "licence": "ODbL", "osmId": 1303074750}, "geometry": {"type": "Point", "coordinates": [150.8942063, -34.4691519]}}, {"type": "Feature", "properties": {"name": "Water Police", "source": "OpenStreetMap", "licence": "ODbL", "osmId": 1303243866}, "geometry": {"type": "Point", "coordinates": [150.9114964, -34.4745075]}}, {"type": "Feature", "properties": {"name": "industrial", "source": "OpenStreetMap", "licence": "ODbL", "osmId": 1307908413}, "geometry": {"type": "Point", "coordinates": [150.8899151, -34.449969]}}, {"type": "Feature", "properties": {"name": "industrial", "source": "OpenStreetMap", "licence": "ODbL", "osmId": 1307908416}, "geometry": {"type": "Point", "coordinates": [150.8895971, -34.4457571]}}]}