{"type": "FeatureCollection", "features": [{"type": "Feature", "properties": {"name": "Endeavour Energy distribution district", "source": "Endeavour Energy Open Data"}, "geometry": {"type": "MultiPolygon", "coordinates": [[[[150.35566512857358, -35.58653105692772], [150.35310700180256, -35.586472005259004], [150.35316001035022, -35.585794735067964], [150.35566512857358, -35.58653105692772]]], [[[150.36035221105772, -35.58662816959775], [150.3590962983095, -35.5860912256695], [150.36015210954332, -35.5859222291466], [150.36035221105772, -35.58662816959775]]], [[[150.38852542260196, -35.55341169258604], [150.39224182530057, -35.55386161336338], [150.3921943255118, -35.55491382867366], [150.38852542260196, -35.55341169258604]]], [[[150.42101242497176, -35.52576883702755], [150.421095037303, -35.53209863091576], [150.41154984105475, -35.532367034902705], [150.41317934295, -35.52772454484678], [150.42101242497176, -35.52576883702755]]], [[[150.41009900871325, -35.52902947314415], [150.40891170544248, -35.528142136226485], [150.41038139409963, -35.52792858451674], [150.41009900871325, -35.52902947314415]]], [[[149.84352587545098, -33.43602609804049], [149.85171484842073, -33.421392169842974], [149.841012008158, -33.42123263540577], [149.84140845079193, -33.41645102365947], [149.858897358246, -33.41939828692554], [149.85383753005246, -33.422445629531346], [149.86632296407026, -33.43270937044899], [149.8916215735527, -33.432744345618104], [149.89431386751602, -33.42365673875711], [149.89028221090612, -33.41582198685667], [149.89673977612264, -33.424052965997646], [149.89499835563905, -33.4327741276429], [149.89933092017534, -33.43276287914325], [149.9056407145753, -33.413386701961386], [149.90033719807738, -33.41187519195642], [149.90203409920304, -33.4027229888259], [149.90647370452612, -33.40241047173413], [149.88401585303657, -33.38117166964884], [149.86987943179048, -33.377710917032815], [149.88373643140312, -33.37920749507032], [149.87545751014073, -33.36285659574555], [149.8771016407696, -33.34786636867982], [149.86943954133582, -33.3458471713308], [149.8644668362175, -33.33680973467028], [149.85106577834813, -33.337654232850085], [149.84410858999402, -33.327206619012024], [149.83195842146623, -33.324034674905135], [149.82613863044028, -33.31284854951971], [149.82084881516798, -33.29889175164963], [149.82725099548847, -33.29933723110392], [149.83575004149762, -33.25774442387586], [149.80749208069568, -33.253376304945974], [149.82194932751156, -33.24755269585014], [149.82949766710453, -33.22614961762832], [149.81401581673342, -33.2238395840855], [149.80224986752793, -33.20687327347564], [149.78029180702512, -33.20890805608257], [149.76927772552853, -33.196980282137474], [149.77357045126135, -33.18048589204266], [149.75117437693743, -33.17744734020623], [149.76100786791721, -33.163702798958404], [149.7624887660373, -33.13105799358249], [149.7712239251004, -33.11579986910528], [149.76493696550125, -33.10036289172213], [149.75138988090916, -33.10446642236619], [149.7450047900933, -33.101348806469], [149.73749176501724, -33.10594520180269], [149.7331242474107, -33.095911000874395], [149.71895382109992, -33.09811224215699], [149.7176179702285, -33.09235569982704], [149.70997367280734, -33.09243935409143], [149.69508923337796, -33.080123368339216], [149.68695420909287, -33.08035442168717], [149.68613287795333, -33.075187744674814], [149.6817148308555, -33.08145384897032], [149.6769793497499, -33.07630817251305], [149.66190528166518, -33.07803242315425], [149.66244279411328, -33.07130717907138], [149.6502760889612, -33.06914550766761], [149.6502469756027, -33.05945838840566], [149.6549861942526, -33.06056801595639], [149.6616389179906, -33.05387903142988], [149.64661565684534, -33.044790324902635], [149.64984593574195, -33.03923717718763], [149.63950861140495, -33.03839155554919], [149.65352433617846, -33.031714504783714], [149.64607536952946, -33.021250683255126], [149.6380674365345, -33.02030273580851], [149.64303573449428, -33.01334060414656], [149.6375758119656, -33.01184928818743], [149.6411702587896, -33.00395499925473], [149.65039882127317, -32.99548998827061], [149.64072766141544, -32.994324765846684], [149.6397951824245, -32.98546495126822], [149.65812713822672, -32.983752002945806], [149.66186920002778, -32.95893918112974], [149.67024576382363, -32.95991585358151], [149.67145375844296, -32.954698428987314], [149.68509256435766, -32.95230033157557], [149.69226290682914, -32.95455572905489], [149.699143479698, -32.929234679128065], [149.72627999640147, -32.9291189677611], [149.72656195280328, -32.92391448194249], [149.73081573887376, -32.92633627140888], [149.73767964962266, -32.921940493071304], [149.73652942645523, -32.9153989746301], [149.74531223198048, -32.91408873214724], [149.75461771017095, -32.89498610905301], [149.74341109656734, -32.88922143334204], [149.74252632289378, -32.87326435121795], [149.75655048132836, -32.85915384409244], [149.7648599643879, -32.834690437416505], [149.79216163297795, -32.82475397998375], [149.81358141402168, -32.80511852931851], [149.8246379224994, -32.80491979127685], [149.8256482849184, -32.797662354565446], [149.83256094667652, -32.79409340252464], [149.8275494507711, -32.78908494722269], [149.847739929917, -32.69737636901013], [149.8477856531118, -32.67832342508597], [149.85711936144358, -32.67459437803435], [149.8548992419031, -32.66606492279243], [149.8489084593429, -32.66499927208142], [149.85145673747775, -32.65153135981261], [149.8432570785787, -32.64541720629512], [149.85566959792394, -32.63648972954747], [149.85771489530538, -32.61397788585606], [149.86980609454173, -32.58012391225873], [149.8836449327956, -32.57867145048455], [149.8909303147784, -32.5363560501161], [149.9297885830233, -32.565735114190154], [149.9315926295197, -32.5787818425607], [149.95547462505073, -32.5924010207711], [149.96544840138333, -32.593767922987055], [149.9846798511113, -32.58654959172485], [149.99342378610828, -32.591650828774185], [150.0156725006022, -32.583864548519635], [150.02312411598302, -32.57398415893213], [150.03441610119674, -32.551134015765186], [150.01732592050598, -32.53579850638704], [150.01136883441032, -32.53939670501619], [149.9886739327414, -32.537336726363144], [149.99767580174088, -32.53661453956797], [149.99391910532356, -32.52372410190897], [149.97368954164966, -32.5085773949219], [149.97711127822475, -32.49939444920778], [149.96867764538433, -32.47406396946334], [149.9810221026342, -32.45890672766161], [149.9760981406898, -32.4476115692684], [149.96913133518152, -32.43757714217115], [149.9484341434087, -32.43638367721305], [149.9519348138969, -32.45647205283935], [149.94597474344, -32.44012094478287], [149.93888184401027, -32.44084744488567], [149.94711822330174, -32.43466383395607], [149.95676450669828, -32.43463315431254], [149.95193758210635, -32.42613118523372], [149.95391851751708, -32.42315735645246], [149.94901389315763, -32.42593792950327], [149.95893092554837, -32.41659897184347], [149.95985474026634, -32.40635621015716], [149.96116767250035, -32.417241731236544], [149.9542116766838, -32.426092720190866], [149.9591739897853, -32.43470988631206], [149.97055125020822, -32.436120074795475], [149.9829216205205, -32.45691123538724], [149.97080372354137, -32.47448931478046], [149.97829519204194, -32.48602355534311], [149.97925427683592, -32.49947605041249], [149.97563399675929, -32.5078025896859], [149.9957781761636, -32.52276104079756], [149.9999128882127, -32.53677391157772], [150.01577956387484, -32.534531666257024], [150.01037104513003, -32.5283172363954], [150.01090866782405, -32.51837466847049], [150.01975097162804, -32.51459918008237], [150.02179774683142, -32.50123001144036], [150.01025983371338, -32.4806099168956], [150.02470337198497, -32.46256824311102], [150.02198317435074, -32.44551059331028], [150.02906732846373, -32.43651305243202], [150.02440012107127, -32.419951030198106], [150.02831757269465, -32.41455323840304], [150.0433207486757, -32.418516995289195], [150.0560572466041, -32.414744678635344], [150.0631497887763, -32.395123185683566], [150.04893777608274, -32.38205945088169], [150.05792690997788, -32.367141301654634], [150.0743323740814, -32.36144151846951], [150.07535197960328, -32.35571170549675], [150.06890426799347, -32.35480844731946], [150.06651090010357, -32.3433298931952], [150.12670742862966, -32.34082174280316], [150.1328729863154, -32.33648463622229], [150.1422068309862, -32.34110188058244], [150.15502917780404, -32.3265920981823], [150.15979984430984, -32.32613792959077], [150.16341305582438, -32.3321918820906], [150.1654221056455, -32.31957089008834], [150.1780618731799, -32.326062154738764], [150.18010175653552, -32.33335316783019], [150.18774808480003, -32.33318476763761], [150.18916625294756, -32.349585679235446], [150.1967194798108, -32.332172708373975], [150.20608330384078, -32.33326132499466], [150.20818769178155, -32.33904060768872], [150.21721030375537, -32.3374472812438], [150.21432343206683, -32.32903525562237], [150.20595761681147, -32.32569124363295], [150.2078334488565, -32.318471345537084], [150.21596895906768, -32.32287565379012], [150.2212947284413, -32.314419257749535], [150.23130496078767, -32.31381356172308], [150.23688990918134, -32.30766083716468], [150.24509263059812, -32.31255870675875], [150.255135763321, -32.30236417810078], [150.25324085146443, -32.30962885065074], [150.2627297277828, -32.31650102047596], [150.2521568192603, -32.324768919098915], [150.2599420619541, -32.327048186712105], [150.26809866317527, -32.32012850354042], [150.2713036967159, -32.32340962364152], [150.2602010533701, -32.33841187768692], [150.26481433474973, -32.354755080408985], [150.25904237955803, -32.35756388658904], [150.26855385962446, -32.37118863312477], [150.26724144749508, -32.37664545460512], [150.2761311273628, -32.38099596606274], [150.2845421165098, -32.374122019110985], [150.28811347297284, -32.379681703828034], [150.28198917262202, -32.383397720043845], [150.28708515004323, -32.38641700610155], [150.30547195603273, -32.37305787017404], [150.3093826801775, -32.38565995088776], [150.3195871512327, -32.38745736524909], [150.31507216677178, -32.39373743117812], [150.31899479516238, -32.40948642687406], [150.31099283516957, -32.4096723888977], [150.29977337210045, -32.4198566915563], [150.2802989393336, -32.42223272868665], [150.2677548092744, -32.44977101511707], [150.2486409293418, -32.46078536966509], [150.2276865712224, -32.45630808402047], [150.22720447300975, -32.462816920868], [150.23878427000733, -32.472390102881356], [150.2377914728595, -32.4795320756301], [150.24813493025187, -32.4831317966439], [150.2406847288567, -32.498092309394124], [150.24184501730224, -32.51220875390112], [150.24926656912982, -32.52349884555513], [150.24355782813163, -32.52704606392485], [150.24238213250933, -32.53839784408723], [150.24315475521215, -32.54704484464827], [150.24807064658552, -32.55003792512392], [150.23739491606338, -32.57364444103205], [150.26657377757158, -32.57763483030545], [150.2598486902444, -32.59802620392619], [150.2401976417884, -32.601665484900586], [150.22898386354248, -32.61203954740927], [150.2514430288804, -32.61487420579655], [150.32068469100452, -32.64779879508405], [150.31975498284095, -32.66106385258208], [150.30850203656797, -32.66557568206951], [150.2913727700148, -32.72095314037658], [150.2777525636407, -32.732384209683126], [150.27595532724172, -32.74738483541068], [150.289176179484, -32.76495553995648], [150.29735032577656, -32.76646494155119], [150.3179066649914, -32.784096558541385], [150.32859033600397, -32.78321000750753], [150.34165576252732, -32.79347955346886], [150.33905554260969, -32.8088170451331], [150.34989155267309, -32.81801787867622], [150.35626979364955, -32.83981532880644], [150.3630365896852, -32.84546481793545], [150.36194406194613, -32.86824772548404], [150.34132528546573, -32.87101043549267], [150.33593337205266, -32.88241936553714], [150.3475696746729, -32.89034701512821], [150.34941241465668, -32.9090836130155], [150.35572388636223, -32.91694454363431], [150.35325476059364, -32.923029572887074], [150.36045663592907, -32.92532517695769], [150.3703441099653, -32.9412124613935], [150.36812941595497, -32.9532396682666], [150.37715394715786, -32.95903037945905], [150.376685758331, -32.96490718736704], [150.3674130707108, -32.971302163866994], [150.37707008640018, -32.990637942090295], [150.37009058013416, -33.01379135893782], [150.3904146438609, -33.03024087568844], [150.39373371536414, -33.0390377636811], [150.40474275529203, -33.024544815161335], [150.41065437629004, -33.02335986957326], [150.43158498509175, -33.03532677151132], [150.44886936323707, -33.03517605842679], [150.46519516555793, -33.046469092474204], [150.48856498981885, -33.04752376109787], [150.4963967248135, -33.033739948130986], [150.52648520162677, -33.03522426907892], [150.5484082655548, -33.042925216491774], [150.55325965860862, -33.058980511406254], [150.571729066293, -33.058297857764764], [150.60462816817602, -33.0695052992414], [150.6303301893464, -33.05812938749175], [150.7251933077258, -33.07118600819164], [150.70664312343507, -33.05872144724847], [150.70509910732835, -33.04500039985519], [150.68166809655625, -33.04499673332245], [150.68174332221176, -33.03219852234917], [150.67198579554952, -33.027055322069], [150.67176000698618, -33.021208044717554], [150.6851300583608, -33.00578678318494], [150.68573376676082, -32.99631020328714], [150.69709767684998, -32.996104266609976], [150.7035186155927, -33.01022789984328], [150.72650871055893, -33.01253299497305], [150.74545243021166, -33.021489395401055], [150.7606211411751, -33.014243307021225], [150.76392507835834, -32.99986438821952], [150.80509926036814, -33.005663713249795], [150.81507882587374, -33.01537649919485], [150.82021665837803, -33.01429650898872], [150.81895522795014, -33.02332128614597], [150.82650351300992, -33.025306063897595], [150.8309052784528, -33.03290980640469], [150.85555374953296, -33.032097435242335], [150.8533506822027, -33.0368582360301], [150.8584829748103, -33.04316971419608], [150.85031294703631, -33.0456016802975], [150.85805231475075, -33.05013122494332], [150.84774859671705, -33.05225355480813], [150.85367446564416, -33.05242620062749], [150.85391444523788, -33.0590937479513], [150.8594748496047, -33.06119842930957], [150.85220502495264, -33.06483777821789], [150.85623153592908, -33.07046249317838], [150.84886724771613, -33.07469538089865], [150.85377561139634, -33.08340218224152], [150.8475922127188, -33.09798226564896], [150.85900317272097, -33.09372076897749], [150.87291531402974, -33.10409508582636], [150.87388879554632, -33.114012576373085], [150.88458538495036, -33.11854148310964], [150.89977916384913, -33.12067752960202], [150.92410672701018, -33.110643732740535], [150.9421198038829, -33.12271745269668], [150.96605908686024, -33.12943119589549], [150.98549369280659, -33.127557342519474], [150.99409842676945, -33.121969072168234], [151.00359835133878, -33.12559773037965], [151.01283711131057, -33.12137184545818], [151.035033993243, -33.1236146982945], [151.0413142071361, -33.091089266130936], [151.05174840428768, -33.07989003851133], [151.08387820762047, -33.07478824088153], [151.10425772938777, -33.076572071488904], [151.11466390097598, -33.090664873277206], [151.1282911839827, -33.091345907956295], [151.1355307929397, -33.10731927388471], [151.11725277666145, -33.1251952599737], [151.10819659121333, -33.12819847697811], [151.1002332170518, -33.14429813573406], [151.10635952134248, -33.15146578415918], [151.10119553990492, -33.165211545758574], [151.10470364625786, -33.18138269158631], [151.0973404674361, -33.19326814892632], [151.10163158619227, -33.197429325189766], [151.09891388700225, -33.21825932642543], [151.1073974705171, -33.23163332657468], [151.10002865981266, -33.245452162439726], [151.10035670237397, -33.261837960012855], [151.0883569718127, -33.26926121644148], [151.09666012195035, -33.29994672789257], [151.09433005383073, -33.31234226737602], [151.08486599775944, -33.31854201036662], [151.09052337773517, -33.32562969895628], [151.0790720752937, -33.3355560127109], [151.06630531785004, -33.334021106952505], [151.06433436807288, -33.34202221160418], [151.0508256207047, -33.34131401903121], [151.03143137465784, -33.35149778366847], [151.0008589177946, -33.35059733250628], [150.98484557437507, -33.371536862500776], [150.9907484644825, -33.37830829386301], [150.98685727231623, -33.38586937926426], [150.99282564569882, -33.399652120581024], [151.01931463879512, -33.40263852977299], [151.0294389836552, -33.4109397917723], [151.0265684749472, -33.42501445101622], [151.0422927321768, -33.42975278147484], [151.04205748981806, -33.436367024363285], [151.04922460071595, -33.443202228877105], [151.0607404746461, -33.44322656468619], [151.06645616377693, -33.460207499249854], [151.0762581073578, -33.461342889571505], [151.0784227794739, -33.45243822788432], [151.0809996773514, -33.45587670600664], [151.07527048849397, -33.465346754546594], [151.0651237909628, -33.46162763594999], [151.05715574495483, -33.44392396315767], [151.04384489361655, -33.4457711839549], [151.03825849899874, -33.43317274288495], [151.02305155379736, -33.42514482586618], [151.02001804458632, -33.41831439999881], [151.02720403033405, -33.413407811712474], [151.01919259044857, -33.40551198013367], [150.9906963086955, -33.40266385701069], [150.99972136078915, -33.4100316386835], [150.98955022447524, -33.4267523608972], [151.0037858296875, -33.42897422969201], [150.99173648195213, -33.42968679475242], [150.99364818838694, -33.43321403085512], [151.0011379523638, -33.43184672886688], [150.99291942971809, -33.4370058383895], [150.99822198309113, -33.4416969670714], [150.99306955747014, -33.44424252191749], [150.9998506356832, -33.45209140391266], [151.00821439520305, -33.453141001069085], [151.00299140798694, -33.45547274514813], [151.0080359386825, -33.46259073222428], [151.0055949443417, -33.466005793362136], [151.01218448837835, -33.47190647640558], [151.01085373825765, -33.48353955541444], [151.02195693325345, -33.49210664773274], [151.0238792426807, -33.506903933600555], [151.03856654543893, -33.496448597603134], [151.03903999497012, -33.502489032997644], [151.05205065826507, -33.498437430417304], [151.05183462019252, -33.50336807165978], [151.0659920794564, -33.50747052316469], [151.0632343565351, -33.50538823522298], [151.07104872234882, -33.501971699187614], [151.0700057373662, -33.49609908582557], [151.08176861522443, -33.49358393255219], [151.07979669104313, -33.486774682384514], [151.0844620821759, -33.48410144010986], [151.08403180034853, -33.49521456019666], [151.09483887910557, -33.50042483654275], [151.08183649190798, -33.49544091815942], [151.0718591997396, -33.49716239677126], [151.07229519248378, -33.504148768414254], [151.0638305217975, -33.51042007450696], [151.0660365012141, -33.511820719772764], [151.0664479013286, -33.512001166696265], [151.06737003324625, -33.51186727087208], [151.0776716811088, -33.50771860193638], [151.0787032178557, -33.509433099451336], [151.06638521794198, -33.513844950763996], [151.04757587206703, -33.50270334383131], [151.03307030342663, -33.50394394744362], [151.02620791844524, -33.50895030734112], [151.02962265438683, -33.519581644467706], [151.01836014956345, -33.52819528311306], [151.0106972469897, -33.54392576522024], [151.01297021959743, -33.547350251782866], [151.0199550472549, -33.54481404500412], [151.01578672599655, -33.547555918161166], [151.01858643817175, -33.55120974670924], [151.00908098360514, -33.55546012396106], [151.01464444507008, -33.56287858428476], [151.02464137611813, -33.56374912916265], [151.00871665716812, -33.56821753140268], [151.0157604731954, -33.572512494077515], [151.01012483854274, -33.5971521697938], [151.0122860873403, -33.593672211128066], [151.01801708840517, -33.59644487431525], [151.01789195440696, -33.589688104175096], [151.0227113325179, -33.590138442827836], [151.02067986210042, -33.594461753025335], [151.02540012093348, -33.59170224044279], [151.02327860544915, -33.58616042083633], [151.028082092219, -33.57732428226792], [151.03052302479549, -33.58860056843238], [151.0244474103025, -33.59447639115442], [151.03426779318892, -33.59607059292319], [151.02725176107234, -33.59646134921445], [151.0283424384357, -33.611541130154706], [151.02579943552678, -33.607530166958846], [151.020211379623, -33.61053962318371], [151.0207588752827, -33.61456998491186], [151.0237073960363, -33.61889981897415], [151.0277327919494, -33.6141405474766], [151.0301835954913, -33.61904924803043], [151.02381642768322, -33.62635367117976], [151.02918771379433, -33.62931235813989], [151.02325461675423, -33.62874911730889], [151.02881456267397, -33.63437396202004], [151.02336196495972, -33.63715349637097], [151.03036984024502, -33.63904384851617], [151.0234177261344, -33.63901737663336], [151.03121717529953, -33.647969961550054], [151.0233780835672, -33.644824959694645], [151.0220148783729, -33.64866401008266], [151.03124693791702, -33.652469949578624], [151.02315705493953, -33.650565965975815], [151.02102128936409, -33.65202831722673], [151.02518698685628, -33.65424770630768], [151.02370175900728, -33.658522972811234], [151.03236644667192, -33.65652219135367], [151.02621330001787, -33.67195458051863], [151.0336528889076, -33.69170388678187], [151.0265809452579, -33.70014959335643], [151.01953677776822, -33.72713661862883], [151.02862101752436, -33.72738106381619], [151.02662730524756, -33.7314905215891], [151.03271586397588, -33.73747980754553], [151.04878094208607, -33.74471789388819], [151.04785483277968, -33.765613243017775], [151.05263266323547, -33.77832132507073], [151.0817226351851, -33.77044413173981], [151.08311286941486, -33.78870569198496], [151.06727935058512, -33.791690262872784], [151.06729071986163, -33.80253791006229], [151.07503333867552, -33.817225003663516], [151.06961547053766, -33.821941928180664], [151.05014084811236, -33.82462745428897], [151.01874160681285, -33.8382854029576], [151.01304875332042, -33.878509156046825], [150.9909979634382, -33.86515892787001], [150.9745528360861, -33.88939413259045], [150.96788231724494, -33.89018869834045], [150.9800715998414, -33.90588619437435], [150.97739316165493, -33.90964800510864], [150.97382818128418, -33.90738895961871], [150.97968307768977, -33.928764797452125], [150.96866389565022, -33.93170629073321], [150.96669167370547, -33.9429910477077], [150.97386394017005, -33.95228105027767], [150.9834082918455, -33.9549268959039], [150.98138241045277, -33.96429376120625], [150.9944184805497, -33.970971508435916], [150.9890656449321, -33.977095869579436], [150.99276855441764, -33.979791968708795], [150.9921766572982, -33.991494848773726], [150.98498888407045, -33.99866015647715], [150.98094383704534, -34.01751778022179], [150.9686015535812, -34.02625717685083], [150.95191167210717, -34.02396590672241], [150.94855355414447, -34.041321313435525], [150.94124091628393, -34.04056709709215], [150.93613564646333, -34.050497098463865], [150.9376423740759, -34.07540408655592], [150.9241205466808, -34.089622634817104], [150.93713437202047, -34.09519387455534], [150.93424684833712, -34.10941962342012], [150.92566101640656, -34.11662543657547], [150.9298494802377, -34.124270426229124], [150.92299255047374, -34.129602710618094], [150.98090444477248, -34.1383338727803], [151.02256864687794, -34.155427847496654], [151.0163116268923, -34.159635500925226], [151.0163362461843, -34.16602942312848], [151.05397715179413, -34.171275928401506], [151.0552589421407, -34.1672630749341], [151.0671241634029, -34.17242777184929], [151.0548970276959, -34.18118604619063], [151.05518382814924, -34.18552930230075], [151.0448512602236, -34.187170392555046], [151.03923928646063, -34.19539375271261], [151.02172184640315, -34.20444462067885], [151.01152487591443, -34.219183769413746], [150.98824652070414, -34.232729556865316], [150.9686152003393, -34.267360006732254], [150.92626073768744, -34.321816259363644], [150.92918806455046, -34.33939161465443], [150.9203749217384, -34.357184344194984], [150.9227626338732, -34.36401522728014], [150.9318390663805, -34.36913124650286], [150.90453669975972, -34.40089550091508], [150.9030935631138, -34.41704318506104], [150.91159614139787, -34.42225731338625], [150.90470803922568, -34.42917678853567], [150.9009841626398, -34.445798077257834], [150.90255562869396, -34.46194995624661], [150.9145293789197, -34.464800776657775], [150.9144851376801, -34.481359626067075], [150.92280227997804, -34.49397987441525], [150.90624332307357, -34.49507632421155], [150.8886357109355, -34.51067689440547], [150.87502185723233, -34.537266352592496], [150.8830129942585, -34.546161334899615], [150.8751556523548, -34.54602916708022], [150.8693186548645, -34.55637064958217], [150.87598787660033, -34.56125632609291], [150.86870233550093, -34.56864233520715], [150.87773002385504, -34.580095385106866], [150.87569289437158, -34.588891737009796], [150.88370422936214, -34.593508505587025], [150.9013864290662, -34.59217573663482], [150.90504888780487, -34.59697440461444], [150.89491448516955, -34.60152372584701], [150.88857772146216, -34.598621631422965], [150.88308431999292, -34.60432202610751], [150.8860648242973, -34.60666925601126], [150.86679698984042, -34.60478565168108], [150.86610020083748, -34.61049849767287], [150.8566919244759, -34.61478297143494], [150.86313203759644, -34.62836438231495], [150.85620530545984, -34.643078637408024], [150.86626944639085, -34.6491127000437], [150.8550131734849, -34.662834285970725], [150.8576220755475, -34.66958662146812], [150.86751324116284, -34.67158848809202], [150.85556361792823, -34.67638717992317], [150.86189285184582, -34.6880171631674], [150.85473804582446, -34.6901756593394], [150.8598769341993, -34.69286345576717], [150.85333050598922, -34.69786440354732], [150.85719317147053, -34.69990734540319], [150.85162976266218, -34.70378225385177], [150.85252022093852, -34.71399905435317], [150.83434152164963, -34.73746443862588], [150.83726001815492, -34.74685603644391], [150.83316276732612, -34.75116006780507], [150.83744344176404, -34.754802767991734], [150.82814009564657, -34.76282483392012], [150.82490302288087, -34.7825351783465], [150.818212858453, -34.774555472081644], [150.8076303944339, -34.77530278370684], [150.77836616417994, -34.79656207359324], [150.76258744744788, -34.818893200584164], [150.7509605792057, -34.851382920178416], [150.7513184294135, -34.88854712974155], [150.7604976601269, -34.89938130549327], [150.77104818130593, -34.89600314564657], [150.76642631596417, -34.912212439018624], [150.7686586733798, -34.924156332411016], [150.77469352741855, -34.9307717594096], [150.78676323278128, -34.930674137731856], [150.78036760704074, -34.93554853453998], [150.77725730971477, -34.94903962701792], [150.78620237258338, -34.987279455628375], [150.8105921169827, -35.011907089961156], [150.82066768968926, -35.014037871805165], [150.82891761814997, -35.00287583696461], [150.83498164507128, -35.0026710906104], [150.84366966946058, -35.00393372617482], [150.8503978391742, -35.013085934095535], [150.83278491917838, -35.041108239106265], [150.83718675103717, -35.048940804491785], [150.84377812545827, -35.05022220055608], [150.84119501671256, -35.06073655422828], [150.83408007302415, -35.075050722606875], [150.8259387311846, -35.07624891625656], [150.77059166350358, -35.12332016771616], [150.76839938580883, -35.11266824596955], [150.70059844411898, -35.12346953372804], [150.66200155985698, -35.11839774599206], [150.65762405100838, -35.12962145729407], [150.63397125214013, -35.14947927184309], [150.59435597928754, -35.14435693007081], [150.60829213999418, -35.15675913903735], [150.6018494799894, -35.1707567733844], [150.59253148677053, -35.173078230223915], [150.5969742097405, -35.190756996714484], [150.57286022738555, -35.193674290361585], [150.54261707640143, -35.2150232948742], [150.53113444401328, -35.234586088141945], [150.53365668561386, -35.2431914664581], [150.54265584797244, -35.242207961757266], [150.54567164315367, -35.248772364499494], [150.5163345562204, -35.26346805459655], [150.5180035973539, -35.27342863022557], [150.50221302745948, -35.272445688580206], [150.47816199286316, -35.293885786897356], [150.4725955861158, -35.31618783034267], [150.48819151133802, -35.324669533380316], [150.47745074753837, -35.3296989818056], [150.4764629588494, -35.346206702213834], [150.48554640481998, -35.35053972902892], [150.4846761336591, -35.35482815300766], [150.478017019754, -35.3540121267971], [150.4800972712953, -35.35893199285628], [150.48914869962044, -35.35981845785271], [150.49235451351493, -35.36704157183723], [150.4804171776033, -35.36823301282907], [150.4524382387343, -35.39082088376443], [150.44722442398714, -35.401873307556606], [150.44959998437398, -35.407003753494486], [150.42133385733806, -35.42394337440814], [150.41145316115288, -35.43695154643288], [150.4160467051136, -35.445627119889714], [150.40761085783373, -35.4458434089212], [150.40180232825972, -35.45310534565201], [150.40416950025957, -35.45877249944889], [150.40029322894966, -35.45710721882786], [150.39430657076963, -35.464047465670625], [150.39148048385871, -35.47318041889041], [150.39611474030988, -35.4802783118584], [150.3901770804784, -35.488401087823], [150.3955917462078, -35.492905824661776], [150.391343593886, -35.49825644644237], [150.39410656655664, -35.50480264928692], [150.40232107672327, -35.50596150279819], [150.39944313980044, -35.51604195956837], [150.407084713063, -35.533779800220934], [150.39269761811312, -35.53702325817047], [150.3934746744512, -35.543738068453806], [150.38725610335868, -35.54440683947909], [150.3823713599474, -35.55467868762097], [150.38763571076979, -35.56249171374791], [150.3766139314091, -35.56405378957862], [150.37762739813402, -35.571852411049406], [150.36562702116183, -35.570921146976296], [150.3657512972168, -35.578376972500955], [150.35983763897173, -35.577139114328794], [150.34747405194085, -35.58833265607671], [150.34168898413168, -35.597810397900304], [150.34612093641485, -35.60442365547549], [150.33474234236505, -35.60457232900533], [150.3360192478879, -35.60994518105334], [150.32346846804765, -35.61325958796011], [150.32600001296782, -35.617300873357166], [150.32355459882942, -35.62578218709218], [150.33028196673428, -35.62958605594679], [150.32287447941232, -35.64072189797697], [150.3156756863428, -35.63542615612052], [150.29358902062998, -35.64498276294698], [150.28522503260518, -35.63620102717908], [150.2949702209246, -35.634736109888266], [150.28865007287718, -35.63314862558891], [150.27753915485212, -35.64108701773242], [150.26829810932196, -35.62401225757871], [150.26965928140646, -35.61736144460183], [150.24934548460266, -35.63167508371313], [150.2566381468858, -35.61263876353115], [150.25330453466077, -35.596339643287344], [150.25976675792234, -35.583197701988745], [150.25367526354538, -35.56479270703373], [150.2410176083568, -35.558580581446584], [150.23727314797728, -35.54966251479735], [150.23470766019722, -35.55472054398846], [150.22334935880806, -35.54552618010006], [150.2211844354907, -35.55094611234994], [150.20330283001883, -35.54376520364513], [150.19913849176035, -35.553809551805486], [150.19223073270854, -35.55022481372378], [150.1825941965622, -35.55970517408427], [150.18260740098492, -35.57045575922801], [150.17325885688481, -35.57578847331394], [150.16645267525573, -35.57105088503751], [150.1610521059803, -35.5752251622362], [150.1573432551955, -35.570147831445375], [150.14229480861482, -35.57323897101096], [150.1331552607467, -35.56316523618679], [150.13138699305222, -35.56928795349768], [150.1193447618108, -35.57630467427068], [150.108691880042, -35.570914430088294], [150.0949866964592, -35.575463929448986], [150.09433805519055, -35.581141439151125], [150.0779529560942, -35.579157506872875], [150.07631270395552, -35.57427457620403], [150.06893726063367, -35.57932131960765], [150.06771847580862, -35.57474078832697], [150.05526051554122, -35.576879126530265], [150.0367386898752, -35.56184540961979], [150.0263668118409, -35.56127914736242], [150.02340742902945, -35.554659870070196], [150.010456679262, -35.55211003381236], [149.9940603177927, -35.52162954202071], [149.9795612170913, -35.50955917684898], [149.97687642920556, -35.4901080280822], [150.00264611953048, -35.47307882884666], [150.00485231175787, -35.44444237899578], [150.0135453405801, -35.4380649856477], [150.00682979108637, -35.428816278600515], [150.02052061026708, -35.41192282920967], [150.03792830833413, -35.40557056131185], [150.04138522343274, -35.38303553096284], [150.03647003038733, -35.3673922574893], [150.04434106440644, -35.35844054806675], [150.04592679596445, -35.34771872408013], [150.03749724708447, -35.331645173088305], [150.04417602360374, -35.317614324888844], [150.0504398073492, -35.31516712983996], [150.05062085345293, -35.30878026011869], [150.08512481642202, -35.304494239740286], [150.0817559310575, -35.29344644412816], [150.08547423977512, -35.29081570431125], [150.0977917266798, -35.292711272578245], [150.10551334899634, -35.284257222688325], [150.11642174713253, -35.29301929909945], [150.12162356925987, -35.28364769445039], [150.13771502336738, -35.27284937342354], [150.15176000335873, -35.266342022306496], [150.16407645507064, -35.26936913604814], [150.16043682869366, -35.25672093122726], [150.17152269497282, -35.24858389214818], [150.16826453523996, -35.23895366944767], [150.19739042231475, -35.22935106934853], [150.19465969795792, -35.21959124846054], [150.18693206600747, -35.2202539820426], [150.19032578937973, -35.21470339825677], [150.18504525401875, -35.20796516152315], [150.1856829011003, -35.19982260671699], [150.2151155622556, -35.20094760519707], [150.20355150552882, -35.171020314326476], [150.1754717462446, -35.165773852434846], [150.1691761863468, -35.148803987372986], [150.15987967639273, -35.15172791502146], [150.15142147866675, -35.14399807427625], [150.14103040047343, -35.14458893369895], [150.13900518111416, -35.117670517422106], [150.12867684196573, -35.11314362223556], [150.13340734704022, -35.1062644359522], [150.12654221791007, -35.10292790538523], [150.1290657062583, -35.097384082258124], [150.1187894724622, -35.08905675913306], [150.10527043792973, -35.08601247971971], [150.10288882446406, -35.07840769149405], [150.1073060169181, -35.0721318583569], [150.0887260452448, -35.0678227954021], [150.08729607526632, -35.059309293633305], [150.07159088756316, -35.05022023490317], [150.07564789870614, -35.042518287042704], [150.06130361273807, -35.036846193969055], [150.06418329034977, -35.02213104888187], [150.05240985711131, -35.018169658831546], [150.04963901935852, -35.00772569180937], [150.06672093496323, -35.00381566809541], [150.08524185483293, -34.988871742975206], [150.07844946563318, -34.97627402500014], [150.0549795242791, -34.96524766558764], [150.06723720282963, -34.94519016867053], [150.0672527198622, -34.93634396546374], [150.08776226500353, -34.924644071891926], [150.08563906798202, -34.91384247286653], [150.09123417973572, -34.91126353840416], [150.0810723551398, -34.905075446552964], [150.08644944961915, -34.894071354108625], [150.07547438677082, -34.897950216449594], [150.05812484391862, -34.88253725486225], [150.05234810947923, -34.882452191998304], [150.0510761302966, -34.870488386811516], [150.04009820304648, -34.86033630953102], [150.04164591446877, -34.85146693320404], [150.03691575032283, -34.8439422039543], [150.04321799005453, -34.827858791391044], [150.03555974936663, -34.80857304325122], [150.04625600763572, -34.80423103013466], [150.0397538001443, -34.79479258328479], [150.05273640598534, -34.784706901729784], [150.06575276867787, -34.78357426782741], [150.0667496088448, -34.778882060397514], [150.05483278590157, -34.77402157052632], [150.05578323778664, -34.77015675626675], [150.07306517540448, -34.76716746760089], [150.07618521018708, -34.77298304740915], [150.10583080825035, -34.78851388005284], [150.10971655523633, -34.798235314446856], [150.1257377309676, -34.80770805739388], [150.12768159186663, -34.81714357643529], [150.16272336280295, -34.822593596472636], [150.1775762721134, -34.81776571743564], [150.1936739179478, -34.81924420834802], [150.209243094888, -34.81412114749292], [150.2180852573876, -34.80421774082572], [150.2336239990472, -34.800337065250794], [150.23667925359206, -34.79309012530799], [150.25554047648177, -34.7910582555191], [150.26744281251413, -34.77408155936051], [150.28749918627884, -34.76431715547322], [150.30577806994594, -34.766837380659915], [150.3142735401734, -34.773619380547714], [150.313136284071, -34.76966649977472], [150.32848768279587, -34.76047566100352], [150.33288286457508, -34.75241862576625], [150.3033105394912, -34.73431690983351], [150.2945135883042, -34.73705535505775], [150.27063033626774, -34.73240687794148], [150.25691921648007, -34.74182630289514], [150.25045205576302, -34.73964636217074], [150.2418690529792, -34.745301059621006], [150.22915982535378, -34.74313301307704], [150.22701480391146, -34.747108408155356], [150.21680621599094, -34.747384603432515], [150.2033721614325, -34.757656458781256], [150.1942002240077, -34.751700202516126], [150.18624360581458, -34.76169479131175], [150.16910248614542, -34.7696212345391], [150.17787372565445, -34.73965258244582], [150.17784609429626, -34.728483082784585], [150.16972350144673, -34.72708745953532], [150.16997932212016, -34.72045261929411], [150.14081510033242, -34.715667574520424], [150.14285113042385, -34.70311445091216], [150.11649270260162, -34.69997822627044], [150.11461185981713, -34.68826298303727], [150.08609251354508, -34.685828540175635], [150.11197213340816, -34.68397417478618], [150.09504251130866, -34.681771484985575], [150.0820163459347, -34.686686447928565], [150.06912338653035, -34.68441884791008], [150.0917838389951, -34.68046189130974], [150.08309521346393, -34.670586408262345], [150.08140933864493, -34.677509601706994], [150.06880523306586, -34.677110333039245], [150.07984929875576, -34.675853027795], [150.08096359274563, -34.670191936010355], [150.07376041394775, -34.67062352034854], [150.0679065024849, -34.66229347964045], [150.09199002623217, -34.6697025522667], [150.09275229953312, -34.67728380426643], [150.09784751158824, -34.65542038266141], [150.08009712065683, -34.64731384850256], [150.0784826371815, -34.65566387800316], [150.063201044008, -34.66100186259495], [150.03452992963705, -34.65499045072322], [150.0280390216039, -34.658531565937885], [150.02253204241742, -34.67221092598841], [150.0145721924876, -34.676148859380035], [150.02551347842262, -34.658937127831], [150.01943103865216, -34.66045993941719], [150.01263746180317, -34.654989499910556], [150.02160204933983, -34.657816923079444], [150.03950195895783, -34.65232741363786], [150.0592329998553, -34.65826987846351], [150.0712528322014, -34.655728080299106], [150.06812209141944, -34.6524596489498], [150.0767278623694, -34.65404993512284], [150.06625439732284, -34.61645877008449], [150.0478248932839, -34.61963809678078], [150.0647622537887, -34.611881541144704], [150.05916720200838, -34.594829055053104], [150.04955395064775, -34.59106874636779], [150.054325436614, -34.588488135232005], [150.06102311601896, -34.593823410193565], [150.06682651210403, -34.61128739750624], [150.09361171484596, -34.60429892311705], [150.09687881447013, -34.598423629539866], [150.09278964826353, -34.58772377738974], [150.09767213403933, -34.58067473987549], [150.08767035550142, -34.58706821200243], [150.08169761261655, -34.57785805209117], [150.0933615989128, -34.57375586378961], [150.09380937480486, -34.55527019333119], [150.08258979251244, -34.55477255456083], [150.0795298707934, -34.54639664207295], [150.07340352718919, -34.543927879097964], [150.06133548289182, -34.54519642177725], [150.0492361654689, -34.536255452055876], [150.04493278463875, -34.52680968937442], [150.06689628515406, -34.511071912405214], [150.0769950173057, -34.51691226464862], [150.09254565062085, -34.51202515581351], [150.08284082064617, -34.495935518779], [150.07044423381754, -34.493730706273574], [150.06669886313153, -34.484860319982076], [150.07296063287922, -34.47888350736622], [150.0717195420314, -34.47270552829205], [150.05987038150408, -34.473634508932385], [150.05835596239848, -34.46542381631], [150.07686537820763, -34.446163340347766], [150.08480377645643, -34.44458090286367], [150.08807436962167, -34.4313556999423], [150.09784141893036, -34.43246668240564], [150.11428684006316, -34.412153297988276], [150.10618162806728, -34.389688086625874], [150.12268866900988, -34.37568421886069], [150.10787705748646, -34.36731234826282], [150.0966175774397, -34.37120963711218], [150.09537839978927, -34.36675369785976], [150.10294781130392, -34.3581272104609], [150.09353640274568, -34.3487207800572], [150.0817106601656, -34.35164008108091], [150.0763897237665, -34.34908997106649], [150.072654735465, -34.35733593219408], [150.05030239204544, -34.35661105864806], [150.04347139133353, -34.361420102524164], [150.03668648099278, -34.35464244795433], [150.02852949947928, -34.35999874314321], [150.0296427617781, -34.36704244963445], [150.01604668103874, -34.36740136618538], [150.00535213568497, -34.3593037670121], [150.00958389076044, -34.352774746153294], [150.0006241637449, -34.354282565801256], [149.99729950120238, -34.350680162156316], [150.00111203371398, -34.34637604228564], [149.98380639736553, -34.34479891904182], [149.96744093608092, -34.32582370919557], [149.96992207712836, -34.31901285723751], [149.96352192589129, -34.31481468419582], [149.97105501694824, -34.30827801868868], [149.9740715870279, -34.2957438973417], [149.98797324491903, -34.29650406463945], [149.98478260593836, -34.293136126134094], [149.99117254757422, -34.258200262967854], [150.02367920842585, -34.26194804807571], [150.02274851948707, -34.2697048064144], [150.0360116683791, -34.27152652582173], [150.0492664854772, -34.27274167789788], [150.05343361824555, -34.26599844820789], [150.0583434650977, -34.266495281043625], [150.05893701235718, -34.25447645503491], [150.05240534590698, -34.250120424499436], [150.06125207458783, -34.23780454833594], [150.0493054630445, -34.23422732251806], [150.06547724904468, -34.195223391566536], [150.06042695902178, -34.173037567068235], [150.05461416292687, -34.17371065171413], [150.04551189379168, -34.16038594090132], [150.04384863859516, -34.14666534883248], [150.03628140236222, -34.145540484989496], [150.03298812286596, -34.14955108429611], [150.029316953052, -34.14428298306709], [150.02468031358245, -34.14854592592013], [150.01473844806233, -34.142015174460596], [150.01828849161527, -34.13154477505912], [150.0374722733832, -34.120361247915554], [150.0709773557748, -34.131134432626396], [150.0854654286629, -34.12010010047558], [150.094296532215, -34.13617957119585], [150.10564787491697, -34.138181158952264], [150.11511731131074, -34.15044076356077], [150.1242555524284, -34.14889059082452], [150.12295756512202, -34.141592940693826], [150.1123052815798, -34.13960563724935], [150.1119379701236, -34.12685598771331], [150.10464777377433, -34.11809078855195], [150.103871338027, -34.1096675668809], [150.11248502287768, -34.1025144262976], [150.10580562098798, -34.08931204927429], [150.11232079086076, -34.089225298795576], [150.111169054464, -34.08356574280018], [150.1174204500343, -34.091375257946005], [150.11673096853525, -34.07720668827052], [150.12364187189013, -34.07513744877278], [150.13253497962583, -34.081568931355804], [150.1289706863188, -34.07328074285335], [150.14495686041658, -34.07122158375998], [150.14005773216144, -34.05034097165182], [150.1458994427001, -34.047448162561246], [150.14452785208653, -34.04273465769027], [150.1532332407865, -34.04211408564566], [150.15632776767177, -34.03340122213926], [150.16036272917788, -34.037011577133164], [150.16763240877222, -34.03497303230796], [150.15841926789273, -34.03166719935496], [150.16906955935542, -34.02649923832253], [150.16552237956728, -34.021606693064996], [150.1712310645191, -34.02220960581815], [150.17554401301183, -34.01565273311854], [150.18113913025024, -34.01776404990206], [150.18284739655638, -34.01126417083564], [150.2012435595331, -34.004541092019124], [150.21065303422097, -33.989225702177166], [150.22724322533853, -33.97857242052187], [150.24019499057653, -33.952073941987145], [150.2167465340382, -33.94819309903006], [150.21821412314216, -33.93860401744557], [150.213480679454, -33.93666881619778], [150.19050820260924, -33.950779280807964], [150.17522063364055, -33.94551430677709], [150.1646280489667, -33.91535653739321], [150.16848038187172, -33.89911145192748], [150.1553852877312, -33.89448252840421], [150.15914976295238, -33.88700091744184], [150.16839606204934, -33.88871315269413], [150.18421354485926, -33.87997025326899], [150.1655518671896, -33.86546324885124], [150.17513008404404, -33.8611243413068], [150.17496461246, -33.852925089647016], [150.1849747240356, -33.837648637547495], [150.18275493082155, -33.83034020296142], [150.17540881944814, -33.83451727476841], [150.16853819565068, -33.82683857740512], [150.18089703318788, -33.803608238668964], [150.1794768126102, -33.79719240813458], [150.1720127247828, -33.799199725535466], [150.16829279881736, -33.79553954230586], [150.17100123522954, -33.78784881232253], [150.17877619715136, -33.78441345394852], [150.17705332424043, -33.7780847984287], [150.18884052265838, -33.7759338041469], [150.19512281526403, -33.766936529275846], [150.19150206306713, -33.7501894947461], [150.15912526017328, -33.74046593687261], [150.1516231007703, -33.749830718615584], [150.15205841499812, -33.744906210937955], [150.14204247200672, -33.743418041563], [150.1400500858003, -33.73628815191087], [150.1224965583395, -33.73345042432854], [150.09560391237986, -33.739550637989765], [150.08730662074976, -33.73663508653606], [150.07499432302035, -33.72040589225029], [150.05904893040312, -33.715814731177936], [150.04928610466968, -33.720528586937654], [150.04382600848933, -33.74190324291708], [150.0474006082566, -33.74491731707704], [150.04253231137403, -33.750537410838824], [150.05165041138721, -33.755676711567304], [150.05172379498245, -33.7620883884598], [150.0421382962646, -33.752618375350075], [150.0362603590339, -33.757210624556464], [150.02797401846405, -33.77149161015031], [150.02825573093142, -33.78792720152678], [150.02271525938488, -33.79092245752111], [150.02823902725794, -33.76363236411205], [150.03252773879998, -33.76034099571987], [150.021744039216, -33.75963568071419], [150.02200457893747, -33.75553705536703], [150.0028946437528, -33.743679818102315], [149.98378511301902, -33.74370419274993], [149.97628118458135, -33.73132760556707], [149.96755019415036, -33.727586785030695], [149.96741708993721, -33.71469361734455], [149.96180506062217, -33.7143230290334], [149.9641395969354, -33.70702532168994], [149.97591213240295, -33.68831332970238], [149.97971846114652, -33.69158904831729], [149.9837768413205, -33.68835286374169], [149.97510589332194, -33.682736337804684], [149.97714143244755, -33.67400546177074], [149.97142766956244, -33.664389917151944], [149.975423389776, -33.660894826389374], [149.98460547683896, -33.66610972603453], [149.98665660377867, -33.656394144914685], [149.97874160090663, -33.650124266312964], [149.9724838420151, -33.63223378269174], [149.96787952873035, -33.63437736028472], [149.9699135799872, -33.62829984597431], [149.97724776819214, -33.628392852630604], [149.97176700518662, -33.62391085621569], [149.9737858874293, -33.6154284240055], [149.9609162637126, -33.616313781835885], [149.9609268738074, -33.60992562314199], [149.9511565587515, -33.60432460655531], [149.94995924391017, -33.595591734870624], [149.9349325535283, -33.59181517190026], [149.9367093522294, -33.58090839978963], [149.9321098143267, -33.57884823647395], [149.93910885365582, -33.57329360146679], [149.93389574894158, -33.56826654833865], [149.93732838386254, -33.565402918721674], [149.92610679576697, -33.56421923542181], [149.91464863005956, -33.569157653334884], [149.9115930081465, -33.56049514671175], [149.89732098575143, -33.56479635727262], [149.90142077129104, -33.538004050147165], [149.89013244913488, -33.53595612143891], [149.88377277150795, -33.54254655188176], [149.87706403464693, -33.537237228928035], [149.89528255609005, -33.533830300189926], [149.9032130097425, -33.52719408718836], [149.89951084370446, -33.51632221808066], [149.90461024554472, -33.52112912638022], [149.90861683410415, -33.49936915584408], [149.90229279124904, -33.50069644296617], [149.90676778287175, -33.49577532314755], [149.9014605444171, -33.47686770309879], [149.89334260250084, -33.46903208809963], [149.8948330902176, -33.482240989092695], [149.88906598094448, -33.473963231420576], [149.88167002533285, -33.480688776122975], [149.87434012100977, -33.47791025385378], [149.8868250199662, -33.47185303651829], [149.88674387732846, -33.465634108531525], [149.88902018729428, -33.47214036995395], [149.8925509622215, -33.467238753049486], [149.88527767045355, -33.45646875116434], [149.86847466841613, -33.45047470095061], [149.85540338434652, -33.456023937959245], [149.86055065662188, -33.45483612381115], [149.86077938845406, -33.458231265576245], [149.83408374612543, -33.455145854061165], [149.8378723462688, -33.457426077689945], [149.8286481469768, -33.46491761942816], [149.8320288308094, -33.45443659353221], [149.82029695225262, -33.447562233002614], [149.81572597650114, -33.45479495553086], [149.82143731057505, -33.45816987939136], [149.81823878576532, -33.46074213422503], [149.81157425750018, -33.452618922749146], [149.8151453875769, -33.44828992394609], [149.8085435936771, -33.448749712216525], [149.81770973291242, -33.43647487689741], [149.8061158777931, -33.43095729239207], [149.81844480619733, -33.4347698069886], [149.82086196294438, -33.42918581415678], [149.82653778102193, -33.43390990781965], [149.8316547061571, -33.427473207310946], [149.8274443403766, -33.44281530182117], [149.84352587545098, -33.43602609804049]], [[149.89191117305194, -33.43465162054768], [149.87963262898566, -33.434870202188435], [149.8803788603751, -33.44291671649199], [149.88991677986857, -33.45130539679247], [149.88708128827844, -33.455485584248834], [149.90342049998745, -33.47611626542437], [149.9078263631265, -33.493092302314686], [149.9178243666238, -33.4879830383467], [149.92109189524382, -33.47831043077931], [149.91237773479793, -33.476560675675515], [149.91874684251738, -33.44158134376983], [149.89393460559833, -33.434793099433385], [149.89074472941383, -33.44033894876752], [149.89191117305194, -33.43465162054768]], [[149.8849948001353, -33.4545965680253], [149.87891327799258, -33.450297129899454], [149.8774992494443, -33.435106404535226], [149.83711537834068, -33.44270379131656], [149.82732908352492, -33.44846986890955], [149.84364688625823, -33.45424685145649], [149.8507447449189, -33.450438106007496], [149.85630742507124, -33.453167710758834], [149.85632163637337, -33.44850257365236], [149.85858901882273, -33.452143299240596], [149.86808985812436, -33.44788290848385], [149.87957303139612, -33.45384121077718], [149.8849948001353, -33.4545965680253]], [[149.87751687256664, -33.36072908380398], [149.8859272407415, -33.37860640810303], [149.89048116136794, -33.37870902577646], [149.8863236066349, -33.38191668867122], [149.90022549672935, -33.37968270672162], [149.90038784469866, -33.383726000265206], [149.89083200647363, -33.386122592505195], [149.91099371162758, -33.39907374243382], [149.913274719706, -33.377616161617105], [149.89747028616614, -33.37768425139301], [149.895185664214, -33.37228578883572], [149.8986677012603, -33.3695815390058], [149.88513290637007, -33.37102172053757], [149.87751687256664, -33.36072908380398]], [[150.06978835073608, -34.62154663154674], [150.077333356761, -34.64220966332437], [150.0990409839006, -34.62706218976347], [150.0965598075205, -34.61844659699143], [150.06978835073608, -34.62154663154674]], [[150.98677916110853, -33.39146639312227], [150.9879245318866, -33.401090618190686], [150.97339288203403, -33.41735813255484], [150.9724668198095, -33.42062566740576], [150.98766333921145, -33.425366244955775], [150.98444722615548, -33.42049624244221], [150.9896554466438, -33.42057570148781], [150.99597352839592, -33.4103829035258], [150.9880242749481, -33.403680501825704], [150.99071201855082, -33.39812621041986], [150.98677916110853, -33.39146639312227]], [[149.8533351943344, -33.42480398930637], [149.84277164315273, -33.43953129336015], [149.8679208375105, -33.43501394018807], [149.8533351943344, -33.42480398930637]], [[151.01975496199398, -33.696200686227535], [151.0231350092126, -33.70000848136425], [151.01771549925814, -33.69740541831572], [151.01530028926672, -33.70491106336006], [151.02269565768344, -33.70968412575186], [151.01231836877764, -33.707382387207055], [151.0192409712001, -33.71504767009075], [151.02253289917957, -33.710952038644244], [151.02600439056303, -33.69687531881783], [151.01975496199398, -33.696200686227535]], [[150.06933764666624, -34.618990818987015], [150.0855188819499, -34.60838522985149], [150.0673894607752, -34.61303343813355], [150.06933764666624, -34.618990818987015]], [[149.8182911917259, -33.4438445903268], [149.82626726206007, -33.44130133541748], [149.82616339802777, -33.435686844417965], [149.82122563552068, -33.43419528134681], [149.8182911917259, -33.4438445903268]], [[151.02500318770086, -33.596384652859534], [151.0136397023592, -33.602722729432934], [151.01992297067127, -33.60200781254515], [151.02500318770086, -33.596384652859534]], [[149.88422599714647, -33.35275960277814], [149.8799060425186, -33.35009615351966], [149.87745929880367, -33.358927375098226], [149.88422599714647, -33.35275960277814]], [[150.09204274635943, -34.606447435272614], [150.08382901342384, -34.616192535119055], [150.09476401310425, -34.616607634079195], [150.08954724216883, -34.614421909921155], [150.09204274635943, -34.606447435272614]], [[151.02552861244587, -33.60541390618732], [151.02142867052237, -33.60399927327347], [151.01506662961685, -33.60511765834292], [151.01939251918432, -33.60855091479691], [151.02552861244587, -33.60541390618732]], [[149.89653172338407, -33.53531085583193], [149.90121627723906, -33.5361871561857], [149.90250208980763, -33.53271148587195], [149.89653172338407, -33.53531085583193]], [[151.0143040919264, -33.53218794053339], [151.01597695472856, -33.529222093296724], [151.0125134202813, -33.53491978844049], [151.0143040919264, -33.53218794053339]], [[150.06567942058592, -34.614718544937276], [150.06010896863816, -34.61517589623949], [150.05832215459546, -34.61561955562881], [150.06567942058592, -34.614718544937276]], [[149.8257455376885, -33.44699493186526], [149.82893813983324, -33.444597935126176], [149.82402908937362, -33.44515485826176], [149.8257455376885, -33.44699493186526]], [[150.08401616972822, -34.349147467904075], [150.0901534683132, -34.34798241504537], [150.09171369656434, -34.34768623289534], [150.08887613215015, -34.347109814951004], [150.08401616972822, -34.349147467904075]], [[149.90223121473701, -33.432690243991914], [149.9034292066525, -33.42615379063566], [149.9028172883072, -33.426064599726054], [149.90223121473701, -33.432690243991914]], [[149.94240510914724, -33.5878751856082], [149.93871921779737, -33.5878791569657], [149.93781176495008, -33.589551127384965], [149.94056224128983, -33.58885231526745], [149.94240510914724, -33.5878751856082]], [[149.75116969594316, -32.906451635199545], [149.75106773711477, -32.90842004878485], [149.7535610500364, -32.90675892337499], [149.75116969594316, -32.906451635199545]], [[151.01880164355788, -33.73015691219013], [151.02130588606136, -33.730035652833095], [151.02089339842118, -33.728551244815506], [151.01880164355788, -33.73015691219013]], [[150.90472156949505, -34.42032826850566], [150.90591301124056, -34.41983507971489], [150.90460740701747, -34.419442590045385], [150.90472156949505, -34.42032826850566]], [[150.10016636791212, -34.61790341963721], [150.09961020406755, -34.6171923302325], [150.0990455819842, -34.618064057797284], [150.10016636791212, -34.61790341963721]], [[149.8169662592181, -33.44669665690927], [149.81831137605178, -33.446393777652844], [149.81911633924852, -33.44561205484049], [149.8169662592181, -33.44669665690927]], [[149.90193661515158, -33.43454546936983], [149.89994255661964, -33.434560441559576], [149.90185026807106, -33.4350893890197], [149.90193661515158, -33.43454546936983]], [[149.84186663052077, -33.43969372348789], [149.84079753742841, -33.43963322055372], [149.83985022809603, -33.440096269917376], [149.84186663052077, -33.43969372348789]], [[149.87749226633252, -33.34609353345322], [149.87721316856968, -33.345485221874256], [149.87694021381665, -33.34602202346297], [149.87749226633252, -33.34609353345322]], [[151.01379875381323, -33.56286465405337], [151.01349151255067, -33.563384039160646], [151.01446236725877, -33.562958379821374], [151.01379875381323, -33.56286465405337]], [[151.02693307267543, -33.65894903846915], [151.02778795891413, -33.658396931125914], [151.0277948016803, -33.65836618298508], [151.02693307267543, -33.65894903846915]], [[151.01219649982622, -33.562796106541185], [151.01255742583396, -33.56304775165509], [151.01260071975935, -33.56305080595763], [151.01219649982622, -33.562796106541185]], [[149.821451014257, -33.44539540744126], [149.82159807291308, -33.44559990362258], [149.82207315213017, -33.44533736389898], [149.821451014257, -33.44539540744126]], [[151.02326778595165, -33.62848130089989], [151.02314278439667, -33.62807665744861], [151.0232464270938, -33.62872045719281], [151.02326778595165, -33.62848130089989]], [[151.01055165220797, -33.602119740126334], [151.01046009402182, -33.60210727144713], [151.01047176675903, -33.60254582831471], [151.01055165220797, -33.602119740126334]], [[150.99274943130544, -33.43374668993652], [150.99251314829516, -33.43402921667803], [150.99249946921373, -33.43406622416025], [150.99274943130544, -33.43374668993652]], [[150.99208844791002, -33.43819439636298], [150.99207599647193, -33.43806433475094], [150.9920732677902, -33.43806241941283], [150.99208844791002, -33.43819439636298]], [[151.01104275999296, -33.60156543088448], [151.0110916368745, -33.601550789094404], [151.01088200030418, -33.601687397955665], [151.01104275999296, -33.60156543088448]], [[150.15574180216137, -33.74322273104417], [150.1557184265194, -33.74321671819753], [150.1557094043321, -33.74326417345072], [150.15574180216137, -33.74322273104417]], [[149.9427239381385, -33.58758445317211], [149.9427139406631, -33.58758210375754], [149.94267473607263, -33.58762255320646], [149.9427239381385, -33.58758445317211]], [[150.61684222223252, -35.144482669893286], [150.6168631825179, -35.14450883879256], [150.616877401246, -35.14450982532909], [150.61684222223252, -35.144482669893286]], [[150.8411341120589, -35.05973939763961], [150.84111552846974, -35.059720439629835], [150.84110261889168, -35.05970971972885], [150.8411341120589, -35.05973939763961]], [[149.8843674962275, -33.450529163434524], [149.8843832510516, -33.45053857324768], [149.8843763776287, -33.45052450548782], [149.8843674962275, -33.450529163434524]], [[150.84754466042727, -33.052360770894374], [150.84756563042544, -33.05234799771379], [150.8475246562324, -33.05236914747965], [150.84754466042727, -33.052360770894374]], [[150.32355018601535, -35.623338404449754], [150.32354942307413, -35.623329106469875], [150.32355017346455, -35.62334215731843], [150.32355018601535, -35.623338404449754]], [[150.841154279963, -35.059767722658314], [150.84115508929696, -35.059768631372414], [150.8411545184978, -35.059767616019045], [150.841154279963, -35.059767722658314]]], [[[150.86297179816697, -34.625734297756836], [150.8658522293596, -34.626509127915966], [150.8635011119696, -34.627218776532814], [150.86297179816697, -34.625734297756836]]], [[[150.93684404502054, -34.49348876552415], [150.93847820204374, -34.495521248644366], [150.93594801001672, -34.49435286037308], [150.93684404502054, -34.49348876552415]]], [[[150.92826638041777, -34.487973930884515], [150.93281502183046, -34.48966644087032], [150.93598675753285, -34.493472706591845], [150.92681258566458, -34.49308451629337], [150.92826638041777, -34.487973930884515]]], [[[150.92258657577895, -34.48991156286042], [150.92484971526721, -34.49032834598708], [150.92345362966722, -34.490993789191236], [150.92258657577895, -34.48991156286042]]], [[[151.06454459625297, -33.51087227713751], [151.06451399435122, -33.51085282400706], [151.06454151257938, -33.510838035964085], [151.06454459625297, -33.51087227713751]]]]}}]}