{"type": "FeatureCollection", "features": [{"type": "Feature", "properties": {"id": "9538", "fid": 77925207, "name": "West Liverpool Ts", "featureType": "TransmissionSubstation", "city": "Prestons", "postcode": "2170", "voltage": "132kV", "feeder": null, "address": "109 Jedda Road", "state": "Inservice", "layer": "transmissionSubstation"}, "geometry": {"type": "Point", "coordinates": [150.87237384428497, -33.930851253873435]}}, {"type": "Feature", "properties": {"id": "9531", "fid": 77928483, "name": "Camellia Ts", "featureType": "TransmissionSubstation", "city": "Rosehill", "postcode": "2142", "voltage": "132kV", "feeder": null, "address": "7 Devon St", "state": "Inservice", "layer": "transmissionSubstation"}, "geometry": {"type": "Point", "coordinates": [151.0304802813617, -33.82632764764221]}}, {"type": "Feature", "properties": {"id": "9631", "fid": 77955635, "name": "Katoomba North Ts", "featureType": "TransmissionSubstation", "city": "Medlow Bath", "postcode": "2780", "voltage": "132kV", "feeder": null, "address": "190 Grand Canyon Rd", "state": "Inservice", "layer": "transmissionSubstation"}, "geometry": {"type": "Point", "coordinates": [150.325116790903, -33.669638475273196]}}, {"type": "Feature", "properties": {"id": "9759", "fid": 78991372, "name": "Denham Court", "featureType": "TransmissionSubstation", "city": "Leppington", "postcode": "2179", "voltage": "132kV", "feeder": null, "address": "1740 Camden Valley Way", "state": "Inservice", "layer": "transmissionSubstation"}, "geometry": {"type": "Point", "coordinates": [150.84053815552406, -33.95544865433021]}}, {"type": "Feature", "properties": {"id": "9550", "fid": 77915022, "name": "Hawkesbury Ts", "featureType": "TransmissionSubstation", "city": "South Windsor", "postcode": "2756", "voltage": "33kV", "feeder": null, "address": "155A Ham Street", "state": "Inservice", "layer": "transmissionSubstation"}, "geometry": {"type": "Point", "coordinates": [150.8134017052407, -33.62819314651348]}}, {"type": "Feature", "properties": {"id": "9568", "fid": 77927239, "name": "Liverpool Ts", "featureType": "TransmissionSubstation", "city": "Liverpool", "postcode": "2170", "voltage": "132kV", "feeder": null, "address": "994 Speed Street", "state": "Inservice", "layer": "transmissionSubstation"}, "geometry": {"type": "Point", "coordinates": [150.92216784090718, -33.93062388265468]}}, {"type": "Feature", "properties": {"id": "9670", "fid": 77938214, "name": "Outer Harbour Ts", "featureType": "TransmissionSubstation", "city": "Port Kembla", "postcode": "2505", "voltage": "132kV", "feeder": null, "address": "1 Old Port Road", "state": "Inservice", "layer": "transmissionSubstation"}, "geometry": {"type": "Point", "coordinates": [150.90002469535807, -34.47265073277747]}}, {"type": "Feature", "properties": {"id": "9743", "fid": 77952032, "name": "Springhill Ts", "featureType": "TransmissionSubstation", "city": "Unanderra", "postcode": "2526", "voltage": "132kV", "feeder": null, "address": "191 Five Islands Road", "state": "Inservice", "layer": "transmissionSubstation"}, "geometry": {"type": "Point", "coordinates": [150.86047632432224, -34.459125357091864]}}, {"type": "Feature", "properties": {"id": "9655", "fid": 77950985, "name": "Fairfax Lane Ts", "featureType": "TransmissionSubstation", "city": "Moss Vale", "postcode": "2577", "voltage": "132kV", "feeder": null, "address": "47 Farnborough Drive", "state": "Inservice", "layer": "transmissionSubstation"}, "geometry": {"type": "Point", "coordinates": [150.40681876526153, -34.5523402254201]}}, {"type": "Feature", "properties": {"id": "9601", "fid": 77955344, "name": "Warrimoo Ts", "featureType": "TransmissionSubstation", "city": "Warrimoo", "postcode": "2774", "voltage": "132kV", "feeder": null, "address": "209 Great Western Highway", "state": "Inservice", "layer": "transmissionSubstation"}, "geometry": {"type": "Point", "coordinates": [150.60308150593067, -33.73262286975726]}}, {"type": "Feature", "properties": {"id": "9541", "fid": 77930593, "name": "Mt Druitt Ts", "featureType": "TransmissionSubstation", "city": "North St Marys", "postcode": "2760", "voltage": "132kV", "feeder": null, "address": "69 Kurrajong Rd", "state": "Inservice", "layer": "transmissionSubstation"}, "geometry": {"type": "Point", "coordinates": [150.7915064214585, -33.763266053867525]}}, {"type": "Feature", "properties": {"id": "9677", "fid": 77932641, "name": "Shoalhaven Ts", "featureType": "TransmissionSubstation", "city": "Nowra", "postcode": "2540", "voltage": "132kV", "feeder": null, "address": "1012 Yalwal Road", "state": "Inservice", "layer": "transmissionSubstation"}, "geometry": {"type": "Point", "coordinates": [150.59240863761008, -34.89041423985984]}}, {"type": "Feature", "properties": {"id": "9522", "fid": 77918254, "name": "Carlingford Ts", "featureType": "TransmissionSubstation", "city": "Carlingford", "postcode": "2118", "voltage": "132kV", "feeder": null, "address": "12B Felton Road", "state": "Inservice", "layer": "transmissionSubstation"}, "geometry": {"type": "Point", "coordinates": [151.0431205242186, -33.78262661761545]}}, {"type": "Feature", "properties": {"id": "9519", "fid": 77929149, "name": "Guildford Ts", "featureType": "TransmissionSubstation", "city": "Guildford West", "postcode": "2161", "voltage": "132kV", "feeder": null, "address": "120-130 McCredie Rd", "state": "Inservice", "layer": "transmissionSubstation"}, "geometry": {"type": "Point", "coordinates": [150.95691452230264, -33.85022010153495]}}, {"type": "Feature", "properties": {"id": "9667", "fid": 77936922, "name": "Mount Terry Ts", "featureType": "TransmissionSubstation", "city": "Albion Park", "postcode": "2527", "voltage": "132kV", "feeder": null, "address": "182 Terry St", "state": "Inservice", "layer": "transmissionSubstation"}, "geometry": {"type": "Point", "coordinates": [150.77729908781342, -34.58314697777326]}}, {"type": "Feature", "properties": {"id": "9642", "fid": 77938549, "name": "Bellambi Ts", "featureType": "TransmissionSubstation", "city": "Woonona", "postcode": "2517", "voltage": "132kV", "feeder": null, "address": "12 Mount Ousley Road", "state": "Inservice", "layer": "transmissionSubstation"}, "geometry": {"type": "Point", "coordinates": [150.8822790284837, -34.34129430761971]}}, {"type": "Feature", "properties": {"id": "9521", "fid": 77952623, "name": "Penrith Ts", "featureType": "TransmissionSubstation", "city": "Penrith", "postcode": "2750", "voltage": "132kV", "feeder": null, "address": "2235-2249 Castlereagh Rd", "state": "Inservice", "layer": "transmissionSubstation"}, "geometry": {"type": "Point", "coordinates": [150.69160112185324, -33.74674167575132]}}, {"type": "Feature", "properties": {"id": "9613", "fid": 77956437, "name": "Ilford Ts", "featureType": "TransmissionSubstation", "city": "Ilford", "postcode": "2850", "voltage": "132kV", "feeder": null, "address": "79 Ilford Hall Rd", "state": "Inservice", "layer": "transmissionSubstation"}, "geometry": {"type": "Point", "coordinates": [149.8629782966771, -32.95950707278368]}}, {"type": "Feature", "properties": {"id": "9520", "fid": 77929914, "name": "Blacktown Ts", "featureType": "TransmissionSubstation", "city": "Prospect", "postcode": "2148", "voltage": "132kV", "feeder": null, "address": "418 Blacktown Rd", "state": "Inservice", "layer": "transmissionSubstation"}, "geometry": {"type": "Point", "coordinates": [150.9268978220315, -33.80311085193516]}}, {"type": "Feature", "properties": {"id": "9815", "fid": 86304511, "name": "Western Sydney Airport Ts", "featureType": "TransmissionSubstation", "city": "Badgerys Creek", "postcode": "2555", "voltage": "132kV", "feeder": null, "address": "2300 Elizabeth Drive", "state": "Inservice", "layer": "transmissionSubstation"}, "geometry": {"type": "Point", "coordinates": [150.73034926448932, -33.87130699948515]}}, {"type": "Feature", "properties": {"id": "9716", "fid": 77930332, "name": "West Wetherill Park Ts", "featureType": "TransmissionSubstation", "city": "Wetherill Park", "postcode": "2164", "voltage": "132kV", "feeder": null, "address": "1-3 Potter Cl", "state": "Inservice", "layer": "transmissionSubstation"}, "geometry": {"type": "Point", "coordinates": [150.88134066900906, -33.84216185379721]}}, {"type": "Feature", "properties": {"id": "9752", "fid": 77962753, "name": "West Tomerong Ts", "featureType": "TransmissionSubstation", "city": "Tomerong", "postcode": "2540", "voltage": "132kV", "feeder": null, "address": "Blackbutt Range Rd", "state": "Inservice", "layer": "transmissionSubstation"}, "geometry": {"type": "Point", "coordinates": [150.57588198869138, -35.02290090810314]}}, {"type": "Feature", "properties": {"id": "9529", "fid": 77924894, "name": "Baulkham Hills Ts", "featureType": "TransmissionSubstation", "city": "Old Toongabbie", "postcode": "2146", "voltage": "132kV", "feeder": null, "address": "363 Old Windsor Rd", "state": "Inservice", "layer": "transmissionSubstation"}, "geometry": {"type": "Point", "coordinates": [150.9685879099611, -33.781688431939656]}}, {"type": "Feature", "properties": {"id": "9575", "fid": 77956109, "name": "Lawson Ts", "featureType": "TransmissionSubstation", "city": "Lawson", "postcode": "2783", "voltage": "132kV", "feeder": null, "address": "26-32 Loftus St", "state": "Inservice", "layer": "transmissionSubstation"}, "geometry": {"type": "Point", "coordinates": [150.4257906223334, -33.72111781906015]}}, {"type": "Feature", "properties": {"id": "9585", "fid": 77928911, "name": "Nepean Ts", "featureType": "TransmissionSubstation", "city": "Spring Farm", "postcode": "2570", "voltage": "132kV", "feeder": null, "address": "156 Springs Road", "state": "Inservice", "layer": "transmissionSubstation"}, "geometry": {"type": "Point", "coordinates": [150.73224570387208, -34.07208926858701]}}]}